Origin Time       2021/08/14 22:38:00
Lat.              37.5
Long.             137.2
Depth. (km)       10
Mag.              4.1
Station Code      ISK003
Station Lat.      37.3919
Station Long.     136.9083
Station Height(m) 10
Record Time       2021/08/14 22:38:13
Sampling Freq(Hz) 100Hz
Duration Time(s)  60
Dir.              E-W
Scale Factor      7845(gal)/8223790
Max. Acc. (gal)   3.767
Last Correction   2021/08/14 22:38:12
Memo.             
[...]
    -292     -295     -294     -292     -297     -295     -294     -295 
    -297     -297     -295     -294     -294     -297     -299     -295 
    -292     -294     -297     -298     -297     -294     -291     -294 
    -298     -297     -294     -295     -295     -295     -295     -294 
    -292     -294     -297     -298     -292     -288     -292     -298 
    -297     -292     -294     -297     -294     -295     -298     -298 
    -294     -292     -295     -297     -297     -295     -297     -299 
    -298     -292     -294     -297     -294     -291     -294     -297 
    -294     -292     -294     -292     -294     -298     -297     -292 
    -295     -299     -295     -292     -295     -294     -292     -295 
    -295     -294     -297     -298     -294     -294     -294     -291 
    -294     -295     -292     -292     -297     -297     -295     -292 
    -295     -297     -295     -294     -294     -294     -295     -294 
    -292     -294     -298     -295     -291     -295     -297     -294 
    -294     -297     -295     -291     -294     -297     -295     -294 
    -294     -294     -294     -291     -295     -301     -297     -295 
    -301     -295     -290     -294     -295     -292     -292     -295 
    -294     -292     -292     -292     -295     -297     -292     -295 
    -298     -295     -295     -299     -297     -294     -297     -295 
    -292     -294     -295     -295     -295     -294     -292     -292 
    -294     -297     -295     -292     -292     -297     -295     -297 
    -298     -295     -295     -295     -294     -294     -292     -294 
    -298     -297     -292     -292     -295     -295     -294     -297 
    -297     -294     -294     -297     -297     -294     -292     -297 
    -297     -291     -292     -298     -294     -291     -295     -297 
    -295     -295     -295     -295     -294     -292     -295     -297 
    -294     -294     -294     -292     -295     -295     -292     -291 
    -295     -295     -294     -294     -292     -291     -291     -292 
    -297     -295     -291     -292     -294     -294     -292     -291 
    -295     -298     -295     -292     -291     -291     -294     -294 
    -291     -294     -295     -291     -292     -295     -294     -292 
    -294     -294     -292     -290     -292     -298     -295     -291 
    -295     -298     -295     -292     -294     -295     -295     -295 
    -294     -292     -291     -292     -297     -294     -290     -292 
    -295     -294     -294     -295     -294     -295     -297     -295 
    -294     -294     -294     -297     -297     -295     -297     -298 
    -297     -294     -294     -297     -298     -295     -292     -295 
    -298     -295     -294     -292     -292     -295     -297     -294 
    -294     -297     -297     -294     -294     -295     -294     -292 
    -294     -295     -292     -292     -297     -294     -292     -298 
    -298     -292     -292     -298     -298     -294     -295     -298 
    -295     -291     -291     -294     -295     -297     -295     -294 
    -295     -294     -292     -295     -295     -297     -298     -294 
    -291     -297     -299     -294     -292     -295     -297     -298 
    -297     -294     -294     -298     -297     -292     -295     -298 
    -295     -294     -294     -294     -297     -298     -291     -292 
    -299     -295     -290     -297     -301     -295     -295     -295 
    -294     -292     -292     -295     -298     -295     -294     -295 
    -297     -297     -294     -294     -295     -295     -294     -295 
    -295     -295     -297     -297     -294     -294     -297     -297 
    -297     -295     -292     -292     -298     -297     -291     -294 
    -299     -297     -292     -294     -291     -292     -299     -295 
    -288     -292     -297     -295     -297     -294     -291     -295 
    -295     -292     -297     -294     -291     -297     -295     -292 
    -298     -297     -294     -295     -294     -295     -297     -295 
    -294     -294     -291     -291     -294     -292     -295     -299 
    -295     -291     -292     -294     -294     -294     -291     -292 
    -297     -295     -292     -295     -298     -298     -295     -295 
    -295     -295     -294     -294     -297     -295     -292     -294 
    -292     -292     -298     -298     -291     -290     -294     -297 
    -294     -294     -294     -294     -292     -292     -294     -298 
    -295     -292     -291     -292     -297     -295     -291     -294 
    -297     -297     -295     -291     -294     -298     -294     -292 
    -297     -297     -292     -291     -294     -295     -294     -295 
    -297     -294     -294     -295     -294     -294     -298     -298 
    -292     -294     -297     -292     -291     -297     -298     -295 
    -297     -297     -294     -298     -298     -292     -292     -295 
    -295     -297     -297     -294     -295     -295     -292     -294 
    -292     -292     -297     -297     -294     -294     -295     -294 
    -294     -297     -294     -292     -294     -291     -291     -295 
    -295     -294     -292     -294     -298     -295     -294     -295 
    -294     -292     -295     -295     -292     -292     -294     -292 
    -292     -294     -292     -295     -298     -291     -288     -294 
    -292     -291     -294     -294     -294     -297     -297     -294 
    -294     -294     -295     -294     -292     -295     -297     -294 
    -294     -295     -292     -290     -294     -299     -295     -290 
    -295     -299     -294     -292     -299     -298     -294     -295 
    -295     -292     -295     -295     -292     -292     -294     -297 
    -297     -295     -295     -295     -294     -294     -294     -294 
    -295     -297     -294     -292     -295     -294     -292     -294 
    -292     -292     -294     -292     -292     -292     -292     -299 
    -301     -294     -292     -297     -294     -292     -297     -294 
    -292     -295     -295     -295     -294     -292     -294     -297 
    -297     -297     -294     -294     -294     -294     -295     -298 
    -298     -294     -294     -297     -292     -291     -295     -292 
    -291     -295     -297     -294     -292     -295     -298     -295 
    -294     -297     -298     -294     -294     -297     -295     -292 
    -297     -297     -292     -292     -297     -294     -295     -295 
    -292     -294     -297     -294     -292     -291     -291     -294 
    -295     -294     -295     -297     -295     -294     -294     -292 
    -292     -294     -294     -295     -294     -294     -294     -292 
    -292     -292     -291     -295     -297     -292     -292     -295 
    -295     -292     -292     -294     -294     -294     -292     -292 
    -294     -295     -292     -292     -294     -292     -294     -295 
    -292     -292     -295     -295     -294     -292     -292     -295 
    -299     -295     -292     -295     -294     -292     -295     -295 
    -295     -298     -298     -295     -291     -291     -297     -298 
    -292     -292     -295     -295     -297     -295     -294     -297 
    -297     -294     -294     -294     -295     -297     -297     -295 
    -295     -295     -295     -295     -295     -294     -294     -294 
    -292     -294     -297     -295     -292     -295     -295     -291 
    -294     -295     -294     -297     -297     -294     -297     -295 
    -290     -294     -299     -297     -294     -295     -298     -299 
    -294     -294     -298     -297     -295     -295     -292     -292 
    -297     -295     -292     -294     -295     -295     -295     -294 
    -291     -291     -295     -294     -291     -294     -295     -294 
    -295     -297     -294     -295     -298     -297     -292     -291 
    -295     -294     -294     -295     -292     -292     -295     -292 
    -292     -294     -294     -292     -294     -295     -292     -292 
    -298     -297     -294     -295     -297     -294     -297     -295 
    -291     -295     -301     -295     -294     -299     -298     -294 
    -294     -294     -294     -294     -292     -294     -294     -291 
    -292     -297     -294     -291     -295     -297     -295     -295 
    -291     -292     -297     -294     -290     -295     -298     -294 
    -292     -294     -292     -291     -292     -292     -292     -292 
    -292     -297     -297     -292     -291     -294     -294     -292 
    -292     -292     -292     -295     -295     -292     -294     -294 
    -294     -295     -294     -294     -297     -294     -291     -295 
    -297     -295     -297     -292     -290     -292     -294     -292 
    -295     -297     -294     -292     -294     -292     -294     -297 
    -294     -292     -294     -292     -292     -297     -297     -297 
    -295     -294     -294     -294     -294     -294     -295     -295 
    -292     -292     -294     -294     -294     -295     -295     -291 
    -292     -297     -294     -292     -297     -295     -292     -294 
    -292     -292     -298     -295     -292     -298     -298     -294 
    -292     -292     -292     -297     -295     -290     -294     -298 
    -295     -294     -294     -294     -295     -294     -292     -294 
    -287     -274     -234     -151      -45      -10     -116     -328 
    -511     -511     -322     -220     -508    -1039    -1323     -930 
      66      706      365     -302     -480       86      554      -33 
    -639     -263      256     -236    -1663    -2035     -386     1275 
    1044     -675    -1885    -1529     -153     1467     1655     -491 
   -2666    -2211      708     2752      922    -2268    -2181      623 
    2089      579    -1803    -2115     -413      567     -472    -1927 
   -1718      170     1652     1217     -324    -1232     -680      472 
     515     -832    -1771     -733      969      472    -1787    -1989 
     596     1895     -122    -2006     -700     1563     1312     -841 
   -1946     -982      341      -45    -1518    -1618      -40     1225 
    1042      209      -64      144      -37     -695    -1059     -946 
   -1094    -1398     -891      110      490      251       37     -133 
    -367     -340     -319     -967    -1537     -540     1493     2128 
     422    -1695    -1918     -280      977      338    -1030    -1378 
    -702      -18       67     -203     -321     -336     -499     -531 
    -305     -427     -957     -783      278      679     -144     -742 
    -260      422      388     -288     -943     -977     -315      542 
     691     -202    -1086     -931     -201       36     -392     -769 
    -745     -606     -465     -423     -494     -307       16       62 
    -112     -283     -172      178      198     -225     -499     -251 
     159       75     -645    -1269    -1042     -448     -345     -511 
    -388      -36       94     -232     -461      -27      494      325 
    -191     -495     -604     -359      163      167     -486     -990 
    -845     -371     -171     -438     -901     -981     -303      583 
     749       56     -714     -766     -199      180      -79     -610 
    -768     -454     -132      -14      -54     -306     -602     -695 
    -631     -500     -268      132      454      175     -517     -699 
    -270     -135     -533     -751     -490     -130       81       68 
    -233     -572     -669     -630     -527     -345     -247     -271 
    -199        5       89     -141     -604     -726     -159      170 
    -402     -884     -579     -145       37      174      155     -190 
    -662     -795     -427      -20       78      -25     -257     -527 
    -540     -249      -59     -184     -356     -321     -105      139 
     152     -319     -992    -1070     -452      -98     -422     -612 
    -302     -178     -463     -531     -152       97     -164     -529 
    -579     -388     -128       29      -35     -120      -75     -139 
    -502     -874     -892     -514       86      384       47     -398 
    -454     -295     -130       -6     -153     -573     -660     -272 
    -128     -297     -236     -186     -488     -704     -550     -337 
    -284     -282      -91      302      383     -141     -664     -608 
    -193      -16     -405     -881     -670        9      268      -47 
    -384     -253      124     -103     -811     -896     -372     -162 
    -407     -642     -715     -697     -658     -616     -388      -28 
     186      267       68     -419     -410      222      340     -363 
    -831     -572     -253     -396     -583     -326       51       35 
    -259     -361     -140      103       21     -476     -843     -544 
    -164     -317     -491     -253       51      -78     -716    -1086 
    -437      436      286     -567     -992     -589       97      133 
    -480     -722     -345      -35     -122     -409     -507     -228 
     -64     -399     -583     -194       54     -143     -306     -526 
    -800     -446      351      598      -45     -876     -803       24 
     506      315     -363    -1075    -1242     -924     -338      245 
     105     -772    -1148     -356      546      442     -329     -780 
    -441      172      102     -430     -306      321      387     -372 
   -1308    -1401     -432      399      175     -557     -909     -562 
     144      407      -97     -642     -365      317      253        9 
    1054     2450     2278      805     -747    -2042    -2897    -2897 
   -2305    -1948    -2039    -2296    -2608    -2628    -1572      722 
    3042     3654     2115      -13     -841     -321      125     -182 
    -445      120      720      -29    -1579    -1745      182     2135 
    1545    -1501    -3923    -2820      842     2940     1472    -1120 
   -1972    -1271     -554       62     1077     1493       97    -2056 
   -2710    -1310      550     1401     1186      248     -823    -1094 
    -769     -789     -872     -166      845      784     -513    -1502 
    -942      535     1408      976     -147     -681        4      984 
     885     -236    -1294    -1877    -2304    -2728    -2878    -1984 
     137     1756     1250     -390    -1298    -1144     -604     -117 
     356      838      873      182     -739    -1304    -1138      101 
    1831     2162      211    -1857    -1590       47      511     -407 
    -970     -399      548     1185     1219      357     -911    -1439 
    -850       85      492      155     -612    -1115     -822     -494 
   -1286    -2485    -2230     -621      267     -406    -1057     -222 
    1224     1518      544     -310     -224      284      282     -448 
    -981     -639     -342     -707     -773     -139      513      595 
    -249    -1421    -1725    -1190     -552      -93       97       -8 
    -103      220      503      -91     -963     -742      530     1233 
     313    -1266    -1791     -534     1601     2590     1209    -1507 
   -3133    -2371     -415      733      642      248     -179    -1129 
   -2046    -1640       -5     1333     1270      -21    -1358    -1551 
    -826     -368     -334      238     1420     1779      475    -1179 
   -1501     -830     -544     -893    -1321    -1426     -997     -355 
    -255     -754     -819      202     1287     1005     -495    -1645 
   -1318      -93      700      716      515      221     -395     -720 
    -176      328     -125     -841     -783     -280     -288     -677 
    -481      297      372     -723    -1615    -1289     -575     -518 
    -920    -1061     -699     -132      233      108     -365     -473 
     -44       83     -332     -531      -91      585      859      722 
     704      712      163     -788    -1358    -1293    -1061     -884 
    -465      237      772      689      141      -59      452      878 
     498     -241     -568     -418     -230     -349     -791    -1323 
   -1668    -1526     -889     -445     -661     -886     -338      572 
     680     -280    -1206    -1085      -71      880      769     -441 
   -1371     -939      149      742      596       22     -594    -1021 
   -1178     -923     -364       21      -66     -526    -1008     -973 
    -143      642      306     -526     -542      -29       29     -176 
      17      367      288      -29     -151     -234     -507     -637 
    -414     -144       12       16     -390    -1139    -1678    -1503 
    -585      183     -133     -888    -1044     -897     -766     -236 
     463      438     -382     -993     -506      729     1310      531 
    -760    -1480    -1231     -306      398      261     -388     -766 
    -560     -211     -145     -291     -318      -81       78     -174 
    -639     -859     -504      199      456        1     -499     -595 
    -355       45      113     -437    -1021     -916     -182      372 
     248      -16       58       58     -213     -253      -72     -228 
    -677     -959     -872     -658     -685     -629      -67      315 
    -108     -657     -494      226      766      722      310     -256 
    -899    -1148     -711     -311     -496     -460      384     1107 
     822        6     -560     -808     -930     -958     -834     -548 
    -271     -159     -295     -684     -940     -707     -271     -160 
    -514     -949     -896     -310      178      132     -130     -136 
      48       35     -162     -153       55      -17     -490     -924 
   -1096    -1074     -731      -64      355       91     -341     -199 
     216       72     -457     -446       64       33     -622     -760 
    -109      279     -148     -773     -946     -812     -724     -542 
    -198     -194     -664     -859     -415       71      164      102 
      68      -21       28      353      492       87     -670    -1304 
   -1304     -683        1      234       29     -103      -36     -190 
    -538     -657     -487     -302     -287     -348     -433     -643 
    -762     -376      418      881      522     -174     -487     -411 
    -413     -631     -660     -306      -91     -410     -835     -745 
    -166      279      108     -429     -634     -280       97       55 
    -247     -572     -850     -851     -450      -72     -175     -510 
    -641     -704     -882     -831     -286      392      735      658 
     322      -35     -338     -672     -838     -541      -33      238 
     332      442      399       -4     -479     -523     -178       -8 
    -259     -584     -727     -715     -525     -259      -98      -75 
    -229     -492     -567     -318      -98     -342     -903    -1174 
    -889     -438     -325     -488     -610     -672     -683     -587 
    -583     -772     -845     -634     -375     -230     -190     -229 
    -143      145      341      351      264      -60     -523     -580 
     -87      411      480      216     -109     -301     -243      -78 
     -72     -194     -275     -405     -729    -1131    -1237     -693 
     214      476     -260     -912     -565      176      253     -344 
    -719     -441      -36       12     -155     -291     -346     -348 
    -419     -665     -872     -692     -247     -112     -550    -1117 
   -1192     -675      -33      238      102       -5      224      414 
      81     -438     -468      -72       81     -328     -866     -858 
    -238      305      152     -456     -761     -545     -267     -267 
    -368     -261      -40      -44     -172      -36      286      382 
