Origin Time       2021/08/14 22:38:00
Lat.              37.5
Long.             137.2
Depth. (km)       10
Mag.              4.1
Station Code      ISK006
Station Lat.      37.1602
Station Long.     136.6897
Station Height(m) 80
Record Time       2021/08/14 22:38:30
Sampling Freq(Hz) 100Hz
Duration Time(s)  60
Dir.              E-W
Scale Factor      7845(gal)/8223790
Max. Acc. (gal)   1.810
Last Correction   2021/08/14 22:38:30
Memo.             
[...]
   14269    14276    14276    14260    14281    14274    14257    14289 
   14273    14257    14293    14268    14261    14297    14262    14264 
   14293    14261    14273    14285    14256    14281    14277    14258 
   14288    14269    14261    14289    14265    14269    14285    14261 
   14280    14281    14258    14283    14277    14261    14285    14273 
   14264    14287    14268    14268    14288    14262    14269    14284 
   14261    14276    14281    14261    14280    14276    14266    14287 
   14268    14268    14288    14262    14270    14289    14262    14278 
   14284    14261    14283    14277    14260    14287    14269    14264 
   14289    14265    14272    14288    14262    14278    14280    14257 
   14283    14277    14262    14285    14269    14265    14283    14264 
   14272    14283    14264    14280    14278    14264    14287    14272 
   14261    14291    14268    14264    14293    14266    14266    14287 
   14262    14274    14285    14257    14280    14284    14260    14284 
   14278    14262    14287    14272    14264    14285    14269    14273 
   14284    14264    14278    14278    14260    14281    14274    14266 
   14287    14264    14268    14288    14262    14274    14287    14260 
   14280    14278    14256    14285    14277    14262    14289    14272 
   14261    14284    14270    14272    14281    14264    14278    14280 
   14260    14278    14274    14262    14287    14277    14277    14308 
   14307    14326    14339    14291    14269    14243    14208    14254 
   14265    14218    14223    14220    14233    14273    14231    14208 
   14253    14283    14288    14220    14199    14330    14403    14362 
   14301    14242    14299    14391    14323    14245    14310    14404 
   14419    14301    14129    14125    14272    14351    14285    14146 
   14115    14193    14207    14234    14343    14386    14343    14258 
   14172    14208    14266    14206    14202    14299    14386    14424 
   14337    14226    14237    14320    14395    14316    14170    14215 
   14289    14230    14222    14241    14268    14388    14397    14320 
   14338    14300    14233    14230    14183    14196    14281    14260 
   14249    14304    14277    14214    14243    14350    14373    14301 
   14283    14246    14154    14146    14185    14235    14327    14337 
   14270    14316    14428    14438    14328    14192    14172    14224 
   14197    14131    14081    14154    14399    14505    14423    14409 
   14396    14341    14304    14193    14118    14203    14277    14261 
   14196    14191    14315    14339    14274    14304    14277    14273 
   14385    14305    14142    14208    14303    14261    14233    14250 
   14301    14364    14335    14220    14137    14199    14299    14291 
   14276    14223    14104    14191    14396    14418    14384    14400 
   14415    14463    14413    14215    14114    14143    14184    14223 
   14239    14258    14258    14214    14224    14280    14327    14362 
   14311    14254    14242    14161    14145    14243    14253    14287 
   14385    14355    14322    14324    14258    14284    14399    14416 
   14318    14214    14185    14125    14099    14277    14350    14219 
   14191    14203    14181    14227    14292    14385    14473    14428 
   14389    14416    14339    14239    14230    14249    14264    14160 
   14019    14106    14238    14280    14399    14405    14307    14403 
   14440    14274    14189    14187    14223    14278    14176    14025 
   14064    14260    14412    14373    14300    14370    14482    14531 
   14392    14108    14054    14203    14283    14304    14222    14161 
   14304    14338    14184    14220    14413    14513    14455    14301 
   14249    14233    14108    14125    14187    14081    14112    14238 
   14211    14233    14368    14511    14562    14466    14416    14332 
   14111    14098    14218    14207    14256    14319    14254    14270 
   14307    14157    14110    14320    14416    14295    14211    14261 
   14322    14337    14296    14094    14010    14365    14593    14382 
   14231    14273    14378    14442    14249    14013    14089    14370 
   14524    14365    14115    14083    14192    14268    14214    14102 
   14184    14331    14285    14212    14242    14413    14673    14629 
   14368    14308    14324    14276    14196    14015    13941    14106 
   14264    14303    14270    14245    14292    14277    14235    14380 
   14497    14404    14342    14289    14141    14153    14292    14274 
   14208    14260    14338    14376    14357    14223    14029    14029 
   14224    14322    14353    14376    14287    14291    14453    14473 
   14320    14214    14303    14472    14373    14085    13964    13959 
   14002    14176    14391    14566    14554    14337    14253    14305 
   14266    14293    14349    14214    14146    14237    14224    14187 
   14299    14462    14473    14296    14169    14158    14133    14133 
   14126    14166    14342    14386    14316    14407    14480    14397 
   14328    14264    14222    14369    14540    14408    14112    14027 
   14060    14014    14112    14283    14204    14129    14268    14413 
   14517    14588    14565    14473    14258    14065    14087    14102 
   14064    14141    14206    14229    14276    14287    14337    14412 
   14426    14481    14469    14274    14131    14126    14168    14223 
   14262    14328    14366    14262    14214    14318    14330    14206 
   14126    14185    14330    14368    14337    14388    14418    14378 
   14300    14152    14056    14065    14180    14376    14396    14265 
   14292    14361    14307    14299    14241    14102    14181    14364 
   14439    14389    14127    13984    14197    14395    14440    14396 
   14291    14304    14314    14188    14158    14247    14323    14308 
   14204    14223    14315    14297    14334    14399    14319    14283 
   14358    14347    14241    14168    14164    14191    14242    14296 
   14281    14266    14335    14326    14220    14175    14104    14079 
   14256    14304    14181    14251    14392    14442    14494    14492 
   14430    14368    14272    14197    14146    14058    14071    14133 
   14148    14284    14412    14451    14538    14513    14374    14235 
   14084    14076    14157    14185    14235    14230    14207    14318 
   14369    14273    14300    14459    14492    14404    14349    14307 
   14196    14069    14007    14031    14162    14280    14272    14231 
   14235    14342    14467    14404    14338    14485    14577    14446 
   14229    14075    14115    14227    14184    14129    14185    14223 
   14216    14138    14044    14280    14689    14690    14397    14150 
   13983    14100    14341    14288    14220    14378    14504    14436 
   14214    14131    14230    14206    14214    14320    14250    14157 
   14187    14224    14295    14365    14405    14446    14396    14253 
   14158    14214    14347    14350    14257    14219    14169    14150 
   14235    14235    14177    14272    14415    14470    14436    14292 
   14146    14098    14137    14274    14403    14459    14492    14382 
   14152    14045    14011    13960    14077    14297    14424    14530 
   14612    14569    14415    14224    14106    14095    14150    14181 
   14197    14318    14430    14407    14377    14359    14292    14208 
   14076    13984    14037    14116    14238    14395    14369    14277 
   14382    14546    14586    14515    14342    14188    14208    14297 
   14212    14008    13965    14072    14156    14287    14385    14291 
   14270    14423    14442    14328    14239    14222    14296    14378 
   14461    14443    14235    14103    14073    14048    14179    14242 
   14161    14288    14469    14499    14530    14497    14411    14365 
   14179    13933    13910    14040    14170    14253    14319    14423 
   14415    14260    14188    14283    14431    14482    14339    14162 
   14214    14365    14310    14134    14076    14158    14256    14292 
   14355    14377    14287    14335    14465    14407    14299    14249 
   14154    14123    14291    14426    14326    14199    14181    14134 
   14087    14170    14280    14301    14382    14546    14547    14382 
   14285    14289    14177    13979    13960    14031    14107    14295 
   14411    14434    14534    14544    14457    14400    14246    14164 
   14249    14211    14189    14262    14210    14199    14243    14254 
   14418    14535    14446    14427    14430    14258    14027    13864 
   13855    14040    14202    14156    14169    14428    14543    14372 
   14319    14369    14247    14215    14299    14160    14092    14227 
   14176    14085    14191    14404    14648    14686    14521    14368 
   14116    13960    14115    14200    14175    14346    14561    14647 
   14578    14278    14049    14168    14295    14149    13979    13976 
   14079    14299    14477    14270    13972    14095    14396    14578 
   14688    14640    14389    14095    14092    14391    14391    14085 
   13949    13872    13952    14324    14447    14339    14440    14403 
   14087    14056    14423    14773    14674    14239    14106    14301 
   14407    14361    14243    14184    14218    14153    14133    14364 
   14416    14180    14230    14434    14324    14179    14166    14102 
   14061    14079    14094    14162    14288    14477    14625    14574 
   14265    13784    13713    14245    14558    14434    14372    14323 
   14227    14368    14706    14909    14704    14224    13963    14013 
   14107    14134    14071    14033    14094    14181    14393    14661 
   14644    14335    14037    13960    14152    14474    14652    14465 
   13952    13647    13918    14319    14434    14373    14288    14212 
   14233    14368    14316    14065    14207    14781    15020    14667 
   14203    13934    13988    14353    14555    14361    13971    13635 
   13625    13894    14284    14609    14542    14451    14642    14665 
   14559    14467    14110    13656    13552    13922    14391    14531 
   14472    14328    14169    14319    14602    14679    14574    14291 
   14196    14526    14490    13946    13814    13998    14075    14527 
   14991    14601    13915    13667    13745    14034    14372    14435 
   14173    13960    14022    14088    14125    14446    14941    15099 
   14797    14435    14242    14139    14031    13841    13815    14272 
   14727    14544    14100    13865    13798    14127    14774    14972 
   14624    14288    14056    13810    13732    13960    14223    14278 
   14349    14505    14511    14488    14482    14250    14087    14211 
   14241    14157    14084    14007    14106    14284    14432    14693 
   14878    14796    14570    14318    14215    14285    14268    14235 
   14305    14118    13614    13300    13513    14065    14481    14575 
   14489    14388    14328    14184    14119    14439    14759    14750 
   14677    14474    14154    14149    14399    14558    14457    14058 
   13710    13724    13936    14068    14019    13965    14185    14578 
   14789    14712    14527    14426    14427    14447    14462    14503 
   14561    14582    14416    13977    13535    13460    13752    14062 
   14235    14435    14566    14370    14088    14111    14412    14693 
   14625    14297    14110    13945    13659    13641    13923    14172 
   14426    14771    15014    14983    14790    14581    14350    14257 
   14386    14354    13977    13656    13709    13973    14064    13851 
   13672    13818    14216    14764    15259    15384    15171    14820 
   14461    14285    14192    13977    13797    13711    13702    13845 
   13944    13967    14111    14254    14326    14445    14678    14868 
   14600    14087    14056    14342    14381    14328    14392    14392 
   14345    14459    14679    14655    14269    13849    13583    13491 
   13718    14049    14257    14527    14717    14667    14615    14550 
   14403    14330    14366    14418    14278    13846    13397    13208 
   13423    14027    14588    14797    14794    14650    14476    14449 
   14535    14665    14771    14759    14574    14207    13805    13617 
   13828    14392    14924    15030    14689    14071    13441    13209 
   13539    14107    14428    14347    14276    14376    14287    14187 
   14374    14569    14736    14912    14874    14665    14355    13910 
   13513    13514    14042    14562    14550    14254    14011    13950 
   14181    14434    14384    14283    14354    14419    14473    14459 
   14210    13960    13869    14002    14484    14882    14809    14623 
   14616    14628    14419    14027    13772    13660    13516    13564 
   13865    14141    14434    14646    14507    14285    14143    13932 
   13860    14052    14301    14539    14692    14655    14643    14904 
   15223    15148    14629    14080    13838    13860    13882    13860 
   13875    13836    13871    14049    14152    14274    14428    14435 
   14508    14639    14601    14594    14644    14486    14230    14084 
   14027    14003    13941    13900    14006    14126    14195    14287 
   14312    14327    14413    14391    14287    14262    14287    14385 
   14480    14430    14469    14636    14596    14436    14412    14423 
   14327    14127    13918    13768    13635    13506    13429    13494 
   13771    14110    14507    15155    15816    16117    16017    15488 
   14617    13714    13031    12660    12456    12468    13088    14034 
   14562    14739    14975    15304    15660    15859    15665    15121 
   14548    14112    13705    13348    13003    12559    12376    12810 
   13711    14693    15390    15723    15739    15358    14828    14575 
   14403    13959    13517    13393    13616    14054    14323    14376 
   14440    14442    14477    14651    14679    14538    14337    13975 
   13644    13554    13564    13660    13934    14384    14933    15269 
   15237    14999    14573    14019    13571    13378    13574    14044 
   14470    14756    14952    15053    14895    14419    14018    13915 
   13903    13867    13811    13756    13751    13883    14214    14540 
   14682    14767    14721    14430    14262    14384    14450    14368 
   14264    14187    14311    14573    14555    14272    14013    13855 
   13944    14266    14511    14566    14478    14266    13988    13807 
   13980    14362    14534    14501    14416    14277    14071    13814 
   13745    13946    14091    14138    14270    14349    14331    14393 
   14530    14694    14921    15094    14953    14511    14131    13932 
   13728    13597    13697    13903    14104    14349    14592    14716 
   14713    14709    14732    14566    14173    13818    13568    13456 
   13593    13868    14123    14353    14593    14804    14841    14631 
   14346    14214    14222    14229    14196    14233    14370    14455 
   14436    14339    14181    14135    14215    14235    14243    14249 
   14129    13957    13869    13973    14272    14623    14913    15010 
   14886    14665    14320    13914    13699    13684    13802    14037 
   14102    13933    13879    14056    14404    14771    14868    14793 
   14775    14736    14593    14292    13921    13733    13726    13861 
   14142    14353    14445    14501    14440    14326    14261    14218 
   14231    14272    14295    14347    14315    14181    14099    14000 
   13921    14007    14102    14195    14374    14496    14629    14843 
   14976    14982    14775    14436    14210    14027    13891    13840 
   13713    13697    13899    14019    14092    14204    14179    14103 
   14165    14369    14553    14569    14590    14719    14721    14638 
   14646    14555    14291    14116    14111    14072    13905    13782 
   13818    13969    14245    14513    14547    14443    14345    14246 
   14238    14214    14067    14095    14287    14318    14269    14251 
   14254    14376    14509    14494    14401    14278    14181    14148 
   14152    14230    14222    14103    14200    14391    14445    14499 
   14366    14045    13984    14152    14289    14345    14265    14177 
   14243    14432    14627    14623    14424    14270    14175    14076 
   14052    14060    14034    14027    14122    14307    14431    14531 
   14713    14731    14523    14385    14323    14224    14107    13981 
   13949    14045    14127    14196    14276    14326    14442    14567 
   14508    14291    14025    13882    13969    14130    14272    14397 
   14424    14399    14365    14323    14373    14443    14403    14342 
   14315    14268    14202    14131    14060    13957    13899    14094 
   14413    14577    14639    14663    14593    14496    14391    14239 
   14103    14011    13934    13900    14003    14199    14303    14373 
   14519    14524    14334    14184    14075    14004    14153    14391 
   14494    14496    14462    14472    14482    14354    14226    14166 
   14095    14138    14199    14100    14002    13953    13995    14206 
   14385    14465    14496    14451    14423    14397    14350    14409 
   14439    14297    14162    14146    14223    14326    14324    14238 
   14170    14146    14243    14343    14233    14100    14092    14095 
   14153    14310    14481    14562    14504    14434    14337    14111 
   13979    14056    14179    14330    14467    14486    14420    14292 
   14204    14234    14184    14096    14211    14351    14364    14413 
   14505    14548    14530    14439    14297    14119    13972    13925 
   13909    13973    14181    14361    14430    14427    14339    14229 
   14134    14081    14126    14177    14280    14534    14670    14567 
   14446    14351    14253    14172    14127    14185    14272    14303 
   14338    14281    14160    14157    14170    14165    14247    14296 
   14324    14436    14509    14481    14376    14212    14094    14008 
   13909    13898    14021    14251    14478    14536    14544    14571 
   14432    14261    14179    14062    14075    14266    14403    14419 
   14304    14175    14196    14226    14254    14395    14480    14490 
   14481    14361    14235    14153    14010    13960    14056    14161 
   14257    14273    14189    14139    14206    14365    14493    14515 
   14488    14385    14272    14308    14337    14272    14278    14269 
   14207    14218    14216    14188    14181    14175    14311    14508 
   14500    14369    14238    14129    14126    14152    14150    14168 
   14116    14072    14180    14365    14532    14555    14447    14423 
   14435    14407    14407    14331    14197    14111    14011    13988 
   14121    14208    14220    14256    14304    14389    14443    14415 
   14395    14299    14158    14188    14235    14181    14214    14274 
   14268    14257    14272    14342    14384    14372    14399    14339 
   14219    14211    14210    14256    14385    14338    14188    14148 
   14139    14193    14311    14370    14396    14323    14170    14116 
   14089    14098    14253    14366    14362    14372    14380    14380 
   14359    14305    14288    14238    14134    14135    14218    14273 
   14303    14285    14304    14397    14430    14428    14453    14381 
   14245    14111    13995    14025    14141    14197    14218    14195 
   14219    14338    14401    14451    14521    14496    14449    14386 
   14245    14138    14089    14075    14148    14220    14237    14247 
   14270    14354    14408    14326    14268    14280    14274    14315 
