Origin Time       2021/08/14 22:38:00
Lat.              37.5
Long.             137.2
Depth. (km)       10
Mag.              4.1
Station Code      ISK001
Station Lat.      37.4999
Station Long.     137.1764
Station Height(m) 6
Record Time       2021/08/14 22:38:11
Sampling Freq(Hz) 100Hz
Duration Time(s)  60
Dir.              U-D
Scale Factor      7845(gal)/8223790
Max. Acc. (gal)   9.296
Last Correction   2021/08/14 22:38:10
Memo.             
[...]
  -11847   -11853   -11863   -11853   -11859   -11859   -11842   -11859 
  -11867   -11843   -11857   -11869   -11846   -11855   -11865   -11848 
  -11861   -11863   -11844   -11861   -11862   -11839   -11861   -11867 
  -11843   -11858   -11866   -11847   -11858   -11861   -11846   -11858 
  -11859   -11847   -11861   -11861   -11851   -11863   -11855   -11847 
  -11867   -11858   -11843   -11862   -11858   -11854   -11865   -11846 
  -11844   -11869   -11857   -11846   -11867   -11859   -11846   -11865 
  -11858   -11847   -11862   -11854   -11850   -11863   -11851   -11848 
  -11866   -11854   -11850   -11866   -11854   -11853   -11865   -11850 
  -11853   -11867   -11848   -11848   -11867   -11855   -11850   -11862 
  -11853   -11857   -11867   -11847   -11855   -11867   -11847   -11855 
  -11867   -11851   -11858   -11862   -11847   -11863   -11866   -11843 
  -11857   -11865   -11850   -11857   -11858   -11851   -11863   -11858 
  -11847   -11862   -11862   -11847   -11857   -11862   -11851   -11854 
  -11858   -11857   -11855   -11853   -11854   -11863   -11858   -11850 
  -11861   -11862   -11850   -11859   -11859   -11847   -11862   -11861 
  -11844   -11861   -11861   -11847   -11863   -11855   -11847   -11867 
  -11848   -11844   -11873   -11854   -11844   -11866   -11854   -11851 
  -11866   -11851   -11854   -11869   -11846   -11850   -11869   -11851 
  -11850   -11869   -11853   -11850   -11866   -11851   -11848   -11863 
  -11851   -11853   -11865   -11850   -11857   -11865   -11840   -11853 
  -11871   -11848   -11848   -11865   -11851   -11859   -11866   -11844 
  -11857   -11867   -11847   -11854   -11862   -11851   -11859   -11861 
  -11848   -11857   -11862   -11854   -11859   -11857   -11848   -11863 
  -11863   -11843   -11859   -11869   -11844   -11855   -11866   -11850 
  -11861   -11859   -11847   -11865   -11857   -11842   -11862   -11858 
  -11846   -11863   -11857   -11850   -11865   -11851   -11851   -11869 
  -11848   -11847   -11869   -11855   -11848   -11862   -11855   -11854 
  -11861   -11850   -11853   -11865   -11848   -11848   -11867   -11854 
  -11847   -11859   -11850   -11854   -11866   -11850   -11854   -11862 
  -11846   -11859   -11863   -11844   -11861   -11865   -11846   -11857 
  -11863   -11854   -11859   -11859   -11847   -11857   -11866   -11850 
  -11853   -11862   -11853   -11858   -11862   -11846   -11858   -11866 
  -11844   -11853   -11867   -11851   -11853   -11862   -11857   -11858 
  -11854   -11850   -11861   -11854   -11846   -11862   -11859   -11850 
  -11861   -11854   -11851   -11869   -11855   -11847   -11866   -11858 
  -11850   -11861   -11851   -11851   -11869   -11853   -11847   -11866 
  -11857   -11847   -11858   -11855   -11855   -11858   -11847   -11854 
  -11867   -11853   -11847   -11862   -11857   -11855   -11863   -11848 
  -11853   -11869   -11851   -11851   -11870   -11851   -11848   -11865 
  -11850   -11857   -11867   -11846   -11853   -11865   -11850   -11858 
  -11861   -11848   -11859   -11858   -11846   -11866   -11862   -11843 
  -11862   -11862   -11847   -11863   -11863   -11848   -11862   -11861 
  -11846   -11865   -11865   -11844   -11862   -11865   -11844   -11857 
  -11863   -11853   -11857   -11858   -11854   -11862   -11858   -11851 
  -11862   -11858   -11851   -11863   -11859   -11846   -11861   -11862 
  -11848   -11859   -11857   -11851   -11870   -11858   -11843   -11865 
  -11861   -11850   -11862   -11854   -11855   -11866   -11847   -11854 
  -11871   -11846   -11850   -11869   -11847   -11853   -11865   -11848 
  -11855   -11865   -11853   -11854   -11862   -11855   -11858   -11861 
  -11853   -11862   -11865   -11846   -11855   -11867   -11847   -11850 
  -11866   -11855   -11855   -11862   -11846   -11854   -11867   -11851 
  -11854   -11863   -11853   -11858   -11862   -11848   -11861   -11862 
  -11844   -11859   -11866   -11847   -11857   -11862   -11850   -11859 
  -11858   -11847   -11862   -11855   -11848   -11865   -11853   -11850 
  -11866   -11846   -11847   -11870   -11853   -11844   -11863   -11859 
  -11851   -11861   -11859   -11854   -11859   -11851   -11850   -11866 
  -11857   -11850   -11866   -11854   -11848   -11870   -11853   -11846 
  -11870   -11855   -11847   -11861   -11850   -11859   -11866   -11843 
  -11859   -11873   -11847   -11854   -11867   -11848   -11855   -11865 
  -11847   -11854   -11863   -11847   -11857   -11866   -11848   -11853 
  -11861   -11850   -11865   -11865   -11840   -11858   -11867   -11846 
  -11854   -11861   -11847   -11863   -11863   -11843   -11865   -11863 
  -11840   -11861   -11857   -11844   -11866   -11857   -11846   -11867 
  -11861   -11846   -11863   -11861   -11846   -11857   -11855   -11855 
  -11871   -11848   -11842   -11875   -11861   -11839   -11862   -11858 
  -11846   -11859   -11854   -11851   -11863   -11848   -11851   -11871 
  -11851   -11847   -11869   -11855   -11850   -11862   -11848   -11850 
  -11863   -11853   -11859   -11866   -11846   -11854   -11867   -11854 
  -11857   -11862   -11847   -11858   -11866   -11848   -11858   -11865 
  -11843   -11853   -11870   -11855   -11853   -11862   -11858   -11858 
  -11857   -11853   -11862   -11859   -11847   -11859   -11861   -11848 
  -11861   -11861   -11842   -11859   -11870   -11842   -11847   -11865 
  -11855   -11855   -11851   -11850   -11863   -11854   -11850   -11865 
  -11858   -11853   -11862   -11857   -11854   -11861   -11850   -11853 
  -11869   -11855   -11846   -11861   -11858   -11854   -11863   -11853 
  -11847   -11867   -11862   -11848   -11857   -11847   -11851   -11871 
  -11848   -11840   -11873   -11857   -11838   -11866   -11862   -11848 
  -11859   -11848   -11855   -11871   -11847   -11847   -11869   -11854 
  -11853   -11866   -11853   -11858   -11867   -11846   -11854   -11869 
  -11851   -11855   -11866   -11851   -11855   -11866   -11853   -11854 
  -11859   -11853   -11861   -11859   -11851   -11863   -11861   -11846 
  -11861   -11862   -11850   -11861   -11859   -11848   -11861   -11858 
  -11848   -11862   -11861   -11850   -11859   -11857   -11850   -11863 
  -11858   -11844   -11862   -11865   -11850   -11857   -11857   -11851 
  -11861   -11857   -11853   -11867   -11857   -11843   -11863   -11862 
  -11851   -11862   -11851   -11850   -11870   -11855   -11848   -11867 
  -11859   -11854   -11865   -11853   -11850   -11866   -11854   -11851 
  -11865   -11854   -11853   -11863   -11857   -11857   -11858   -11850 
  -11861   -11862   -11844   -11858   -11866   -11846   -11855   -11870 
  -11853   -11850   -11862   -11854   -11854   -11859   -11851   -11861 
  -11866   -11847   -11858   -11867   -11848   -11858   -11865   -11846 
  -11858   -11865   -11844   -11857   -11869   -11850   -11855   -11862 
  -11850   -11859   -11859   -11847   -11861   -11862   -11850   -11861 
  -11857   -11844   -11862   -11861   -11848   -11862   -11862   -11855 
  -11858   -11850   -11854   -11867   -11850   -11846   -11867   -11859 
  -11854   -11863   -11854   -11858   -11866   -11850   -11855   -11867 
  -11853   -11853   -11867   -11857   -11848   -11862   -11858   -11857 
  -11865   -11853   -11853   -11871   -11854   -11843   -11867   -11862 
  -11850   -11861   -11858   -11858   -11862   -11846   -11858   -11870 
  -11844   -11850   -11870   -11851   -11851   -11865   -11850   -11861 
  -11866   -11843   -11858   -11866   -11847   -11858   -11862   -11847 
  -11861   -11863   -11847   -11859   -11861   -11848   -11865   -11859 
  -11844   -11863   -11862   -11850   -11863   -11858   -11853   -11865 
  -11851   -11853   -11873   -11851   -11844   -11873   -11859   -11846 
  -11866   -11859   -11847   -11863   -11862   -11853   -11862   -11857 
  -11855   -11869   -11853   -11851   -11871   -11855   -11846   -11867 
  -11857   -11853   -11869   -11847   -11853   -11873   -11847   -11851 
  -11871   -11848   -11854   -11869   -11848   -11853   -11863   -11848 
  -11858   -11867   -11850   -11858   -11866   -11850   -11858   -11867 
  -11851   -11857   -11863   -11850   -11863   -11869   -11847   -11858 
  -11865   -11848   -11862   -11859   -11846   -11862   -11863   -11848 
  -11859   -11865   -11854   -11858   -11859   -11858   -11862   -11855 
  -11853   -11866   -11858   -11844   -11865   -11866   -11843   -11861 
  -11869   -11848   -11858   -11861   -11848   -11861   -11862   -11853 
  -11862   -11855   -11853   -11869   -11853   -11847   -11871   -11857 
  -11846   -11866   -11855   -11851   -11867   -11858   -11851   -11862 
  -11855   -11854   -11862   -11853   -11858   -11869   -11853   -11855 
  -11867   -11854   -11854   -11862   -11853   -11855   -11863   -11857 
  -11857   -11858   -11851   -11862   -11865   -11848   -11851   -11861 
  -11858   -11861   -11861   -11853   -11858   -11865   -11858   -11859 
  -11863   -11851   -11858   -11865   -11848   -11857   -11867   -11848 
  -11855   -11866   -11847   -11855   -11866   -11853   -11862   -11862 
  -11848   -11863   -11862   -11846   -11863   -11863   -11850   -11867 
  -11861   -11844   -11867   -11862   -11844   -11863   -11865   -11854 
  -11861   -11857   -11855   -11867   -11853   -11850   -11867   -11858 
  -11853   -11866   -11855   -11855   -11865   -11850   -11858   -11870 
  -11855   -11851   -11862   -11858   -11858   -11862   -11855   -11859 
  -11866   -11854   -11854   -11867   -11857   -11850   -11863   -11859 
  -11855   -11861   -11855   -11859   -11867   -11851   -11854   -11866 
  -11851   -11854   -11866   -11854   -11859   -11863   -11847   -11862 
  -11863   -11847   -11865   -11866   -11844   -11861   -11866   -11847 
  -11859   -11863   -11847   -11865   -11862   -11844   -11867   -11865 
  -11844   -11867   -11865   -11846   -11861   -11862   -11855   -11861 
  -11853   -11855   -11869   -11855   -11850   -11862   -11855   -11854 
  -11863   -11854   -11851   -11866   -11858   -11854   -11865   -11854 
  -11851   -11869   -11855   -11848   -11867   -11858   -11850   -11867 
  -11857   -11850   -11866   -11855   -11855   -11869   -11851   -11853 
  -11867   -11851   -11855   -11867   -11846   -11854   -11871   -11848 
  -11850   -11869   -11850   -11857   -11870   -11848   -11854   -11869 
  -11850   -11855   -11869   -11850   -11855   -11867   -11850   -11857 
  -11867   -11850   -11859   -11866   -11848   -11862   -11867   -11846 
  -11863   -11869   -11847   -11862   -11865   -11846   -11862   -11865 
  -11848   -11859   -11859   -11853   -11866   -11858   -11848   -11866 
  -11859   -11848   -11863   -11858   -11853   -11862   -11857   -11853 
  -11865   -11855   -11847   -11866   -11858   -11847   -11866   -11855 
  -11847   -11867   -11854   -11847   -11869   -11855   -11848   -11867 
  -11853   -11851   -11867   -11848   -11853   -11870   -11850   -11853 
  -11869   -11854   -11851   -11863   -11855   -11854   -11861   -11854 
  -11861   -11865   -11847   -11857   -11866   -11850   -11854   -11865 
  -11853   -11858   -11862   -11850   -11859   -11865   -11848   -11861 
  -11862   -11846   -11866   -11867   -11843   -11859   -11867   -11847 
  -11859   -11861   -11850   -11863   -11858   -11846   -11865   -11863 
  -11853   -11861   -11857   -11855   -11871   -11858   -11843   -11861 
  -11859   -11855   -11869   -11859   -11853   -11865   -11857   -11853 
  -11863   -11854   -11842   -11842   -11817   -11719   -11475   -11200 
  -11075   -10936   -11078   -11483   -10712   -10062   -11466   -12105 
  -12645   -14422   -12946   -11786   -14246   -14297   -13694   -13873 
  -12144   -11703   -10791   -10184   -13420   -12013    -8148   -11731 
  -13639    -9898   -10238   -12873   -12997   -11998   -10341   -11133 
  -13170   -11126   -10821   -14058   -11646    -8388   -11786   -13965 
  -12413   -11522   -11483   -12301   -12051   -11144   -12498   -12955 
  -11071   -10206   -10943   -12684   -13367   -11121   -10204   -12216 
  -12849   -12191   -12208   -11859   -11780   -13085   -13128   -11119 
  -10706   -12690   -13910   -12343   -10199   -10735   -12476   -12228 
  -10403   -10112   -11518   -10999   -10512   -12819   -12864   -11519 
  -13117   -13504   -12445   -12560   -11898   -11774   -12405   -11773 
  -11884   -12025   -10484   -10795   -12717   -12071   -11225   -12688 
  -12268    -9999   -10353   -11722   -11735   -11808   -11611   -10806 
  -11619   -13828   -13262   -10519   -11217   -12796   -11002   -11371 
  -13795   -11587   -10347   -14820   -14411    -8216    -9246   -15217 
  -15535   -11831    -8239    -9255   -15290   -14250    -8028    -9809 
  -12447    -9481   -10852   -16526   -14443    -7375   -10007   -16482 
  -14104   -11728   -13639   -11593    -9556   -11165   -10368   -12145 
  -17118   -11063    -4321   -11535   -13819    -9602   -14355   -12348 
   -3111    -9734   -18867   -13055    -7589   -10743   -13097   -11497 
  -11529   -13679   -12687   -11335   -13531   -14682   -14947   -15630 
  -12633   -10304   -12147   -14067   -15763   -12864    -8106   -12009 
  -14193   -11381   -15488   -15573    -8826   -10517   -12502    -8891 
  -10592   -12181    -8980    -8625    -9593   -11387   -13813   -11709 
  -11430   -13918   -11522   -10669   -13574   -12685   -10309    -9030 
   -7663    -8860   -10362    -8560    -7792    -8966    -7577    -7218 
  -11172   -12787   -14173   -20598   -20586   -12756   -12841   -16941 
  -14083   -12973   -15649   -13520   -10631    -9736    -7202    -6960 
   -9832   -11121   -12534   -14189   -12410   -10895   -12575   -13980 
  -15508   -17555   -17273   -16048   -15699   -15026   -11866    -6636 
   -6357   -10843   -10943    -8989    -8868    -5042    -2112    -8421 
  -16101   -15654   -10872    -9471   -11565   -11434   -10390   -13621 
  -16100   -15068   -16275   -17339   -14278   -10924   -10863   -13963 
  -14771   -10781    -8148    -7412    -4430    -3042    -6309    -9894 
  -11408   -12587   -14454   -16141   -16237   -14723   -14671   -18364 
  -19870   -14226   -10701   -14881   -15387    -9463    -7477    -7948 
   -6104    -7291   -10816   -10374    -7836    -8407   -12322   -14967 
  -13814   -12447   -13559   -14643   -12872   -10800   -12209   -13921 
  -13188   -12988   -12927   -11836   -12247   -13332   -12239   -10862 
  -11813   -11614    -8608    -8294    -9497    -7223    -7591   -13030 
  -14458   -12226   -13327   -14885   -13925   -13973   -14733   -13198 
  -11449   -12306   -13591   -12290    -9520    -8772   -10338   -10924 
  -10096   -10879   -13292   -13942   -12015   -10993   -12569   -13257 
  -11557   -11076   -12475   -12853   -12977   -13953   -12814   -10125 
  -10315   -11893   -11024    -9664    -9852    -9522    -8610    -9414 
  -10801   -10871   -11426   -12887   -13171   -13290   -14539   -15249 
  -14547   -13356   -12626   -12312   -12613   -14122   -14688   -12727 
  -11402   -11580    -9903    -8706   -11978   -13749    -9691    -7470 
  -10459   -12306   -11410   -10748   -11253   -12444   -11932   -10440 
  -11333   -12343   -11928   -12615   -14006   -14763   -14073   -12523 
  -13208   -14060   -11496    -9917   -11522   -11414    -9653    -9961 
  -11416   -11812   -10721    -9558   -10010   -10552   -10336   -11553 
  -13436   -13124   -11796   -12106   -13896   -16123   -16849   -14215 
  -11303   -11466   -12279   -12136   -11826   -10477    -9540   -10507 
  -11124   -11052   -11348   -11603   -11588   -11357   -11623   -12002 
  -11406   -11395   -11938   -11249   -11053   -11445   -10272   -10071 
  -12116   -12739   -12270   -13135   -13674   -12820   -12172   -12544 
  -12623   -11975   -12106   -11904   -10538   -10840   -12048   -11341 
  -10782   -11287   -10800   -10689   -11701   -12071   -12665   -13223 
  -12565   -13057   -14042   -13078   -12226   -12086   -12324   -13571 
  -13292   -12054   -12139   -10908    -9386   -10929   -12181   -10638 
   -9413   -10087   -11352   -12267   -12561   -12490   -12355   -12436 
  -13059   -13575   -13412   -13371   -13879   -13649   -12036   -10635 
  -10301   -10237   -10081    -9796    -9613   -10075   -10808   -11214 
  -11516   -11564   -11151   -11466   -12534   -12159   -11001   -11974 
  -13849   -13613   -11708   -10577   -11507   -12602   -11784   -10975 
  -11917   -13124   -13154   -12104   -11373   -11699   -11958   -11673 
  -11214   -11539   -13084   -13016   -11105   -11392   -12955   -12771 
  -12749   -13637   -13178   -12282   -12347   -11858   -11346   -12205 
  -12760   -12048   -11160   -10760   -10929   -11423   -11657   -11472 
  -11404   -11530   -11437   -11037   -10571   -10593   -11137   -11249 
  -10355    -9648   -10673   -12357   -12779   -12667   -12915   -12692 
  -12405   -12910   -12976   -12158   -11908   -12233   -12024   -11804 
  -12528   -12910   -12085   -12141   -13242   -12849   -11298   -10748 
  -11484   -12233   -11925   -11302   -11319   -11916   -12912   -12946 
  -11686   -11578   -12603   -12272   -10714    -9888   -10768   -12001 
  -11799   -11223   -11225   -10916   -10543   -10640   -11287   -12329 
  -12313   -11183   -11055   -12144   -13066   -13159   -12291   -11601 
  -12205   -12636   -12000   -12039   -12609   -11977   -11479   -12329 
  -12976   -13219   -13385   -12900   -12680   -12580   -11404   -10660 
  -11109   -11142   -11074   -11809   -12124   -11620   -11323   -11155 
  -11084   -11458   -11853   -12189   -12170   -11620   -11850   -12521 
  -11805   -10947   -11666   -12123   -11315   -11257   -11942   -11479 
  -10777   -11543   -12541   -12359   -11954   -12337   -12788   -12348 
  -11709   -11530   -11169   -11137   -11859   -11942   -11510   -11524 
  -11460   -11452   -11821   -12008   -11789   -11354   -11730   -12733 
  -12471   -11827   -12313   -12587   -12356   -12638   -12510   -11537 
  -11488   -12083   -11634   -11340   -12141   -12607   -12222   -11635 
  -11225   -11453   -12345   -12660   -12024   -11709   -11631   -11218 
  -11597   -12410   -12194   -11892   -11979   -11699   -11934   -12407 
  -11549   -11030   -12506   -13406   -12086   -10746   -10706   -10847 
  -11005   -11824   -12229   -11759   -11765   -11946   -11746   -12272 
  -12638   -11568   -11277   -12465   -12144   -10945   -11750   -12055 
  -10449   -10964   -12889   -12370   -11458   -12118   -12252   -11924 
  -12374   -12415   -11541   -11037   -11477   -12248   -12357   -11759 
  -11843   -12684   -12677   -12023   -12015   -12229   -11844   -11376 
  -11360   -11365   -11345   -11371   -10949   -10856   -11720   -12074 
  -11529   -11242   -11631   -12518   -13011   -12773   -12842   -12816 
  -11799   -11226   -11971   -12449   -11796   -11043   -11079   -11599 
  -11947   -11912   -11593   -11576   -12351   -12941   -12573   -12332 
  -12652   -12447   -11782   -11805   -11988   -11534   -11603   -12243 
  -12105   -11599   -11610   -11763   -11615   -11587   -12024   -12075 
  -11470   -11367   -11635   -11234   -11011   -11821   -12141   -11298 
  -11141   -11874   -11560   -10638   -10978   -11666   -11465   -11622 
  -12220   -12143   -12189   -12548   -12305   -12131   -12158   -11794 
  -12108   -12856   -12363   -11676   -12114   -12510   -12212   -11869 
  -12009   -12528   -12555   -12005   -11615   -11512   -11828   -12017 
  -11534   -11832   -12669   -11835   -10829   -11790   -12399   -11214 
  -10471   -11264   -12245   -11831   -10690   -11030   -12032   -11975 
  -12166   -12609   -11902   -11504   -11989   -11651   -11151   -11684 
  -12194   -12190   -12339   -12773   -13127   -12943   -12329   -11789 
