Origin Time       2021/08/14 22:38:00
Lat.              37.5
Long.             137.2
Depth. (km)       10
Mag.              4.1
Station Code      ISK001
Station Lat.      37.4999
Station Long.     137.1764
Station Height(m) 6
Record Time       2021/08/14 22:38:11
Sampling Freq(Hz) 100Hz
Duration Time(s)  60
Dir.              N-S
Scale Factor      7845(gal)/8223790
Max. Acc. (gal)   12.334
Last Correction   2021/08/14 22:38:10
Memo.             
[...]
  -23803   -23801   -23792   -23811   -23800   -23785   -23811   -23803 
  -23784   -23807   -23805   -23789   -23804   -23799   -23792   -23807 
  -23800   -23793   -23803   -23795   -23795   -23808   -23796   -23789 
  -23804   -23803   -23796   -23796   -23791   -23803   -23815   -23793 
  -23785   -23809   -23797   -23788   -23805   -23801   -23799   -23801 
  -23785   -23799   -23815   -23795   -23792   -23804   -23792   -23796 
  -23809   -23789   -23795   -23812   -23793   -23795   -23804   -23792 
  -23799   -23807   -23795   -23795   -23799   -23797   -23805   -23799 
  -23787   -23805   -23801   -23791   -23809   -23801   -23788   -23807 
  -23803   -23787   -23804   -23804   -23787   -23800   -23805   -23791 
  -23797   -23797   -23792   -23808   -23800   -23785   -23804   -23803 
  -23791   -23804   -23791   -23787   -23815   -23799   -23784   -23808 
  -23805   -23784   -23796   -23804   -23793   -23801   -23800   -23795 
  -23808   -23795   -23792   -23812   -23797   -23785   -23805   -23799 
  -23793   -23812   -23792   -23782   -23816   -23799   -23787   -23811 
  -23795   -23792   -23809   -23792   -23793   -23811   -23793   -23793 
  -23808   -23797   -23799   -23800   -23792   -23807   -23803   -23788 
  -23804   -23801   -23785   -23805   -23814   -23789   -23799   -23809 
  -23793   -23800   -23803   -23791   -23804   -23808   -23789   -23801 
  -23809   -23792   -23797   -23803   -23799   -23809   -23795   -23788 
  -23815   -23804   -23785   -23805   -23808   -23792   -23800   -23801 
  -23797   -23804   -23791   -23793   -23814   -23799   -23788   -23800 
  -23801   -23800   -23800   -23791   -23796   -23811   -23793   -23793 
  -23814   -23791   -23788   -23816   -23799   -23787   -23805   -23797 
  -23796   -23804   -23795   -23799   -23800   -23793   -23812   -23807 
  -23784   -23799   -23809   -23795   -23797   -23799   -23795   -23811 
  -23805   -23782   -23800   -23812   -23793   -23796   -23807   -23796 
  -23793   -23808   -23800   -23792   -23803   -23797   -23796   -23803 
  -23799   -23799   -23799   -23797   -23805   -23803   -23789   -23801 
  -23808   -23788   -23795   -23808   -23795   -23800   -23799   -23789 
  -23808   -23801   -23785   -23804   -23804   -23791   -23804   -23796 
  -23788   -23809   -23801   -23787   -23804   -23804   -23797   -23803 
  -23792   -23793   -23811   -23797   -23789   -23805   -23797   -23796 
  -23803   -23793   -23800   -23805   -23787   -23793   -23811   -23793 
  -23788   -23805   -23795   -23792   -23805   -23793   -23796   -23809 
  -23793   -23791   -23809   -23797   -23792   -23812   -23797   -23793 
  -23805   -23788   -23797   -23815   -23791   -23792   -23808   -23789 
  -23791   -23805   -23792   -23800   -23808   -23784   -23803   -23809 
  -23776   -23797   -23814   -23785   -23799   -23808   -23792   -23800 
  -23800   -23789   -23803   -23803   -23796   -23807   -23797   -23788 
  -23803   -23803   -23792   -23797   -23796   -23796   -23811   -23791 
  -23782   -23811   -23803   -23791   -23801   -23796   -23795   -23805 
  -23793   -23791   -23812   -23796   -23787   -23807   -23795   -23795 
  -23811   -23791   -23791   -23809   -23797   -23792   -23807   -23796 
  -23796   -23811   -23787   -23793   -23816   -23787   -23793   -23820 
  -23788   -23784   -23814   -23803   -23793   -23804   -23793   -23796 
  -23803   -23787   -23799   -23814   -23788   -23793   -23811   -23791 
  -23797   -23808   -23788   -23803   -23808   -23787   -23804   -23805 
  -23784   -23803   -23805   -23792   -23807   -23803   -23791   -23804 
  -23796   -23796   -23818   -23792   -23788   -23818   -23799   -23787 
  -23809   -23803   -23788   -23808   -23808   -23787   -23801   -23805 
  -23796   -23807   -23791   -23785   -23816   -23803   -23787   -23805 
  -23795   -23791   -23820   -23800   -23777   -23805   -23800   -23788 
  -23807   -23796   -23788   -23805   -23803   -23800   -23800   -23791 
  -23799   -23803   -23795   -23805   -23803   -23785   -23799   -23804 
  -23793   -23803   -23801   -23788   -23805   -23808   -23782   -23795 
  -23814   -23793   -23791   -23808   -23800   -23795   -23799   -23789 
  -23805   -23814   -23785   -23797   -23805   -23785   -23803   -23800 
  -23780   -23811   -23816   -23782   -23797   -23805   -23782   -23800 
  -23809   -23789   -23800   -23795   -23787   -23811   -23795   -23780 
  -23819   -23815   -23778   -23795   -23803   -23787   -23804   -23811 
  -23800   -23800   -23784   -23796   -23818   -23785   -23782   -23819 
  -23808   -23791   -23799   -23789   -23793   -23804   -23796   -23800 
  -23801   -23792   -23801   -23805   -23782   -23787   -23815   -23808 
  -23795   -23799   -23795   -23799   -23799   -23796   -23805   -23800 
  -23787   -23803   -23814   -23785   -23788   -23814   -23797   -23796 
  -23808   -23797   -23800   -23800   -23787   -23804   -23815   -23789 
  -23796   -23818   -23796   -23789   -23796   -23797   -23814   -23800 
  -23788   -23807   -23793   -23785   -23814   -23807   -23791   -23803 
  -23799   -23800   -23807   -23785   -23792   -23819   -23795   -23788 
  -23818   -23792   -23778   -23820   -23804   -23784   -23807   -23793 
  -23795   -23814   -23791   -23789   -23812   -23797   -23787   -23808 
  -23803   -23789   -23801   -23799   -23801   -23808   -23785   -23789 
  -23814   -23796   -23787   -23805   -23801   -23796   -23801   -23785 
  -23799   -23818   -23785   -23788   -23818   -23793   -23787   -23808 
  -23792   -23795   -23812   -23782   -23789   -23816   -23788   -23792 
  -23809   -23784   -23800   -23812   -23780   -23801   -23815   -23781 
  -23801   -23814   -23785   -23801   -23805   -23785   -23801   -23799 
  -23787   -23809   -23803   -23782   -23805   -23804   -23782   -23801 
  -23801   -23793   -23809   -23795   -23787   -23812   -23801   -23781 
  -23804   -23809   -23789   -23797   -23797   -23796   -23808   -23795 
  -23793   -23808   -23796   -23796   -23811   -23792   -23788   -23816 
  -23796   -23781   -23812   -23797   -23787   -23811   -23797   -23788 
  -23807   -23804   -23801   -23800   -23792   -23804   -23805   -23787 
  -23803   -23808   -23788   -23796   -23805   -23800   -23803   -23796 
  -23787   -23809   -23812   -23780   -23792   -23816   -23792   -23787 
  -23808   -23799   -23792   -23804   -23796   -23795   -23804   -23792 
  -23793   -23803   -23797   -23801   -23799   -23789   -23803   -23804 
  -23789   -23803   -23811   -23788   -23795   -23807   -23789   -23800 
  -23807   -23791   -23800   -23800   -23796   -23811   -23795   -23787 
  -23815   -23800   -23784   -23809   -23796   -23787   -23815   -23795 
  -23788   -23814   -23789   -23784   -23815   -23801   -23791   -23805 
  -23796   -23795   -23807   -23789   -23792   -23814   -23796   -23784 
  -23808   -23805   -23792   -23801   -23796   -23795   -23808   -23795 
  -23796   -23809   -23791   -23793   -23812   -23793   -23791   -23809 
  -23795   -23795   -23808   -23789   -23796   -23809   -23795   -23801 
  -23800   -23789   -23808   -23808   -23791   -23804   -23805   -23788 
  -23801   -23804   -23788   -23807   -23799   -23787   -23814   -23799 
  -23781   -23807   -23800   -23792   -23809   -23795   -23789   -23811 
  -23796   -23791   -23814   -23799   -23784   -23809   -23805   -23789 
  -23805   -23804   -23792   -23804   -23792   -23792   -23818   -23800 
  -23784   -23811   -23807   -23787   -23800   -23803   -23800   -23804 
  -23787   -23797   -23818   -23793   -23788   -23808   -23799   -23792 
  -23808   -23799   -23792   -23808   -23796   -23789   -23808   -23797 
  -23791   -23807   -23801   -23797   -23800   -23791   -23803   -23809 
  -23788   -23799   -23808   -23785   -23796   -23807   -23792   -23805 
  -23804   -23778   -23801   -23816   -23787   -23792   -23807   -23795 
  -23800   -23799   -23788   -23801   -23805   -23792   -23797   -23801 
  -23792   -23800   -23807   -23795   -23801   -23799   -23791   -23807 
  -23804   -23785   -23799   -23805   -23791   -23800   -23808   -23787 
  -23799   -23809   -23789   -23796   -23801   -23793   -23803   -23801 
  -23795   -23803   -23801   -23795   -23801   -23799   -23796   -23808 
  -23795   -23792   -23809   -23796   -23791   -23805   -23796   -23792 
  -23803   -23799   -23795   -23796   -23792   -23805   -23807   -23785 
  -23801   -23815   -23788   -23789   -23805   -23796   -23799   -23803 
  -23791   -23801   -23807   -23791   -23801   -23805   -23791   -23801 
  -23808   -23795   -23797   -23799   -23789   -23803   -23801   -23788 
  -23807   -23801   -23785   -23805   -23801   -23787   -23804   -23805 
  -23791   -23803   -23800   -23785   -23804   -23807   -23791   -23797 
  -23804   -23801   -23800   -23793   -23797   -23808   -23795   -23788 
  -23811   -23800   -23785   -23811   -23799   -23785   -23807   -23797 
  -23797   -23809   -23787   -23792   -23816   -23796   -23791   -23803 
  -23793   -23803   -23811   -23788   -23793   -23812   -23791   -23788 
  -23812   -23797   -23788   -23808   -23800   -23793   -23799   -23791 
  -23803   -23814   -23793   -23791   -23807   -23797   -23795   -23805 
  -23795   -23800   -23804   -23782   -23800   -23811   -23784   -23796 
  -23811   -23793   -23799   -23804   -23785   -23799   -23809   -23788 
  -23801   -23808   -23784   -23801   -23808   -23782   -23801   -23818 
  -23791   -23792   -23804   -23799   -23808   -23800   -23787   -23807 
  -23807   -23793   -23803   -23793   -23792   -23815   -23796   -23787 
  -23815   -23797   -23789   -23816   -23795   -23781   -23812   -23807 
  -23787   -23801   -23801   -23792   -23805   -23799   -23788   -23803 
  -23801   -23797   -23797   -23792   -23799   -23805   -23792   -23791 
  -23809   -23801   -23789   -23797   -23793   -23800   -23805   -23788 
  -23799   -23812   -23791   -23789   -23808   -23800   -23789   -23799 
  -23799   -23800   -23799   -23788   -23803   -23808   -23788   -23797 
  -23808   -23792   -23796   -23801   -23788   -23804   -23812   -23795 
  -23801   -23803   -23791   -23800   -23804   -23795   -23796   -23795 
  -23799   -23814   -23799   -23784   -23804   -23805   -23792   -23800 
  -23803   -23797   -23801   -23799   -23791   -23804   -23801   -23787 
  -23807   -23803   -23781   -23803   -23805   -23793   -23809   -23800 
  -23788   -23808   -23801   -23791   -23809   -23796   -23788   -23814 
  -23803   -23787   -23800   -23800   -23799   -23801   -23793   -23800 
  -23809   -23797   -23799   -23804   -23793   -23804   -23808   -23788 
  -23797   -23805   -23785   -23799   -23812   -23791   -23796   -23805 
  -23792   -23800   -23804   -23793   -23804   -23804   -23788   -23801 
  -23812   -23792   -23796   -23807   -23795   -23803   -23805   -23788 
  -23805   -23814   -23789   -23793   -23811   -23800   -23793   -23796 
  -23797   -23812   -23801   -23777   -23800   -23812   -23807   -23807 
  -23782   -23784   -23822   -23808   -23774   -23795   -23801   -23795 
  -23824   -23792   -23792   -23877   -23760   -23753   -24008   -23714 
  -23562   -23993   -23544   -23521   -24275   -23508   -23265   -24003 
  -23697   -24092   -24275   -23711   -24328   -23836   -23488   -24961 
  -23778   -22457   -24518   -24467   -22407   -22751   -23973   -24756 
  -24282   -22863   -23958   -24991   -23224   -23938   -25864   -23527 
  -22054   -24443   -25195   -23382   -21942   -23024   -25123   -23733 
  -21818   -23379   -24262   -23517   -23722   -24019   -24057   -23730 
  -23569   -24997   -25300   -23404   -23301   -24798   -24418   -22962 
  -22844   -23340   -23143   -22950   -23340   -23727   -23534   -23423 
  -24219   -25023   -24748   -23814   -23787   -24537   -24085   -23491 
  -23903   -23770   -23782   -24042   -23584   -23959   -24139   -23417 
  -24255   -24889   -24144   -24220   -23720   -22711   -23738   -24456 
  -22981   -22192   -23071   -23761   -23791   -23483   -23326   -24133 
  -24929   -24278   -23051   -22831   -23668   -23907   -23426   -23896 
  -23896   -22806   -23708   -25008   -23645   -23607   -26260   -25803 
  -22500   -22216   -23895   -23816   -22967   -23009   -24938   -26104 
  -22910   -21354   -24829   -25694   -22998   -23172   -25388   -23893 
  -21161   -23804   -26811   -23791   -21064   -23016   -24927   -24979 
  -24267   -23211   -24580   -25537   -21870   -21780   -26118   -24395 
  -22341   -25833   -24860   -21181   -23045   -24934   -23695   -22993 
  -23508   -24717   -24595   -22827   -22423   -23296   -24389   -25416 
  -25342   -25078   -23994   -21825   -22617   -23940   -21789   -20871 
  -21683   -21212   -19986   -17454   -18083   -23348   -24483   -23395 
  -26239   -27904   -28795   -31417   -30107   -27122   -26064   -22851 
  -21222   -22549   -20204   -18982   -22542   -23926   -24595   -28194 
  -29859   -27697   -24673   -23457   -24742   -25587   -24915   -25053 
  -24667   -21726   -20367   -23205   -25223   -23741   -21470   -19047 
  -17739   -20607   -24402   -25101   -26308   -29866   -32483   -31901 
  -27094   -21270   -19677   -20893   -21606   -22759   -24063   -23157 
  -20282   -17284   -16503   -19958   -24772   -26603   -26110   -24559 
  -21890   -18866   -16719   -19426   -27229   -32185   -31865   -30522 
  -27410   -21887   -19049   -21559   -26013   -28487   -27970   -24630 
  -19337   -15514   -15421   -16779   -19009   -23823   -28331   -28007 
  -23724   -21891   -26275   -31305   -32262   -32559   -32644   -29552 
  -25411   -21809   -17849   -15371   -15654   -17953   -20745   -20772 
  -18104   -17706   -20941   -23944   -24950   -25531   -24991   -22392 
  -23431   -31164   -36728   -34420   -30086   -28177   -27436   -25820 
  -22669   -19977   -19103   -18661   -18288   -18859   -20028   -20785 
  -20634   -20308   -20957   -22900   -25672   -27446   -27186   -27688 
  -30387   -31514   -29334   -26747   -25037   -23791   -23118   -21851 
  -19826   -19414   -20229   -19518   -18295   -18874   -20362   -21459 
  -21802   -21396   -21527   -22596   -23481   -24360   -25505   -26465 
  -28077   -29801   -28675   -24641   -21655   -22539   -25381   -26647 
  -26507   -26164   -24552   -22589   -22939   -24682   -25304   -25172 
  -25008   -23857   -22646   -23367   -24840   -24891   -23849   -22947 
  -22396   -22299   -22924   -23337   -22310   -20409   -19237   -19446 
  -20564   -22486   -25470   -28020   -28067   -26239   -24804   -25038 
  -26376   -27271   -27383   -27337   -26447   -23457   -20183   -19839 
  -21120   -21436   -21967   -22968   -22654   -21745   -22257   -24178 
  -24821   -22844   -22215   -24498   -25042   -22960   -21593   -21826 
  -23116   -24483   -25424   -26045   -24526   -21397   -21093   -23352 
  -24416   -25046   -26869   -28163   -27386   -25192   -23720   -23869 
  -23877   -23060   -22505   -21836   -20606   -20297   -21481   -22735 
  -23364   -23882   -24841   -26153   -26447   -25543   -25780   -27193 
  -27479   -26731   -25456   -23523   -22144   -21621   -21027   -19900 
  -18800   -19711   -22437   -24160   -24524   -24493   -24359   -25053 
  -26441   -27525   -28034   -27297   -25547   -24509   -24266   -23687 
  -22870   -22468   -22405   -21644   -20382   -20622   -22144   -22970 
  -22765   -22121   -22485   -24644   -25947   -24773   -23453   -23048 
  -23093   -23919   -23974   -22665   -22538   -23298   -23425   -23888 
  -24354   -24490   -25290   -26295   -27446   -28305   -26964   -25012 
  -24981   -24881   -23147   -21655   -21597   -22412   -22998   -23109 
  -23673   -23997   -22775   -21266   -20617   -20119   -20083   -21590 
  -23881   -25432   -26184   -26523   -26001   -24761   -23951   -23917 
  -24251   -24744   -25377   -26144   -26665   -26766   -26883   -26397 
  -24194   -21668   -20850   -20977   -20645   -19928   -19755   -20767 
  -21840   -22172   -22972   -24534   -26071   -27205   -27264   -26088 
  -24586   -23816   -24094   -24316   -24160   -24530   -24912   -24896 
  -24788   -23741   -22253   -22358   -23436   -23365   -22505   -22258 
  -22675   -23422   -24133   -24208   -23337   -21699   -20289   -20212 
  -21334   -22756   -23953   -24544   -24268   -23730   -23804   -24818 
  -26385   -27373   -27009   -25400   -23535   -23053   -23988   -24811 
  -25027   -24665   -23506   -22383   -22469   -23610   -24827   -25323 
  -24846   -23680   -22612   -22654   -23438   -23811   -24259   -25533 
  -26869   -27070   -25987   -25004   -24933   -25069   -24895   -23873 
  -22040   -20783   -20418   -20321   -20854   -21967   -22832   -23149 
  -23139   -23414   -23990   -24399   -24937   -25286   -24603   -23245 
  -22048   -21763   -22455   -23164   -23723   -24552   -25201   -25466 
  -25394   -24584   -23580   -23371   -23708   -24244   -25003   -25165 
  -24198   -23222   -22966   -22839   -22648   -22393   -22113   -22218 
  -22111   -21581   -22180   -24117   -25767   -26434   -26269   -25504 
  -24879   -24602   -24121   -23453   -22917   -23087   -24198   -24765 
  -24166   -23957   -24447   -24652   -24783   -25161   -24992   -24186 
  -23788   -23815   -23402   -22810   -22824   -23160   -23064   -22662 
  -22446   -22265   -22245   -23095   -24289   -24713   -24663   -24570 
  -24383   -24571   -25085   -25313   -24945   -23719   -22461   -22387 
  -22978   -23433   -23525   -23326   -23673   -24235   -23774   -23268 
  -24220   -25448   -25245   -24197   -23650   -23878   -24424   -24771 
  -24710   -24179   -23352   -22752   -22569   -22596   -22909   -23665 
  -24364   -24236   -23423   -22781   -22507   -22559   -23222   -24001 
  -24294   -24460   -24475   -23876   -23260   -23187   -23056   -22897 
  -23502   -24428   -24545   -24030   -23955   -24159   -23602   -22646 
  -22546   -23548   -24614   -24576   -23962   -24363   -25288   -24862 
  -23826   -23890   -24028   -23525   -23635   -24132   -24301   -24823 
  -25485   -25328   -24570   -23818   -23295   -22870   -22250   -21999 
  -22631   -23049   -22782   -23211   -24208   -23890   -22569   -22203 
  -22744   -23018   -23382   -24360   -25099   -25118   -24838   -24509 
  -24522   -24915   -25043   -24862   -24660   -24534   -24376   -23472 
  -22283   -22410   -23253   -23352   -23288   -23454   -23230   -23025 
  -23275   -23500   -23518   -23584   -23950   -24502   -24861   -25037 
  -24927   -24239   -23538   -23475   -23634   -23685   -23931   -24259 
  -24435   -24456   -24096   -23464   -23055   -23048   -23213   -23043 
  -22752   -23176   -23944   -24160   -24075   -24186   -24364   -24470 
  -24412   -23917   -23373   -23714   -24694   -24991   -24385   -24043 
  -24175   -23920   -23400   -23220   -23311   -23230   -22682   -22347 
  -22843   -23082   -22545   -22592   -23342   -23824   -24499   -25481 
  -25818   -25439   -24767   -24101   -23494   -22680   -22171   -22428 
  -22962   -23662   -24240   -24140   -24003   -24074   -23895   -24219 
  -25188   -25273   -24243   -23395   -23438   -23785   -23321   -22644 
  -23156   -23780   -23274   -22797   -22997   -23271   -23639   -24079 
  -24267   -24414   -24906   -25581   -25636   -24813   -24073   -23851 
  -23399   -22709   -22627   -23132   -23533   -23527   -23323   -23323 
  -23572   -23986   -24561   -24691   -24255   -24124   -24225   -23947 
  -23585   -23587   -23853   -23946   -23656   -23284   -23105   -23261 
  -23878   -24575   -24730   -24509   -24412   -24151   -23421   -22864 
  -23113   -23785   -24075   -23907   -23715   -23469   -23199   -23221 
  -23371   -23438   -23344   -23137   -23309   -23688   -23700   -23724 
