Origin Time       2021/08/14 22:38:00
Lat.              37.5
Long.             137.2
Depth. (km)       10
Mag.              4.1
Station Code      ISK004
Station Lat.      37.3080
Station Long.     137.1470
Station Height(m) 4
Record Time       2021/08/14 22:38:15
Sampling Freq(Hz) 100Hz
Duration Time(s)  60
Dir.              N-S
Scale Factor      7845(gal)/8223790
Max. Acc. (gal)   3.021
Last Correction   2021/08/14 22:38:15
Memo.             
[...]
   17367    17331    17321    17298    17320    17344    17356    17406 
   17366    17334    17344    17273    17281    17313    17313    17383 
   17409    17385    17339    17323    17377    17363    17347    17343 
   17282    17289    17323    17334    17336    17324    17343    17315 
   17334    17420    17348    17325    17392    17309    17308    17375 
   17325    17294    17300    17319    17363    17370    17361    17374 
   17388    17359    17312    17301    17278    17270    17344    17425 
   17447    17339    17196    17266    17394    17352    17338    17428 
   17412    17285    17265    17335    17394    17427    17325    17205 
   17261    17332    17346    17385    17385    17371    17365    17300 
   17350    17448    17350    17271    17288    17271    17315    17374 
   17417    17424    17334    17278    17253    17257    17409    17437 
   17324    17365    17375    17323    17331    17258    17305    17455 
   17336    17262    17393    17354    17316    17365    17271    17302 
   17474    17435    17348    17354    17294    17270    17334    17328 
   17342    17371    17313    17315    17323    17267    17316    17342 
   17331    17424    17415    17356    17427    17385    17288    17327 
   17300    17244    17340    17393    17332    17344    17365    17319 
   17352    17397    17320    17307    17369    17338    17317    17344 
   17311    17309    17365    17369    17342    17328    17300    17286 
   17347    17393    17348    17335    17378    17358    17340    17369 
   17358    17356    17350    17284    17298    17367    17339    17343 
   17373    17297    17288    17365    17340    17307    17359    17350 
   17311    17359    17358    17324    17375    17361    17282    17320 
   17369    17340    17361    17367    17304    17309    17342    17323 
   17338    17346    17305    17325    17379    17366    17373    17398 
   17350    17334    17347    17284    17263    17311    17316    17336 
   17371    17358    17348    17346    17309    17313    17359    17363 
   17359    17365    17339    17336    17361    17344    17324    17335 
   17324    17312    17334    17339    17313    17315    17329    17331 
   17356    17377    17346    17340    17352    17324    17331    17356 
   17329    17331    17348    17328    17338    17346    17311    17329 
   17365    17335    17348    17374    17321    17316    17351    17324 
   17342    17382    17336    17321    17348    17308    17300    17339 
   17324    17331    17374    17350    17332    17352    17334    17328 
   17351    17338    17340    17358    17335    17321    17344    17350 
   17331    17332    17335    17319    17334    17358    17342    17344 
   17365    17340    17324    17336    17321    17311    17334    17344 
   17348    17367    17355    17321    17323    17329    17313    17313 
   17348    17371    17359    17358    17358    17335    17327    17336 
   17339    17343    17340    17331    17331    17332    17323    17323 
   17342    17344    17323    17335    17356    17338    17319    17329 
   17340    17343    17344    17347    17352    17358    17358    17347 
   17339    17340    17334    17327    17340    17350    17342    17334 
   17325    17327    17342    17336    17332    17343    17335    17324 
   17331    17338    17344    17344    17343    17346    17339    17323 
   17328    17343    17339    17332    17340    17351    17348    17342 
   17340    17342    17343    17343    17338    17335    17332    17325 
   17332    17339    17331    17334    17344    17346    17343    17329 
   17323    17343    17351    17344    17344    17340    17335    17339 
   17344    17346    17339    17338    17348    17346    17335    17336 
   17338    17339    17344    17334    17319    17336    17350    17332 
   17331    17352    17355    17346    17342    17343    17343    17347 
   17348    17329    17319    17338    17346    17332    17328    17334 
   17339    17343    17338    17321    17323    17343    17347    17331 
   17329    17342    17340    17331    17338    17350    17347    17344 
   17343    17344    17348    17344    17331    17321    17332    17356 
   17358    17334    17323    17335    17343    17338    17324    17321 
   17336    17340    17332    17334    17344    17340    17338    17344 
   17347    17348    17350    17342    17335    17339    17340    17325 
   17319    17331    17339    17342    17342    17332    17331    17344 
   17350    17348    17344    17343    17340    17335    17336    17339 
   17342    17347    17346    17336    17321    17321    17339    17347 
   17342    17340    17340    17338    17336    17339    17342    17342 
   17346    17346    17332    17328    17335    17336    17332    17334 
   17336    17339    17338    17338    17339    17343    17346    17340 
   17339    17344    17339    17332    17342    17347    17340    17339 
   17340    17334    17338    17346    17336    17332    17340    17339 
   17338    17339    17334    17334    17339    17342    17334    17328 
   17336    17336    17325    17331    17342    17342    17348    17352 
   17346    17346    17342    17342    17347    17340    17340    17335 
   17325    17332    17327    17324    17335    17336    17336    17336 
   17342    17350    17344    17347    17356    17346    17335    17340 
   17339    17339    17339    17340    17342    17335    17331    17331 
   17334    17339    17338    17343    17346    17342    17344    17342 
   17339    17343    17343    17339    17331    17329    17336    17335 
   17332    17340    17336    17325    17335    17344    17338    17336 
   17340    17342    17343    17342    17346    17356    17359    17343 
   17329    17346    17356    17342    17331    17328    17321    17317 
   17323    17332    17340    17344    17346    17342    17339    17340 
   17335    17332    17339    17343    17335    17331    17343    17347 
   17347    17350    17328    17320    17352    17355    17331    17339 
   17346    17336    17335    17336    17335    17339    17339    17331 
   17334    17352    17356    17338    17329    17338    17339    17335 
   17334    17336    17338    17340    17344    17339    17332    17334 
   17334    17344    17356    17335    17319    17340    17356    17339 
   17328    17340    17347    17342    17329    17321    17334    17344 
   17340    17336    17338    17336    17336    17339    17344    17343 
   17336    17340    17344    17339    17340    17342    17329    17328 
   17343    17346    17343    17347    17342    17343    17351    17340 
   17331    17338    17335    17331    17338    17342    17339    17340 
   17336    17328    17329    17329    17324    17324    17335    17347 
   17348    17342    17347    17346    17334    17339    17347    17336 
   17335    17344    17348    17344    17339    17335    17335    17339 
   17346    17343    17340    17339    17325    17328    17343    17334 
   17325    17332    17332    17338    17346    17338    17334    17342 
   17347    17346    17344    17342    17340    17344    17344    17343 
   17346    17342    17332    17332    17335    17334    17336    17339 
   17338    17334    17331    17336    17339    17331    17335    17347 
   17340    17331    17336    17343    17342    17344    17350    17343 
   17342    17346    17336    17329    17335    17338    17335    17336 
   17343    17344    17338    17336    17346    17346    17336    17336 
   17340    17336    17335    17339    17338    17332    17335    17335 
   17331    17335    17343    17344    17346    17343    17338    17336 
   17336    17335    17340    17340    17339    17344    17343    17336 
   17338    17335    17329    17334    17338    17336    17336    17342 
   17343    17340    17339    17339    17335    17329    17329    17338 
   17344    17350    17356    17354    17342    17335    17335    17335 
   17338    17339    17339    17338    17329    17327    17331    17334 
   17336    17342    17343    17340    17339    17342    17343    17343 
   17348    17347    17339    17336    17336    17331    17331    17335 
   17334    17331    17338    17342    17342    17342    17343    17347 
   17344    17336    17339    17340    17334    17327    17327    17332 
   17340    17350    17348    17344    17343    17340    17340    17340 
   17342    17338    17328    17334    17338    17335    17336    17336 
   17327    17317    17320    17328    17338    17348    17358    17362 
   17358    17347    17336    17324    17324    17334    17340    17347 
   17352    17340    17328    17324    17327    17332    17336    17348 
   17352    17343    17342    17339    17339    17336    17327    17334 
   17331    17339    17356    17338    17335    17343    17328    17335 
   17339    17342    17352    17342    17344    17348    17334    17339 
   17331    17325    17340    17332    17336    17340    17327    17339 
   17343    17339    17348    17338    17344    17346    17325    17338 
   17343    17342    17352    17339    17334    17332    17327    17343 
   17336    17334    17348    17339    17339    17338    17327    17340 
   17343    17344    17342    17327    17335    17336    17332    17343 
   17342    17342    17342    17332    17332    17329    17338    17351 
   17347    17344    17340    17334    17336    17338    17343    17346 
   17344    17340    17339    17339    17336    17338    17338    17336 
   17340    17336    17336    17339    17342    17344    17332    17334 
   17338    17334    17340    17343    17350    17348    17340    17338 
   17328    17332    17338    17343    17348    17339    17340    17342 
   17339    17342    17346    17350    17343    17340    17334    17328 
   17332    17334    17340    17338    17327    17328    17342    17358 
   17355    17358    17359    17348    17329    17315    17311    17329 
   17361    17356    17334    17312    17275    17274    17309    17340 
   17424    17518    17459    17325    17294    17296    17248    17230 
   17317    17454    17444    17335    17338    17338    17174    17080 
   17290    17559    17558    17458    17405    17250    17069    17081 
   17325    17558    17548    17478    17408    17230    17135    17170 
   17213    17343    17489    17525    17450    17243    17115    17271 
   17473    17501    17431    17327    17258    17315    17435    17520 
   17520    17413    17292    17208    16999    16783    16954    17433 
   17772    17743    17477    17200    17072    17228    17433    17396 
   17352    17501    17675    17602    17232    17050    17199    17282 
   17344    17456    17439    17423    17436    17296    17158    17213 
   17251    17157    17199    17365    17393    17394    17508    17496 
   17205    17058    17367    17571    17362    17259    17277    17143 
   17255    17703    17884    17571    17145    17082    17390    17529 
   17340    17208    17204    17211    17356    17483    17242    16920 
   16899    17073    17354    17529    17381    17361    17609    17475 
   17269    17772    18148    17605    17126    17211    17135    16875 
   17019    17344    17311    17265    17555    17726    17582    17259 
   16816    16740    17201    17609    17658    17429    17247    17277 
   17078    16997    17564    17826    17550    17509    17412    17167 
   17243    17400    17370    17301    17402    17563    17409    17118 
   17120    17271    17336    17482    17585    17325    17062    17116 
   17248    17329    17331    17342    17448    17462    17452    17508 
   17305    16968    17019    17355    17516    17513    17477    17224 
   16958    17115    17424    17550    17651    17641    17425    17334 
   17382    17317    17305    17447    17467    17320    17240    17250 
   17192    17068    17015    17135    17304    17397    17474    17394 
   17247    17423    17662    17706    17685    17354    16893    16910 
   17194    17323    17433    17564    17595    17625    17450    17008 
   16906    17165    17334    17477    17520    17343    17169    17012 
   17070    17567    17892    17581    17228    17386    17513    17064 
   16767    17108    17504    17713    17767    17567    17197    17024 
   17350    17635    17454    17332    17338    17143    16920    16868 
   17157    17648    17739    17539    17524    17356    16972    16764 
   16646    16964    17802    18088    17914    18054    17837    17093 
   16831    17166    17444    17274    16908    17055    17520    17560 
   17478    17559    17361    17065    17057    17072    17008    17178 
   17671    18085    17955    17405    16870    16515    16530    17115 
   17726    17690    17379    17408    17666    17747    17517    17223 
   17039    17055    17374    17626    17494    17243    17258    17498 
   17335    16718    16488    16746    17212    17929    18264    17810 
   17270    16889    16549    16696    17159    17410    17886    18561 
   18711    18461    18063    17545    17165    16823    16679    17049 
   17286    17091    17091    17285    17204    16978    16848    16761 
   16962    17658    18180    17867    17091    16394    15927    15854 
   16079    16443    17126    17965    18445    18461    18408    18482 
   18306    17917    17937    18268    18297    18087    18095    18119 
   17782    17227    16505    15655    15083    15253    16028    16536 
   16915    17872    18484    18106    17636    17421    17243    17142 
   16923    16715    17111    17961    18655    19063    18928    17852 
   16367    15319    14773    14754    15745    17595    19305    20286 
   20505    19705    17864    16094    15593    15754    15790    16600 
   18204    19147    19060    18210    16695    15283    14887    15558 
   16640    17610    18069    17701    17491    18512    19434    18921 
   17999    17285    16271    15518    15708    16503    17631    18797 
   19107    18180    16754    15587    15067    15626    17086    18446 
   19051    19129    19006    18608    17814    16965    16610    16583 
   16553    16752    16839    16546    16528    16777    17038    17554 
   17882    18007    18752    19381    18652    17201    16214    16168 
   16875    17564    18025    18453    18346    17518    16738    16483 
   16394    16146    16128    16451    16528    16657    17544    18576 
   18948    18704    17998    17028    16032    15380    15786    17086 
   18308    19124    19056    17666    16193    15892    16348    16885 
   17220    17081    16787    17131    18312    19688    20324    19799 
   18659    17435    16252    15799    16310    16769    16885    17221 
   17644    17772    17602    17274    16965    16746    16592    16437 
   16313    16429    16771    17190    17741    18198    17969    17170 
   16704    16908    17405    17972    18324    18076    17367    16618 
   16268    16919    18389    19321    18889    17667    16511    15844 
   15786    16225    16968    17892    18586    18549    18071    17825 
   17865    17779    17463    17224    16974    16476    16290    16735 
   17188    17348    17393    17293    17197    17334    17523    17562 
   17518    17500    17643    17859    17751    17275    16826    16560 
   16282    16025    16163    16760    17437    17787    17706    17733 
   18233    18408    17782    17463    18118    18675    18369    17802 
   17454    17103    16636    16244    16263    16795    17328    17348 
   16961    16600    16657    17221    17840    17901    17370    16719 
   16317    16353    16915    17674    18150    18370    18474    18351 
   18061    17761    17397    17059    17123    17610    17894    17645 
   17516    17760    17713    17386    17100    16529    15985    16033 
   16254    16366    16769    17558    18279    18457    18138    17586 
   16777    16062    16116    16865    17666    18125    18288    18358 
   18368    18204    17755    17172    16854    16860    16923    17026 
   17231    17393    17305    17055    17104    17528    17744    17505 
   17208    17005    16781    16757    17158    17748    18099    18025 
   17740    17527    17487    17599    17547    17281    17317    17670 
   17871    17647    16811    15763    15309    15646    16540    17518 
   17899    17621    17304    17266    17466    17794    17910    17784 
   17709    17613    17421    17235    17046    17003    17315    17838 
   18154    18052    17767    17651    17718    17593    17230    17154 
   17305    17184    16950    16875    17028    17342    17332    16997 
   16862    16858    16757    16659    16644    16950    17550    17859 
   17880    18038    18022    17666    17369    17130    17026    17394 
   17917    18162    18357    18516    18085    17138    16609    16877 
   17262    17165    16823    16730    16973    17298    17539    17740 
   17713    17154    16360    15988    16183    16484    16546    16667 
   17184    17725    17807    17608    17446    17390    17458    17496 
   17477    17655    17911    17968    17998    18279    18686    18812 
   18481    17953    17524    17136    16672    16455    16717    17026 
   17000    16764    16630    16779    16960    16764    16324    16268 
   16814    17301    17240    17142    17402    17633    17728    17928 
   17968    17686    17413    17296    17385    17733    18064    18189 
   18316    18492    18270    17409    16474    16155    16438    16978 
   17581    17984    18007    17798    17486    17204    16996    16632 
   16268    16255    16313    16190    16155    16452    17003    17566 
   17994    18323    18636    18898    18868    18441    17891    17417 
   16996    16741    16776    17020    17365    17593    17432    17015 
   16760    16907    17281    17548    17686    17599    17080    16649 
   16818    17178    17432    17614    17523    17181    16731    16164 
   15963    16565    17601    18534    18956    18566    17707    17097 
   17001    17251    17671    18161    18585    18605    18031    17316 
   16796    16393    16441    17081    17590    17510    17135    16862 
   16856    17004    17085    17077    17091    17020    16715    16370 
   16320    16630    17150    17721    18141    18188    17883    17440 
   17027    16860    17132    17675    18202    18623    18750    18420 
   17957    17728    17626    17477    17288    17066    16887    16912 
   17088    17208    17130    16768    16371    16375    16768    17174 
   17258    16895    16467    16479    16891    17486    18165    18515 
   18203    17693    17523    17454    17194    17027    17188    17451 
   17594    17775    18009    17992    17891    17938    17739    17162 
   16614    16326    16461    16970    17351    17356    17280    17197 
   16899    16569    16579    16877    17204    17532    18041    18580 
   18706    18422    17936    17275    16681    16379    16276    16398 
   16806    17309    17760    18088    18127    17872    17586    17494 
   17524    17508    17525    17568    17475    17356    17300    17157 
   17019    17011    16924    16760    16807    17077    17346    17513 
   17525    17390    17369    17579    17649    17324    17007    17095 
   17343    17428    17378    17273    17120    16999    17015    17170 
   17444    17805    17998    17921    17861    17759    17275    16695 
   16599    17073    17625    17793    17676    17518    17261    16946 
   16791    16872    17197    17586    17641    17335    17031    16949 
   17170    17594    17857    17799    17556    17356    17388    17462 
