Origin Time       2021/08/14 22:38:00
Lat.              37.5
Long.             137.2
Depth. (km)       10
Mag.              4.1
Station Code      ISK007
Station Lat.      37.0427
Station Long.     136.9681
Station Height(m) 3
Record Time       2021/08/14 22:38:27
Sampling Freq(Hz) 100Hz
Duration Time(s)  60
Dir.              E-W
Scale Factor      7845(gal)/8223790
Max. Acc. (gal)   2.157
Last Correction   2021/08/14 22:38:28
Memo.             
[...]
  -19462   -19452   -19450   -19453   -19458   -19461   -19458   -19458 
  -19460   -19458   -19453   -19449   -19453   -19460   -19461   -19457 
  -19453   -19450   -19452   -19457   -19460   -19454   -19449   -19452 
  -19456   -19456   -19456   -19457   -19460   -19460   -19456   -19453 
  -19450   -19452   -19460   -19464   -19461   -19457   -19453   -19452 
  -19454   -19458   -19460   -19458   -19457   -19460   -19458   -19452 
  -19453   -19460   -19464   -19464   -19460   -19454   -19456   -19462 
  -19461   -19456   -19456   -19461   -19467   -19468   -19460   -19454 
  -19461   -19467   -19462   -19456   -19457   -19458   -19462   -19467 
  -19462   -19461   -19464   -19460   -19456   -19460   -19461   -19457 
  -19458   -19464   -19461   -19454   -19452   -19453   -19457   -19458 
  -19454   -19453   -19456   -19456   -19454   -19452   -19453   -19461 
  -19462   -19456   -19449   -19446   -19450   -19454   -19454   -19453 
  -19453   -19457   -19458   -19454   -19450   -19449   -19452   -19456 
  -19457   -19460   -19462   -19460   -19458   -19462   -19458   -19453 
  -19457   -19462   -19462   -19458   -19454   -19456   -19460   -19460 
  -19461   -19457   -19453   -19460   -19468   -19469   -19460   -19452 
  -19454   -19464   -19465   -19453   -19448   -19453   -19460   -19462 
  -19461   -19457   -19454   -19457   -19456   -19452   -19453   -19460 
  -19461   -19461   -19458   -19456   -19458   -19460   -19458   -19460 
  -19456   -19450   -19457   -19464   -19464   -19460   -19454   -19456 
  -19462   -19467   -19461   -19454   -19457   -19462   -19461   -19457 
  -19453   -19456   -19460   -19462   -19458   -19453   -19450   -19453 
  -19454   -19454   -19454   -19458   -19460   -19452   -19449   -19456 
  -19457   -19456   -19454   -19452   -19452   -19453   -19454   -19454 
  -19453   -19453   -19452   -19452   -19456   -19456   -19453   -19456 
  -19461   -19465   -19464   -19456   -19449   -19450   -19460   -19464 
  -19462   -19460   -19457   -19460   -19467   -19465   -19458   -19460 
  -19467   -19467   -19464   -19464   -19464   -19464   -19462   -19460 
  -19456   -19458   -19465   -19467   -19460   -19454   -19456   -19464 
  -19465   -19458   -19458   -19460   -19461   -19464   -19460   -19452 
  -19452   -19458   -19464   -19461   -19457   -19454   -19453   -19453 
  -19454   -19452   -19452   -19457   -19457   -19456   -19456   -19457 
  -19458   -19454   -19450   -19450   -19449   -19454   -19461   -19460 
  -19452   -19448   -19452   -19458   -19457   -19453   -19453   -19452 
  -19454   -19458   -19457   -19450   -19450   -19456   -19462   -19460 
  -19452   -19448   -19452   -19458   -19462   -19462   -19460   -19461 
  -19460   -19458   -19457   -19456   -19461   -19468   -19468   -19460 
  -19453   -19454   -19462   -19465   -19460   -19460   -19462   -19467 
  -19464   -19456   -19456   -19462   -19468   -19465   -19454   -19452 
  -19461   -19465   -19464   -19462   -19458   -19456   -19457   -19457 
  -19456   -19457   -19458   -19460   -19462   -19461   -19458   -19456 
  -19454   -19456   -19456   -19453   -19453   -19456   -19460   -19456 
  -19449   -19452   -19462   -19468   -19465   -19457   -19450   -19456 
  -19465   -19465   -19456   -19456   -19467   -19467   -19458   -19448 
  -19442   -19450   -19462   -19464   -19460   -19456   -19452   -19456 
  -19461   -19458   -19452   -19450   -19456   -19462   -19462   -19453 
  -19448   -19452   -19454   -19452   -19453   -19458   -19462   -19458 
  -19450   -19450   -19456   -19461   -19461   -19456   -19452   -19458 
  -19467   -19465   -19460   -19457   -19456   -19461   -19468   -19461 
  -19452   -19453   -19461   -19467   -19461   -19454   -19457   -19458 
  -19457   -19456   -19456   -19458   -19462   -19460   -19454   -19457 
  -19467   -19467   -19457   -19452   -19450   -19457   -19468   -19469 
  -19458   -19453   -19458   -19460   -19458   -19457   -19454   -19454 
  -19461   -19462   -19460   -19461   -19458   -19452   -19446   -19445 
  -19444   -19449   -19468   -19492   -19495   -19468   -19440   -19431 
  -19427   -19429   -19445   -19477   -19500   -19491   -19465   -19435 
  -19413   -19421   -19456   -19484   -19491   -19475   -19440   -19403 
  -19402   -19450   -19512   -19535   -19515   -19495   -19468   -19399 
  -19325   -19350   -19480   -19572   -19549   -19492   -19471   -19437 
  -19352   -19332   -19460   -19592   -19585   -19492   -19422   -19398 
  -19384   -19396   -19479   -19545   -19504   -19419   -19388   -19414 
  -19448   -19489   -19533   -19510   -19426   -19388   -19427   -19441 
  -19408   -19421   -19481   -19511   -19487   -19458   -19465   -19458 
  -19422   -19450   -19529   -19548   -19489   -19421   -19419   -19454 
  -19444   -19445   -19484   -19468   -19426   -19422   -19444   -19492 
  -19516   -19496   -19467   -19391   -19340   -19437   -19560   -19572 
  -19500   -19383   -19300   -19372   -19531   -19591   -19522   -19406 
  -19318   -19354   -19456   -19510   -19593   -19678   -19595   -19386 
  -19251   -19283   -19380   -19452   -19503   -19500   -19488   -19495 
  -19448   -19435   -19496   -19495   -19434   -19417   -19479   -19557 
  -19485   -19327   -19326   -19465   -19591   -19603   -19452   -19319 
  -19398   -19531   -19529   -19429   -19359   -19384   -19453   -19514 
  -19583   -19619   -19494   -19275   -19263   -19431   -19492   -19485 
  -19534   -19549   -19514   -19488   -19483   -19446   -19315   -19246 
  -19413   -19624   -19623   -19479   -19426   -19475   -19468   -19377 
  -19314   -19396   -19496   -19438   -19442   -19615   -19647   -19460 
  -19314   -19367   -19472   -19456   -19429   -19503   -19530   -19438 
  -19376   -19442   -19526   -19471   -19357   -19337   -19390   -19472 
  -19539   -19467   -19379   -19511   -19630   -19479   -19353   -19454 
  -19512   -19363   -19225   -19294   -19465   -19606   -19658   -19602 
  -19581   -19646   -19553   -19298   -19252   -19438   -19504   -19430 
  -19415   -19475   -19527   -19548   -19548   -19530   -19469   -19330 
  -19213   -19276   -19465   -19595   -19600   -19572   -19572   -19529 
  -19407   -19300   -19322   -19407   -19417   -19422   -19472   -19491 
  -19480   -19457   -19433   -19431   -19462   -19545   -19562   -19422 
  -19307   -19350   -19464   -19626   -19704   -19495   -19184   -19129 
  -19307   -19453   -19518   -19623   -19730   -19634   -19380   -19314 
  -19483   -19564   -19467   -19380   -19383   -19423   -19485   -19543 
  -19521   -19465   -19460   -19386   -19280   -19387   -19565   -19500 
  -19305   -19275   -19425   -19558   -19603   -19587   -19488   -19357 
  -19326   -19431   -19531   -19511   -19453   -19430   -19413   -19422 
  -19498   -19575   -19565   -19491   -19414   -19425   -19542   -19581 
  -19477   -19338   -19242   -19367   -19606   -19607   -19518   -19552 
  -19460   -19273   -19299   -19372   -19326   -19353   -19452   -19534 
  -19653   -19693   -19579   -19496   -19484   -19434   -19380   -19300 
  -19238   -19356   -19552   -19627   -19600   -19557   -19442   -19294 
  -19296   -19340   -19365   -19575   -19737   -19604   -19440   -19411 
  -19448   -19464   -19407   -19372   -19391   -19356   -19353   -19529 
  -19727   -19746   -19600   -19452   -19390   -19309   -19229   -19267 
  -19338   -19396   -19565   -19720   -19592   -19314   -19206   -19306 
  -19479   -19595   -19588   -19488   -19433   -19492   -19468   -19336 
  -19352   -19441   -19417   -19411   -19496   -19514   -19419   -19376 
  -19446   -19499   -19568   -19676   -19565   -19317   -19310   -19473 
  -19550   -19530   -19434   -19353   -19395   -19473   -19531   -19583 
  -19541   -19435   -19429   -19546   -19626   -19507   -19317   -19317 
  -19422   -19460   -19492   -19500   -19471   -19391   -19245   -19326 
  -19645   -19749   -19589   -19433   -19353   -19337   -19388   -19456 
  -19434   -19384   -19437   -19525   -19626   -19685   -19530   -19275 
  -19126   -19170   -19430   -19646   -19643   -19604   -19548   -19421 
  -19305   -19260   -19298   -19341   -19388   -19507   -19595   -19587 
  -19553   -19476   -19384   -19440   -19570   -19541   -19406   -19380 
  -19468   -19492   -19431   -19489   -19589   -19503   -19379   -19354 
  -19399   -19572   -19669   -19495   -19295   -19245   -19394   -19612 
  -19572   -19423   -19495   -19624   -19552   -19395   -19314   -19210 
  -19228   -19512   -19755   -19768   -19529   -19209   -19217   -19437 
  -19518   -19539   -19553   -19480   -19411   -19376   -19381   -19464 
  -19435   -19292   -19321   -19522   -19683   -19676   -19471   -19290 
  -19344   -19429   -19398   -19388   -19423   -19460   -19499   -19527 
  -19525   -19437   -19349   -19396   -19491   -19643   -19851   -19746 
  -19348   -19126   -19178   -19388   -19616   -19653   -19548   -19458 
  -19419   -19422   -19419   -19460   -19557   -19550   -19394   -19284 
  -19365   -19499   -19506   -19402   -19372   -19498   -19525   -19367 
  -19350   -19473   -19487   -19464   -19498   -19543   -19639   -19695 
  -19450   -19076   -18995   -19206   -19487   -19660   -19661   -19670 
  -19703   -19557   -19291   -19187   -19325   -19512   -19626   -19633 
  -19531   -19488   -19541   -19487   -19345   -19315   -19332   -19290 
  -19377   -19580   -19604   -19549   -19591   -19575   -19446   -19263 
  -19126   -19206   -19377   -19508   -19712   -19857   -19738   -19539 
  -19425   -19349   -19279   -19184   -19159   -19361   -19673   -19772 
  -19581   -19423   -19442   -19368   -19236   -19325   -19481   -19499 
  -19506   -19541   -19521   -19484   -19522   -19515   -19323   -19245 
  -19483   -19622   -19491   -19476   -19612   -19562   -19446   -19468 
  -19350   -19126   -19206   -19461   -19523   -19507   -19622   -19708 
  -19588   -19400   -19302   -19222   -19218   -19396   -19556   -19642 
  -19776   -19791   -19591   -19367   -19268   -19268   -19302   -19341 
  -19383   -19541   -19766   -19755   -19539   -19361   -19272   -19325 
  -19468   -19512   -19445   -19345   -19290   -19337   -19429   -19476 
  -19494   -19508   -19525   -19529   -19525   -19522   -19460   -19354 
  -19408   -19602   -19633   -19441   -19251   -19180   -19272   -19548 
  -19770   -19657   -19387   -19265   -19283   -19344   -19404   -19488 
  -19624   -19651   -19507   -19421   -19434   -19410   -19421   -19542 
  -19642   -19627   -19500   -19298   -19217   -19369   -19530   -19546 
  -19597   -19793   -19884   -19711   -19531   -19390   -19063   -18771 
  -18847   -19184   -19562   -19843   -19912   -19765   -19556   -19399 
  -19256   -19179   -19155   -19001   -18954   -19322   -19789   -20069 
  -20164   -20000   -19707   -19473   -19124   -18762   -18797   -19082 
  -19273   -19469   -19691   -19697   -19491   -19249   -19090   -19145 
  -19454   -19865   -20079   -20062   -20055   -19912   -19507   -19168 
  -19032   -19053   -19163   -19303   -19561   -19793   -19735   -19496 
  -19321   -19252   -19240   -19380   -19630   -19676   -19552   -19515 
  -19577   -19587   -19441   -19296   -19334   -19373   -19287   -19315 
  -19481   -19539   -19561   -19649   -19712   -19861   -19982   -19606 
  -18967   -18855   -19190   -19450   -19701   -19859   -19688   -19438 
  -19290   -19219   -19156   -19005   -18954   -19113   -19404   -19828 
  -20048   -19747   -19344   -19251   -19340   -19434   -19453   -19392 
  -19418   -19638   -19818   -19768   -19678   -19414   -18729   -18324 
  -18785   -19512   -19953   -20135   -19988   -19602   -19399   -19413 
  -19363   -19275   -19386   -19576   -19458   -19303   -19527   -19784 
  -19903   -19921   -19541   -19122   -19288   -19595   -19441   -19126 
  -19072   -19183   -19217   -19214   -19298   -19481   -19730   -19874 
  -19834   -19685   -19462   -19302   -19265   -19359   -19718   -19984 
  -19766   -19434   -19143   -18898   -19079   -19499   -19705   -19749 
  -19570   -19186   -19060   -19225   -19371   -19441   -19368   -19367 
  -19691   -19948   -19950   -19861   -19579   -19265   -19203   -19215 
  -19292   -19608   -19813   -19614   -19329   -19222   -19175   -19152 
  -19346   -19768   -20031   -19823   -19410   -19278   -19371   -19298 
  -19129   -19240   -19569   -19723   -19560   -19256   -19102   -19318 
  -19589   -19398   -19133   -19376   -19705   -19801   -20002   -20051 
  -19499   -18785   -18507   -18800   -19537   -20181   -20113   -19515 
  -19149   -19226   -19345   -19469   -19791   -19912   -19564   -19178 
  -19013   -19045   -19352   -19720   -19734   -19526   -19464   -19222 
  -18771   -18931   -19643   -20206   -20524   -20476   -19912   -19170 
  -18744   -18805   -19039   -19251   -19511   -19573   -19406   -19476 
  -19642   -19492   -19369   -19419   -19471   -19643   -19558   -19228 
  -19371   -19666   -19773   -19963   -19876   -19445   -19151   -19082 
  -19183   -19261   -19275   -19423   -19606   -19849   -20055   -19680 
  -19026   -18901   -19126   -19390   -19784   -19777   -18966   -18330 
  -18792   -19762   -20248   -20124   -19730   -19276   -19024   -19099 
  -19245   -19353   -19511   -19649   -19695   -19561   -19390   -19521 
  -19616   -19329   -19201   -19467   -19688   -19874   -20213   -20279 
  -19755   -19062   -18553   -18347   -18782   -19707   -20356   -20356 
  -19920   -19553   -19471   -19330   -19084   -19093   -19246   -19340 
  -19585   -19791   -19656   -19674   -19812   -19309   -18729   -19016 
  -19507   -19518   -19476   -19502   -19265   -19174   -19484   -19506 
  -19233   -19311   -19502   -19431   -19278   -18974   -18586   -18785 
  -19747   -20749   -21181   -20777   -19271   -17458   -17197   -18810 
  -20575   -21168   -20537   -19201   -18257   -18650   -19714   -20070 
  -19626   -19122   -18925   -19284   -20070   -20468   -20349   -20240 
  -19961   -19309   -18739   -18586   -18841   -19364   -19931   -20326 
  -20312   -19681   -18835   -18620   -19101   -19673   -19907   -19604 
  -19070   -18882   -19145   -19588   -19843   -19668   -19191   -18917 
  -19272   -19876   -19947   -19533   -19279   -19473   -19888   -19963 
  -19357   -18651   -18465   -18520   -18711   -19338   -20086   -20412 
  -20229   -19654   -19021   -18798   -19018   -19386   -19710   -19770 
  -19618   -19685   -19958   -20142   -20174   -19913   -19215   -18203 
  -17574   -18006   -19070   -20159   -21045   -21100   -20248   -19448 
  -19083   -18823   -18824   -19172   -19314   -19352   -19839   -20286 
  -20073   -19587   -19388   -19456   -19418   -19305   -19449   -19624 
  -19546   -19408   -19228   -19079   -19284   -19726   -19971   -19773 
  -19118   -18365   -18234   -18997   -19994   -20412   -20094   -19604 
  -19298   -18906   -18673   -19082   -19656   -19886   -19939   -19786 
  -19441   -19449   -19738   -19538   -19008   -18836   -19017   -19462 
  -20044   -20152   -19831   -19788   -19816   -19391   -18844   -18594 
  -18692   -19163   -19835   -20332   -20509   -20324   -19695   -18986 
  -18765   -19032   -19363   -19434   -19272   -19151   -19296   -19650 
  -19861   -19768   -19500   -19021   -18511   -18642   -19354   -19803 
  -19842   -19793   -19638   -19592   -19793   -19766   -19438   -19213 
  -19178   -19326   -19553   -19705   -19893   -19805   -19129   -18613 
  -18854   -19511   -20125   -20170   -19388   -18474   -18373   -19106 
  -19872   -20135   -19950   -19535   -19244   -19494   -20115   -20309 
  -19845   -19260   -18914   -19037   -19566   -19727   -19395   -19369 
  -19600   -19604   -19579   -19522   -19319   -19402   -19688   -19649 
  -19503   -19433   -19132   -18828   -18908   -19306   -19815   -19955 
  -19462   -18916   -18931   -19500   -20106   -20174   -19820   -19423 
  -18998   -18752   -18958   -19377   -19620   -19566   -19500   -19774 
  -20125   -19943   -19276   -18819   -18995   -19487   -19596   -19226 
  -19033   -19240   -19479   -19689   -20016   -20217   -19904   -19253 
  -18912   -19210   -19826   -20036   -19400   -18504   -18393   -19122 
  -19776   -19781   -19507   -19538   -19813   -19978   -20077   -20061 
  -19552   -18782   -18478   -18709   -19152   -19645   -19905   -19862 
  -19704   -19448   -19305   -19495   -19651   -19477   -19288   -19444 
  -19816   -19997   -19838   -19560   -19373   -19363   -19402   -19259 
  -19091   -19188   -19332   -19265   -19319   -19691   -20044   -20083 
  -19691   -19064   -18630   -18594   -18960   -19446   -19695   -19768 
  -19777   -19732   -19689   -19457   -19078   -18997   -19183   -19361 
  -19730   -20216   -20231   -19800   -19417   -19174   -19190   -19469 
  -19508   -19217   -19021   -19137   -19488   -19869   -20096   -20019 
  -19597   -19076   -18756   -18717   -19014   -19699   -20268   -20054 
  -19340   -18856   -18787   -19095   -19610   -19881   -19799   -19695 
  -19670   -19545   -19357   -19303   -19279   -19101   -19143   -19658 
  -20038   -19836   -19329   -18959   -19095   -19610   -19928   -19764 
  -19396   -19273   -19360   -19423   -19569   -19735   -19576   -19047 
  -18661   -18995   -19650   -19820   -19705   -19685   -19560   -19411 
  -19479   -19620   -19630   -19336   -18805   -18588   -18939   -19429 
  -19657   -19700   -19851   -19985   -19830   -19696   -19697   -19450 
  -19195   -19462   -19892   -19919   -19761   -19646   -19431   -19286 
  -19356   -19379   -19348   -19508   -19596   -19233   -18914   -19286 
  -19872   -19888   -19556   -19495   -19641   -19580   -19408   -19418 
  -19399   -19228   -19167   -19145   -19059   -19132   -19206   -19121 
  -19253   -19519   -19494   -19400   -19549   -19789   -19908   -19820 
  -19600   -19372   -19252   -19341   -19539   -19645   -19530   -19287 
  -19213   -19386   -19534   -19495   -19464   -19572   -19688   -19730 
  -19606   -19323   -19211   -19303   -19372   -19529   -19781   -19801 
  -19554   -19336   -19322   -19442   -19404   -19071   -18873   -19182 
  -19670   -19939   -19927   -19599   -19161   -18991   -19082   -19240 
  -19367   -19387   -19372   -19437   -19530   -19557   -19417   -19236 
  -19361   -19689   -19890   -19963   -19754   -19211   -19045   -19537 
  -19893   -19785   -19651   -19487   -19205   -19207   -19477   -19579 
  -19588   -19665   -19565   -19406   -19504   -19549   -19341   -19329 
  -19577   -19712   -19710   -19593   -19230   -18870   -18864   -19113 
  -19422   -19696   -19774   -19639   -19431   -19240   -19124   -19241 
  -19616   -19824   -19568   -19197   -19157   -19539   -20015   -20112 
  -19853   -19607   -19421   -19194   -19084   -19311   -19683   -19732 
  -19448   -19232   -19246   -19392   -19498   -19421   -19309   -19402 
  -19569   -19426   -18929   -18581   -18760   -19253   -19657   -19862 
  -19847   -19622   -19423   -19399   -19469   -19589   -19685   -19772 
  -20011   -20278   -20181   -19699   -19134   -18698   -18612   -18940 
  -19377   -19734   -19872   -19533   -19037   -19068   -19458   -19553 
  -19450   -19646   -20005   -20085   -19861   -19492   -19151   -19130 
  -19450   -19700   -19570   -19179   -18867   -18802   -19010   -19527 
  -20079   -20088   -19576   -19298   -19419   -19383   -19176   -19137 
  -19093   -18955   -19083   -19512   -19853   -19943   -19878   -19699 
  -19504   -19435   -19406   -19255   -19080   -19059   -19129   -19222 
  -19460   -19780   -19870   -19681   -19495   -19462   -19481   -19546 
  -19672   -19742   -19772   -19758   -19607   -19395   -19257   -19242 
  -19295   -19372   -19612   -19926   -19982   -19819   -19611   -19384 
