Origin Time       2021/08/14 22:38:00
Lat.              37.5
Long.             137.2
Depth. (km)       10
Mag.              4.1
Station Code      ISK015
Station Lat.      37.2265
Station Long.     136.9087
Station Height(m) 3
Record Time       2021/08/14 22:38:20
Sampling Freq(Hz) 100Hz
Duration Time(s)  60
Dir.              U-D
Scale Factor      7845(gal)/8223790
Max. Acc. (gal)   2.188
Last Correction   2021/08/14 22:38:20
Memo.             
[...]
  -11893   -11896   -11897   -11894   -11894   -11896   -11896   -11893 
  -11894   -11896   -11894   -11892   -11894   -11897   -11893   -11890 
  -11894   -11897   -11893   -11893   -11894   -11896   -11898   -11897 
  -11893   -11896   -11897   -11896   -11894   -11894   -11893   -11894 
  -11896   -11894   -11892   -11894   -11896   -11894   -11893   -11893 
  -11893   -11894   -11897   -11896   -11894   -11897   -11896   -11893 
  -11893   -11896   -11894   -11894   -11896   -11896   -11894   -11896 
  -11896   -11894   -11896   -11897   -11896   -11894   -11896   -11897 
  -11894   -11893   -11893   -11894   -11894   -11896   -11897   -11894 
  -11894   -11897   -11897   -11896   -11897   -11898   -11894   -11893 
  -11897   -11894   -11890   -11896   -11896   -11890   -11894   -11898 
  -11894   -11893   -11896   -11893   -11894   -11898   -11893   -11894 
  -11898   -11892   -11890   -11897   -11893   -11892   -11896   -11894 
  -11893   -11896   -11893   -11892   -11898   -11897   -11893   -11896 
  -11896   -11893   -11894   -11897   -11897   -11897   -11896   -11894 
  -11894   -11896   -11894   -11897   -11896   -11890   -11894   -11897 
  -11892   -11894   -11897   -11893   -11894   -11898   -11897   -11896 
  -11897   -11896   -11896   -11897   -11894   -11892   -11896   -11897 
  -11893   -11894   -11896   -11893   -11896   -11897   -11892   -11894 
  -11898   -11896   -11893   -11896   -11897   -11898   -11896   -11893 
  -11894   -11897   -11896   -11893   -11896   -11896   -11893   -11894 
  -11896   -11893   -11893   -11894   -11893   -11896   -11898   -11892 
  -11892   -11897   -11894   -11893   -11900   -11897   -11894   -11897 
  -11896   -11896   -11898   -11894   -11892   -11894   -11894   -11893 
  -11897   -11897   -11893   -11897   -11898   -11894   -11896   -11896 
  -11892   -11893   -11896   -11894   -11896   -11898   -11893   -11892 
  -11898   -11897   -11893   -11896   -11897   -11897   -11896   -11896 
  -11894   -11893   -11892   -11892   -11897   -11897   -11897   -11897 
  -11894   -11894   -11897   -11896   -11894   -11898   -11897   -11893 
  -11893   -11894   -11896   -11896   -11894   -11894   -11894   -11894 
  -11896   -11893   -11894   -11896   -11893   -11896   -11896   -11893 
  -11896   -11896   -11894   -11894   -11894   -11894   -11896   -11898 
  -11897   -11894   -11894   -11894   -11896   -11897   -11894   -11893 
  -11897   -11896   -11890   -11894   -11898   -11894   -11894   -11898 
  -11893   -11894   -11900   -11897   -11893   -11894   -11897   -11898 
  -11897   -11893   -11896   -11898   -11896   -11894   -11897   -11897 
  -11894   -11893   -11894   -11894   -11896   -11897   -11896   -11896 
  -11897   -11896   -11894   -11894   -11898   -11897   -11896   -11898 
  -11898   -11897   -11896   -11896   -11898   -11897   -11894   -11896 
  -11896   -11896   -11896   -11894   -11896   -11896   -11893   -11893 
  -11893   -11894   -11896   -11896   -11897   -11896   -11893   -11893 
  -11896   -11897   -11894   -11894   -11897   -11896   -11894   -11896 
  -11894   -11894   -11894   -11896   -11897   -11896   -11894   -11894 
  -11894   -11893   -11896   -11898   -11896   -11893   -11893   -11894 
  -11894   -11896   -11898   -11896   -11894   -11896   -11894   -11896 
  -11896   -11893   -11894   -11896   -11894   -11898   -11897   -11894 
  -11896   -11897   -11893   -11890   -11896   -11896   -11892   -11894 
  -11894   -11892   -11896   -11897   -11894   -11896   -11898   -11898 
  -11896   -11894   -11896   -11897   -11896   -11896   -11897   -11896 
  -11896   -11896   -11894   -11894   -11896   -11894   -11894   -11896 
  -11897   -11896   -11896   -11898   -11898   -11897   -11896   -11894 
  -11896   -11898   -11894   -11893   -11896   -11896   -11897   -11898 
  -11894   -11892   -11897   -11897   -11893   -11894   -11898   -11897 
  -11896   -11897   -11894   -11896   -11898   -11896   -11894   -11894 
  -11894   -11894   -11897   -11894   -11893   -11894   -11894   -11896 
  -11897   -11893   -11893   -11896   -11896   -11894   -11897   -11897 
  -11896   -11894   -11894   -11897   -11897   -11894   -11896   -11897 
  -11893   -11896   -11901   -11896   -11892   -11896   -11898   -11894 
  -11893   -11896   -11894   -11894   -11894   -11896   -11897   -11894 
  -11894   -11896   -11896   -11897   -11900   -11897   -11894   -11894 
  -11894   -11893   -11896   -11897   -11894   -11894   -11897   -11896 
  -11894   -11894   -11897   -11897   -11896   -11896   -11894   -11896 
  -11897   -11896   -11896   -11896   -11896   -11897   -11896   -11896 
  -11897   -11897   -11896   -11897   -11896   -11894   -11894   -11897 
  -11897   -11894   -11896   -11897   -11896   -11893   -11894   -11896 
  -11897   -11897   -11897   -11894   -11892   -11896   -11897   -11893 
  -11894   -11900   -11897   -11894   -11896   -11894   -11894   -11897 
  -11893   -11894   -11898   -11894   -11892   -11894   -11896   -11896 
  -11894   -11894   -11894   -11894   -11896   -11897   -11896   -11894 
  -11897   -11900   -11897   -11890   -11893   -11898   -11896   -11893 
  -11894   -11894   -11896   -11896   -11896   -11896   -11893   -11892 
  -11894   -11896   -11896   -11896   -11898   -11897   -11894   -11894 
  -11896   -11894   -11896   -11896   -11893   -11894   -11896   -11894 
  -11893   -11894   -11896   -11896   -11896   -11893   -11894   -11897 
  -11897   -11894   -11894   -11896   -11897   -11897   -11896   -11897 
  -11898   -11896   -11896   -11898   -11894   -11892   -11896   -11896 
  -11894   -11897   -11897   -11894   -11892   -11896   -11898   -11894 
  -11892   -11896   -11898   -11894   -11894   -11897   -11894   -11894 
  -11898   -11898   -11896   -11896   -11897   -11896   -11896   -11896 
  -11894   -11894   -11897   -11898   -11894   -11893   -11897   -11897 
  -11896   -11896   -11893   -11893   -11894   -11894   -11896   -11896 
  -11893   -11893   -11893   -11894   -11897   -11896   -11894   -11896 
  -11897   -11896   -11894   -11893   -11896   -11898   -11894   -11894 
  -11897   -11894   -11893   -11898   -11898   -11894   -11896   -11897 
  -11896   -11893   -11896   -11898   -11897   -11896   -11897   -11897 
  -11896   -11896   -11896   -11896   -11896   -11897   -11897   -11894 
  -11896   -11896   -11894   -11896   -11898   -11897   -11896   -11897 
  -11896   -11894   -11896   -11898   -11896   -11893   -11893   -11894 
  -11898   -11897   -11893   -11894   -11896   -11896   -11898   -11898 
  -11896   -11896   -11898   -11898   -11894   -11896   -11898   -11897 
  -11894   -11894   -11898   -11901   -11897   -11896   -11898   -11897 
  -11896   -11896   -11896   -11896   -11896   -11898   -11898   -11894 
  -11894   -11896   -11896   -11897   -11897   -11893   -11893   -11897 
  -11897   -11896   -11897   -11896   -11896   -11898   -11897   -11896 
  -11896   -11896   -11896   -11894   -11893   -11894   -11898   -11897 
  -11893   -11896   -11896   -11894   -11896   -11896   -11896   -11898 
  -11898   -11894   -11894   -11897   -11896   -11893   -11898   -11900 
  -11894   -11894   -11897   -11897   -11894   -11896   -11898   -11897 
  -11897   -11898   -11897   -11896   -11894   -11893   -11897   -11896 
  -11892   -11896   -11900   -11894   -11892   -11897   -11901   -11898 
  -11894   -11897   -11898   -11892   -11893   -11898   -11896   -11897 
  -11900   -11897   -11896   -11897   -11898   -11900   -11898   -11897 
  -11898   -11898   -11896   -11894   -11897   -11900   -11894   -11897 
  -11904   -11893   -11890   -11902   -11901   -11894   -11900   -11900 
  -11896   -11897   -11897   -11898   -11897   -11893   -11901   -11901 
  -11890   -11896   -11905   -11896   -11893   -11902   -11900   -11892 
  -11894   -11900   -11897   -11894   -11897   -11900   -11896   -11892 
  -11896   -11900   -11896   -11894   -11901   -11901   -11893   -11894 
  -11900   -11894   -11892   -11900   -11901   -11893   -11893   -11901 
  -11900   -11893   -11896   -11902   -11897   -11890   -11896   -11900 
  -11896   -11892   -11896   -11901   -11894   -11892   -11900   -11900 
  -11892   -11896   -11898   -11893   -11896   -11901   -11898   -11896 
  -11893   -11897   -11901   -11894   -11893   -11900   -11897   -11892 
  -11894   -11898   -11896   -11894   -11897   -11897   -11893   -11893 
  -11902   -11913   -11921   -11969   -12093   -12231   -12212   -11912 
  -11492   -11321   -11551   -12019   -12326   -11909   -11049   -11140 
  -12328   -12934   -12272   -11250   -10879   -11765   -13041   -12773 
  -11303   -11061   -12324   -12966   -12036   -10898   -11321   -12729 
  -12860   -11666   -11052   -11593   -12276   -12179   -11754   -11830 
  -11888   -11607   -11757   -12209   -12222   -11915   -11577   -11394 
  -11753   -12313   -12186   -11705   -11794   -11909   -11529   -11728 
  -12510   -12410   -11619   -11280   -11583   -12452   -12999   -12016 
  -10721   -11049   -12280   -12762   -12241   -11502   -11443   -12006 
  -12318   -11979   -11456   -11518   -12123   -12168   -11514   -11561 
  -12364   -12510   -12050   -11707   -11541   -11757   -12127   -12189 
  -12090   -11831   -11610   -11805   -12029   -12031   -11956   -11689 
  -11495   -11763   -11992   -11767   -11712   -12013   -12083   -11935 
  -11719   -11622   -12064   -12375   -12035   -11758   -11750   -11900 
  -12098   -11993   -11915   -12008   -11820   -11604   -11716   -11993 
  -12144   -11994   -11882   -12001   -11959   -11743   -11686   -11830 
  -11920   -11889   -12037   -12154   -11789   -11442   -11576   -11925 
  -12270   -12258   -11719   -11514   -11961   -12077   -11855   -11965 
  -12028   -11881   -11842   -11882   -12009   -12015   -11781   -11692 
  -11827   -11967   -12043   -12075   -11986   -11701   -11634   -11870 
  -11820   -11704   -11977   -12114   -11988   -12008   -12010   -11940 
  -11959   -11853   -11807   -11994   -11846   -11603   -11923   -12178 
  -11929   -11724   -11704   -11786   -12008   -12042   -11838   -11767 
  -11809   -11870   -12002   -12090   -12112   -12004   -11762   -11821 
  -12039   -11843   -11624   -11750   -11788   -11817   -12174   -12256 
  -11705   -11442   -11900   -12259   -12106   -11794   -11637   -11731 
  -11944   -12042   -11971   -11931   -12019   -12004   -11823   -11732 
  -11750   -11839   -11998   -11973   -11896   -12037   -12094   -11942 
  -11747   -11711   -12039   -12214   -11831   -11707   -12040   -12002 
  -11785   -11815   -11753   -11626   -11630   -11842   -12177   -12102 
  -11723   -11627   -11797   -11955   -11923   -11955   -12093   -11847 
  -11774   -12191   -12109   -11816   -11912   -11894   -11963   -12051 
  -11734   -11811   -12237   -12058   -11587   -11500   -12000   -12476 
  -12086   -11601   -11700   -11715   -11731   -11905   -11875   -11886 
  -11874   -11828   -12059   -11874   -11495   -12020   -12372   -11767 
  -11638   -12171   -12179   -11728   -11740   -12093   -12004   -11765 
  -11689   -11703   -12094   -12198   -11753   -11758   -11951   -11859 
  -11928   -12051   -12036   -11935   -11758   -11728   -11944   -12154 
  -11963   -11515   -11519   -11863   -11908   -11924   -12086   -11826 
  -11504   -11992   -12534   -12105   -11568   -11759   -12025   -12123 
  -12150   -11846   -11723   -11838   -11674   -11896   -12325   -11954 
  -11523   -11670   -11803   -11857   -11974   -11943   -11913   -12058 
  -12052   -11788   -11692   -11912   -12144   -12139   -11838   -11556 
  -11684   -11955   -12016   -12025   -11978   -11720   -11506   -11684 
  -12056   -12228   -12202   -12032   -11820   -11830   -11928   -11919 
  -11900   -11855   -11844   -12016   -12100   -11776   -11414   -11619 
  -12064   -12097   -11961   -11811   -11614   -11890   -12253   -11869 
  -11477   -11738   -11794   -11627   -12151   -12609   -12179   -11794 
  -11873   -11874   -11745   -11909   -12294   -12166   -11723   -11682 
  -11770   -11816   -11850   -11749   -11923   -12096   -11695   -11585 
  -11994   -11938   -11749   -12024   -12132   -11835   -11657   -11907 
  -12263   -12162   -11835   -11686   -11693   -11961   -12096   -11863 
  -11985   -12129   -11666   -11508   -11898   -12078   -12117   -12085 
  -11862   -11735   -11693   -11707   -11981   -12102   -11889   -11928 
  -12013   -11685   -11605   -11997   -12093   -11839   -11793   -11873 
  -11848   -11988   -12197   -12055   -11746   -11572   -11638   -12055 
  -12318   -12064   -11844   -11776   -11668   -11801   -12044   -12029 
  -11796   -11680   -11965   -12075   -11688   -11684   -12032   -12016 
  -12010   -12052   -11718   -11646   -12081   -12131   -11894   -12050 
  -12081   -11677   -11649   -12202   -12326   -11592   -11218   -11709 
  -11961   -11839   -11897   -11919   -11871   -11812   -11654   -11854 
  -12436   -12403   -11740   -11805   -12276   -11877   -11691   -12259 
  -12082   -11630   -11846   -11730   -11419   -11707   -11794   -11526 
  -11809   -12491   -12744   -12353   -11851   -11773   -11759   -11458 
  -11529   -12175   -12460   -12085   -11678   -11267   -10893   -11294 
  -12070   -12307   -12380   -12436   -12202   -12010   -11843   -11589 
  -11624   -12079   -12457   -12193   -11755   -11561   -11121   -11076 
  -11904   -12125   -11792   -12367   -12927   -12461   -12131   -12160 
  -11809   -11523   -11566   -11677   -12069   -12155   -11453   -11279 
  -11857   -11723   -11236   -11445   -11873   -12514   -13215   -12715 
  -11740   -11673   -11817   -11863   -11985   -11696   -11480   -11826 
  -12017   -11697   -11443   -11750   -12163   -12386   -12879   -12530 
  -10536    -9602   -10783   -11974   -13101   -13784   -12532   -11083 
  -11055   -11580   -12275   -12703   -12510   -12252   -11840   -11450 
  -11981   -12641   -12114   -11232   -11037   -11111   -11538   -12648 
  -13343   -12987   -12077   -10874   -10307   -10774   -11241   -12009 
  -13039   -12750   -11859   -11911   -11974   -11286   -10994   -11637 
  -12428   -12977   -12810   -11751   -11314   -11863   -11691   -11043 
  -11728   -12914   -12712   -11851   -11688   -12047   -12210   -11739 
  -11145   -11269   -11944   -12407   -12127   -11595   -11732   -12085 
  -11804   -11287   -11308   -12021   -12695   -12557   -11989   -11755 
  -11898   -12015   -11696   -11294   -11576   -11966   -11927   -12236 
  -12440   -12040   -12150   -12262   -11642   -11678   -12285   -12252 
  -12155   -12367   -12021   -11146   -11016   -11759   -11875   -11307 
  -11443   -12121   -12349   -11809   -11053   -11333   -11990   -11581 
  -11520   -12301   -12258   -11973   -12118   -12083   -12249   -12351 
  -12110   -12364   -12640   -12197   -11716   -11753   -11943   -11801 
  -11573   -11894   -12270   -11716   -11121   -11539   -11925   -11878 
  -12131   -12225   -11919   -11612   -11307   -11518   -12147   -12056 
  -11441   -11389   -11988   -12232   -11778   -11773   -12170   -12040 
  -11939   -12039   -11990   -12024   -11977   -11892   -11932   -11985 
  -12008   -11809   -11817   -12193   -12085   -11858   -12059   -11873 
  -11612   -12029   -12114   -11765   -12066   -12253   -11641   -11442 
  -11896   -12110   -12074   -11704   -11156   -11512   -12321   -12244 
  -11766   -11643   -11774   -12102   -12210   -11869   -11901   -12409 
  -12183   -11457   -11643   -12109   -11603   -10947   -11230   -11959 
  -12143   -11919   -12017   -12283   -12249   -11954   -11767   -11967 
  -12156   -11997   -11707   -11504   -11712   -12197   -12276   -12023 
  -11801   -11753   -12120   -12363   -12015   -11877   -12091   -12078 
  -11867   -11632   -11601   -11763   -11951   -12104   -11851   -11654 
  -11965   -11823   -11470   -11919   -12174   -11661   -11541   -11871 
  -11865   -11722   -11821   -12009   -11929   -11688   -11824   -12137 
  -12050   -11828   -11897   -12023   -12144   -12413   -12256   -11634 
  -11703   -12317   -12231   -11785   -11680   -11506   -11591   -12241 
  -12382   -11982   -11796   -11604   -11619   -12033   -12073   -11547 
  -11122   -11408   -12086   -12137   -11796   -11896   -12043   -11898 
  -11881   -12040   -12058   -12060   -12258   -12221   -11758   -11362 
  -11543   -12295   -12638   -12135   -11749   -11749   -11704   -11577 
  -11475   -11680   -11908   -11728   -11757   -12218   -12428   -12059 
  -11547   -11666   -12255   -12490   -12329   -11978   -11684   -11840 
  -11911   -11527   -11510   -11859   -12078   -12286   -12027   -11492 
  -11599   -11735   -11662   -11959   -12039   -11736   -11619   -11703 
  -11936   -12063   -11913   -12008   -12148   -11769   -11624   -11947 
  -12021   -12291   -12576   -12032   -11508   -11488   -11502   -11695 
  -11850   -11928   -12301   -12318   -11790   -11607   -11813   -12012 
  -12127   -12117   -12258   -12393   -12077   -11928   -11990   -11452 
  -11140   -11738   -11956   -11593   -11750   -12079   -11778   -11290 
  -11284   -11812   -12289   -12167   -12006   -12275   -12370   -12312 
  -12460   -12293   -11696   -11283   -11550   -12321   -12495   -11827 
  -11379   -11554   -11882   -11935   -11939   -12128   -11840   -11387 
  -11781   -12210   -11786   -11103   -10998   -11688   -12147   -11718 
  -11499   -11992   -12376   -12289   -12116   -12114   -12112   -12104 
  -12216   -12221   -12078   -12078   -12040   -11689   -11665   -12185 
  -12312   -12106   -11935   -11283   -10937   -11754   -12411   -12152 
  -11821   -11799   -11859   -11719   -11520   -11731   -11992   -11919 
  -11757   -11591   -11821   -12388   -12247   -11654   -11549   -11807 
  -12155   -12145   -11711   -11934   -12654   -12556   -11901   -11511 
  -11472   -11747   -11994   -12044   -11988   -11834   -11907   -12013 
  -11816   -11730   -11708   -11658   -11863   -12020   -11913   -11811 
  -11977   -12187   -11757   -11196   -11620   -12306   -12085   -11433 
  -11391   -12056   -12490   -12108   -11605   -11711   -12208   -12510 
  -12294   -11896   -11901   -12163   -12087   -11649   -11411   -11678 
  -11989   -11981   -11843   -11638   -11593   -11988   -12229   -12056 
  -11977   -11800   -11550   -11844   -12237   -12010   -11603   -11739 
  -12244   -12333   -11826   -11400   -11538   -11869   -11824   -11634 
  -11909   -12306   -12125   -11750   -11747   -11947   -12086   -11988 
  -11622   -11465   -11886   -12417   -12432   -12029   -11762   -11913 
  -12156   -12025   -11691   -11560   -11566   -11655   -11982   -12305 
  -12098   -11561   -11645   -12194   -12121   -11699   -11669   -11773 
  -11712   -11510   -11523   -12027   -12425   -12413   -12264   -11820 
  -11404   -11661   -12125   -12178   -12004   -11939   -12128   -12287 
  -11827   -11141   -11418   -12336   -12474   -11851   -11515   -11578 
  -11685   -12012   -12395   -12255   -11824   -11662   -11673   -11646 
  -11740   -11988   -12114   -11978   -11753   -11723   -11824   -11850 
  -11939   -12000   -11858   -11863   -12087   -12258   -12274   -11947 
  -11597   -11801   -12120   -12020   -11736   -11718   -12133   -12268 
  -11792   -11634   -11867   -11820   -11638   -11466   -11376   -11704 
  -12162   -12268   -12067   -11727   -11585   -11917   -12258   -12116 
  -11884   -11923   -11979   -11939   -11898   -11885   -11952   -12037 
  -11981   -11843   -11888   -12120   -12175   -11915   -11595   -11458 
  -11642   -11875   -11700   -11495   -11772   -12081   -12094   -12005 
  -11867   -11731   -11681   -11888   -12228   -12077   -11647   -11749 
  -12201   -12324   -12137   -12182   -12352   -12008   -11604   -12005 
