Origin Time       2021/08/14 22:38:00
Lat.              37.5
Long.             137.2
Depth. (km)       10
Mag.              4.1
Station Code      ISK002
Station Lat.      37.4443
Station Long.     137.2877
Station Height(m) 4
Record Time       2021/08/14 22:38:10
Sampling Freq(Hz) 100Hz
Duration Time(s)  60
Dir.              E-W
Scale Factor      7845(gal)/8223790
Max. Acc. (gal)   43.945
Last Correction   2021/08/14 22:38:10
Memo.             
[...]
  -14266   -14269   -14266   -14266   -14266   -14264   -14266   -14266 
  -14261   -14260   -14262   -14262   -14260   -14256   -14254   -14249 
  -14243   -14243   -14243   -14239   -14241   -14243   -14238   -14238 
  -14243   -14246   -14246   -14243   -14241   -14239   -14238   -14239 
  -14242   -14243   -14245   -14247   -14245   -14242   -14246   -14256 
  -14262   -14264   -14264   -14260   -14261   -14262   -14261   -14262 
  -14262   -14262   -14262   -14258   -14260   -14262   -14262   -14262 
  -14261   -14256   -14247   -14243   -14245   -14250   -14249   -14241 
  -14242   -14247   -14246   -14249   -14247   -14245   -14251   -14254 
  -14249   -14245   -14243   -14239   -14238   -14239   -14243   -14242 
  -14238   -14242   -14243   -14241   -14246   -14251   -14251   -14253 
  -14250   -14243   -14243   -14249   -14257   -14260   -14258   -14262 
  -14264   -14261   -14262   -14264   -14264   -14268   -14269   -14264 
  -14257   -14254   -14256   -14256   -14256   -14256   -14258   -14257 
  -14254   -14250   -14246   -14245   -14246   -14249   -14253   -14251 
  -14245   -14243   -14245   -14246   -14250   -14254   -14250   -14245 
  -14242   -14245   -14253   -14258   -14253   -14246   -14246   -14247 
  -14250   -14249   -14249   -14253   -14257   -14258   -14260   -14258 
  -14256   -14258   -14264   -14266   -14262   -14257   -14258   -14258 
  -14254   -14253   -14251   -14253   -14256   -14257   -14253   -14250 
  -14251   -14247   -14242   -14241   -14239   -14243   -14247   -14253 
  -14256   -14253   -14247   -14247   -14250   -14247   -14245   -14242 
  -14239   -14242   -14249   -14250   -14247   -14246   -14247   -14249 
  -14251   -14257   -14258   -14257   -14257   -14260   -14260   -14258 
  -14256   -14253   -14253   -14253   -14253   -14253   -14251   -14251 
  -14251   -14246   -14242   -14243   -14247   -14247   -14247   -14249 
  -14246   -14247   -14250   -14250   -14249   -14247   -14250   -14250 
  -14249   -14250   -14256   -14256   -14253   -14251   -14249   -14249 
  -14253   -14254   -14250   -14247   -14249   -14250   -14249   -14246 
  -14249   -14256   -14258   -14257   -14253   -14251   -14253   -14256 
  -14257   -14258   -14253   -14250   -14251   -14251   -14253   -14254 
  -14251   -14253   -14257   -14257   -14254   -14251   -14254   -14256 
  -14250   -14250   -14251   -14247   -14249   -14249   -14245   -14246 
  -14253   -14257   -14258   -14254   -14250   -14250   -14250   -14251 
  -14257   -14257   -14251   -14250   -14247   -14247   -14253   -14257 
  -14257   -14256   -14251   -14250   -14251   -14250   -14250   -14250 
  -14253   -14257   -14260   -14257   -14250   -14250   -14251   -14250 
  -14250   -14251   -14254   -14254   -14247   -14243   -14247   -14249 
  -14249   -14249   -14247   -14247   -14250   -14247   -14250   -14257 
  -14261   -14262   -14262   -14257   -14250   -14245   -14246   -14251 
  -14251   -14251   -14250   -14245   -14242   -14245   -14247   -14250 
  -14250   -14245   -14242   -14243   -14242   -14246   -14256   -14258 
  -14256   -14251   -14251   -14254   -14254   -14257   -14262   -14264 
  -14257   -14249   -14245   -14245   -14245   -14249   -14251   -14251 
  -14250   -14249   -14246   -14243   -14245   -14251   -14253   -14251 
  -14250   -14253   -14253   -14249   -14253   -14261   -14261   -14257 
  -14258   -14258   -14251   -14247   -14251   -14256   -14254   -14250 
  -14247   -14246   -14245   -14246   -14249   -14249   -14251   -14254 
  -14250   -14250   -14257   -14260   -14260   -14260   -14256   -14254 
  -14254   -14249   -14253   -14258   -14257   -14260   -14260   -14257 
  -14257   -14257   -14257   -14260   -14258   -14256   -14256   -14254 
  -14254   -14251   -14246   -14246   -14245   -14241   -14239   -14239 
  -14239   -14242   -14249   -14254   -14254   -14251   -14253   -14253 
  -14250   -14256   -14261   -14258   -14257   -14256   -14249   -14249 
  -14258   -14262   -14258   -14254   -14249   -14250   -14254   -14253 
  -14251   -14250   -14245   -14241   -14242   -14246   -14250   -14254 
  -14253   -14251   -14253   -14253   -14253   -14258   -14261   -14254 
  -14245   -14242   -14247   -14250   -14249   -14250   -14251   -14251 
  -14251   -14251   -14251   -14253   -14256   -14258   -14257   -14254 
  -14253   -14253   -14253   -14253   -14251   -14253   -14257   -14253 
  -14249   -14257   -14262   -14261   -14260   -14256   -14250   -14249 
  -14250   -14254   -14257   -14256   -14251   -14249   -14247   -14251 
  -14257   -14260   -14260   -14254   -14249   -14247   -14247   -14246 
  -14247   -14250   -14251   -14250   -14247   -14249   -14250   -14249 
  -14249   -14250   -14249   -14246   -14249   -14251   -14250   -14247 
  -14249   -14253   -14254   -14249   -14245   -14243   -14247   -14254 
  -14257   -14256   -14253   -14249   -14246   -14250   -14257   -14257 
  -14254   -14253   -14247   -14247   -14250   -14253   -14254   -14249 
  -14247   -14254   -14253   -14247   -14249   -14249   -14246   -14246 
  -14250   -14254   -14253   -14247   -14246   -14249   -14246   -14247 
  -14254   -14258   -14256   -14253   -14253   -14251   -14249   -14251 
  -14256   -14258   -14254   -14250   -14253   -14257   -14254   -14246 
  -14245   -14256   -14264   -14253   -14243   -14247   -14256   -14257 
  -14254   -14250   -14247   -14250   -14254   -14250   -14249   -14254 
  -14260   -14260   -14257   -14253   -14250   -14251   -14251   -14253 
  -14256   -14254   -14250   -14249   -14249   -14251   -14253   -14251 
  -14251   -14249   -14243   -14245   -14250   -14251   -14249   -14247 
  -14245   -14246   -14247   -14250   -14257   -14261   -14257   -14257 
  -14257   -14250   -14249   -14251   -14249   -14250   -14253   -14254 
  -14253   -14247   -14243   -14246   -14245   -14245   -14256   -14258 
  -14258   -14260   -14256   -14249   -14247   -14249   -14253   -14254 
  -14251   -14249   -14250   -14251   -14247   -14246   -14249   -14251 
  -14251   -14258   -14261   -14256   -14249   -14250   -14253   -14254 
  -14256   -14258   -14257   -14253   -14247   -14246   -14246   -14245 
  -14246   -14250   -14250   -14250   -14251   -14249   -14246   -14243 
  -14242   -14245   -14247   -14251   -14253   -14250   -14249   -14250 
  -14251   -14257   -14264   -14257   -14250   -14253   -14256   -14257 
  -14258   -14257   -14254   -14254   -14251   -14246   -14247   -14247 
  -14247   -14253   -14251   -14247   -14247   -14247   -14251   -14254 
  -14253   -14256   -14256   -14250   -14253   -14257   -14257   -14258 
  -14257   -14254   -14257   -14260   -14260   -14260   -14261   -14261 
  -14257   -14249   -14245   -14242   -14239   -14245   -14249   -14246 
  -14246   -14246   -14243   -14246   -14251   -14253   -14254   -14254 
  -14256   -14256   -14250   -14247   -14251   -14254   -14253   -14251 
  -14251   -14253   -14256   -14256   -14257   -14256   -14253   -14251 
  -14251   -14251   -14253   -14253   -14247   -14243   -14243   -14243 
  -14247   -14250   -14247   -14246   -14246   -14246   -14247   -14254 
  -14258   -14253   -14246   -14246   -14250   -14246   -14243   -14249 
  -14247   -14243   -14249   -14251   -14250   -14251   -14253   -14251 
  -14250   -14246   -14246   -14247   -14250   -14251   -14253   -14251 
  -14249   -14250   -14254   -14257   -14257   -14253   -14254   -14256 
  -14254   -14253   -14251   -14251   -14250   -14247   -14249   -14256 
  -14256   -14251   -14251   -14251   -14250   -14253   -14256   -14257 
  -14254   -14247   -14243   -14243   -14243   -14247   -14249   -14249 
  -14246   -14243   -14245   -14250   -14251   -14250   -14250   -14249 
  -14247   -14247   -14249   -14251   -14257   -14261   -14260   -14257 
  -14258   -14257   -14256   -14257   -14257   -14253   -14251   -14257 
  -14254   -14247   -14247   -14251   -14253   -14254   -14256   -14257 
  -14257   -14251   -14246   -14249   -14251   -14251   -14253   -14251 
  -14250   -14249   -14250   -14253   -14254   -14253   -14254   -14258 
  -14257   -14251   -14247   -14243   -14246   -14251   -14251   -14247 
  -14243   -14243   -14247   -14250   -14251   -14253   -14249   -14245 
  -14246   -14247   -14251   -14258   -14260   -14253   -14249   -14247 
  -14251   -14253   -14254   -14256   -14253   -14250   -14253   -14256 
  -14256   -14257   -14257   -14257   -14257   -14257   -14254   -14249 
  -14245   -14246   -14245   -14243   -14245   -14246   -14242   -14241 
  -14243   -14247   -14249   -14247   -14245   -14246   -14246   -14246 
  -14249   -14253   -14247   -14245   -14253   -14254   -14247   -14251 
  -14257   -14257   -14260   -14262   -14261   -14258   -14254   -14254 
  -14257   -14260   -14260   -14256   -14251   -14250   -14246   -14242 
  -14245   -14246   -14247   -14251   -14253   -14253   -14253   -14249 
  -14250   -14253   -14250   -14253   -14256   -14256   -14257   -14256 
  -14257   -14257   -14254   -14253   -14253   -14247   -14246   -14247 
  -14249   -14253   -14256   -14250   -14246   -14245   -14246   -14247 
  -14250   -14249   -14249   -14250   -14250   -14251   -14249   -14249 
  -14253   -14256   -14254   -14256   -14258   -14257   -14257   -14257 
  -14254   -14257   -14262   -14258   -14251   -14249   -14250   -14253 
  -14253   -14251   -14249   -14247   -14249   -14249   -14249   -14249 
  -14247   -14247   -14249   -14249   -14247   -14250   -14250   -14247 
  -14250   -14249   -14249   -14254   -14256   -14253   -14254   -14256 
  -14256   -14254   -14253   -14253   -14253   -14254   -14258   -14260 
  -14256   -14256   -14258   -14254   -14251   -14258   -14260   -14257 
  -14257   -14254   -14254   -14258   -14260   -14256   -14251   -14253 
  -14257   -14256   -14253   -14253   -14249   -14250   -14254   -14249 
  -14243   -14246   -14246   -14245   -14245   -14247   -14250   -14249 
  -14243   -14243   -14242   -14246   -14253   -14254   -14249   -14246 
  -14247   -14250   -14254   -14256   -14254   -14254   -14256   -14256 
  -14257   -14257   -14257   -14258   -14258   -14254   -14251   -14253 
  -14254   -14254   -14251   -14247   -14247   -14249   -14250   -14249 
  -14245   -14245   -14246   -14245   -14243   -14242   -14245   -14251 
  -14251   -14249   -14250   -14250   -14251   -14253   -14251   -14253 
  -14254   -14251   -14249   -14247   -14247   -14253   -14254   -14253 
  -14251   -14249   -14247   -14253   -14254   -14253   -14254   -14256 
  -14256   -14253   -14253   -14257   -14261   -14258   -14256   -14256 
  -14256   -14253   -14256   -14257   -14253   -14250   -14250   -14253 
  -14257   -14253   -14249   -14251   -14253   -14253   -14254   -14254 
  -14253   -14251   -14247   -14245   -14245   -14250   -14257   -14254 
  -14247   -14247   -14247   -14247   -14253   -14257   -14258   -14254 
  -14247   -14246   -14249   -14253   -14257   -14257   -14256   -14256 
  -14250   -14246   -14250   -14256   -14256   -14256   -14256   -14254 
  -14253   -14250   -14249   -14251   -14256   -14257   -14256   -14250 
  -14247   -14250   -14254   -14257   -14256   -14254   -14253   -14250 
  -14247   -14251   -14254   -14250   -14249   -14249   -14249   -14249 
  -14249   -14251   -14257   -14265   -14289   -14337   -14355   -14214 
  -13810   -13355   -13527   -14852   -16434   -16137   -13477   -11437 
  -12757   -15207   -15192   -14235   -14971   -15473   -14018   -12926 
  -13872   -14872   -14227   -13269   -14322   -16325   -14737   -11708 
  -13167   -15658   -14725   -13329   -14706   -16033   -13495   -11828 
  -14146   -15770   -15322   -14096   -13659   -14542   -13705   -12766 
  -15735   -17232   -12787   -10669   -15323   -17685   -13275   -10183 
  -14345   -18512   -14971   -11078   -14218   -16806   -12984   -10732 
  -15269   -18145   -14577   -12106   -14731   -16613   -14060   -12725 
  -14881   -13090    -8471   -10906   -18674   -21601   -17034   -11553 
  -11060   -12981   -13409   -14216   -15812   -15822   -14982   -14013 
  -12299   -11601   -13444   -15776   -15928   -14462   -14112   -15867 
  -16349   -13149   -11214   -13630   -15368   -14013   -13474   -15639 
  -16425   -12954   -10257   -13662   -18972   -18366   -13589   -12441 
  -14284   -13099   -10158   -10667   -13957   -17070   -19341   -18505 
  -13413    -8448    -8739   -14428   -19290   -17466   -12923   -13157 
  -16112   -15569   -12325   -11276   -13857   -15963   -14629   -13570 
  -14742   -15142   -15221   -15743   -14324   -12098   -11577   -13215 
  -16470   -17606   -14878   -12043   -11373   -13525   -17496   -17620 
  -13454   -12032   -14550   -15747   -13618   -11680   -13039   -15003 
  -14621   -14042   -13834   -12015   -11214   -14446   -18549   -18929 
  -15606   -12783   -13120   -14183   -13536   -13786   -15761   -14481 
  -11452   -12933   -15547   -15288   -14723   -13721   -11669   -10552 
  -12004   -17424   -22528   -19703   -11954    -9219   -12483   -14890 
  -14527   -14797   -15709   -14315   -12074   -13176   -14750   -12098 
  -10505   -14991   -18862   -16660   -13163   -11985   -12379   -13625 
  -15345   -19348   -21573   -14573    -6473    -8303   -13072   -13019 
  -13354   -17242   -20090   -17730   -10733    -7036   -11967   -17494 
  -18054   -18800   -20294   -17543   -10049    -4406    -7352   -13517 
  -13825   -13215   -19060   -24613   -21926   -15553   -12834   -13073 
  -10543    -5404    -5181   -10602   -14407   -14307   -14802   -18658 
  -19885   -15658   -15797   -21313   -20760   -15168   -13417   -13775 
  -12555   -12876   -18817   -30335   -40737   -44223   -43097   -39588 
  -31039   -15129     5533    23654    31816    28340    18522     8010 
    1966     4072     6671     1448    -7538   -20263   -40950   -58440 
  -57639   -41501   -23465    -9383     2000     9090     7927    -1524 
  -13031   -18409   -17004   -15996   -18648   -21579   -22744   -21959 
  -18287   -10326     -332     2199    -3767    -6635    -5352    -5999 
   -6037    -5853   -12891   -27973   -43146   -52232   -55394   -53260 
  -44510   -28807    -9240     6396    11523     9255     7329     6451 
    3343    -2335   -10149   -16569   -17221   -16511   -20488   -27375 
  -32532   -30877   -21793   -15597   -18121   -19861   -14854    -7994 
   -2343     -305    -4696   -11044   -14400   -16868   -21691   -29015 
  -33442   -27506   -14758    -6027    -4403    -7765   -12668   -12276 
   -3877     6901    12850    10386      589   -11344   -19596   -21837 
  -20066   -19512   -24228   -31128   -33442   -28444   -17031    -3443 
    3736       28   -10227   -20734   -25425   -21874   -17626   -19157 
  -22535   -22661   -18419   -11824    -5967    -1831    -2228   -10380 
  -23197   -34153   -36046   -25654   -11739    -5564    -7657   -13521 
  -19403   -20055   -13086    -3510      711    -4040   -12505   -16374 
  -15159   -12191    -6708     -772    -1578   -10015   -18007   -18481 
  -12476    -7585    -9618   -16876   -25309   -31884   -32016   -24854 
  -16146   -10918    -9621    -9525    -9487   -11911   -16231   -17521 
  -13972    -9277    -8078   -12309   -19192   -23491   -23411   -20447 
  -17254   -15732   -14219   -12945   -14949   -17145   -14346    -8564 
   -4221    -2300    -2687    -6288   -13545   -21606   -24571   -18755 
   -8461    -3157    -6116   -12463   -17625   -19363   -16842   -12145 
   -9113   -11052   -17829   -24611   -27934   -29544   -30352   -27660 
  -20352   -11641    -6222    -4693    -2894     1158     4248     2905 
   -2263    -7985   -13167   -19538   -26368   -29976   -29492   -26732 
  -22519   -18123   -15398   -13626   -11065    -8432    -7852   -10466 
  -14902   -18239   -19689   -19793   -18004   -14991   -12791   -12559 
  -14766   -18669   -21637   -20730   -14423    -4248     4596     6683 
    1911    -4803    -8961    -8895    -6176    -3798    -3284    -6114 
  -12383   -18670   -23348   -27815   -32055   -34909   -35091   -31464 
  -24908   -17473   -10717    -6311    -5302    -6754    -9159   -12128 
  -14396   -12976    -7838    -3846    -5235   -11218   -17791   -21849 
  -23562   -24777   -25716   -25281   -23163   -19662   -15276   -11445 
   -9906   -11078   -13944   -16694   -17787   -17037   -14982   -12105 
   -8893    -5779    -3595    -4124    -8392   -14141   -17185   -15574 
  -11799    -9910   -10145   -10575   -12206   -16243   -20547   -22837 
  -22802   -20845   -17820   -14584   -11510    -9166    -8298    -9367 
  -12235   -15676   -18085   -18979   -18833   -17651   -14998   -11635 
   -9737   -10453   -12305   -13783   -15564   -17671   -18292   -17196 
  -15367   -12411    -8505    -5952    -6488    -9005   -11475   -13397 
  -15120   -17014   -18990   -20254   -20771   -20293   -17406   -12820 
   -9641    -9266   -10006    -9936    -9416    -9244    -9336   -10530 
  -13443   -16911   -19332   -19618   -18188   -16339   -14034   -11221 
   -9304    -9135   -10185   -11371   -11961   -12322   -12793   -13975 
  -16987   -20537   -22821   -24675   -25902   -24628   -21344   -18473 
  -17161   -16440   -14908   -12274    -9497    -7928    -8139   -10142 
  -13216   -15438   -15927   -15697   -16109   -17834   -19668   -19835 
  -18108   -14569    -9894    -6147    -4367    -4514    -6691    -9913 
  -12465   -13624   -13803   -13813   -14202   -15699   -18816   -22117 
  -23271   -21239   -16457   -10937    -7254    -6099    -6590    -8248 
  -10431   -11686   -11955   -12808   -14752   -17323   -20017   -21975 
  -22739   -22141   -20078   -17432   -15307   -13949   -12919   -11824 
  -10781    -9726    -8752    -9054   -11441   -14477   -15982   -15735 
  -15080   -14929   -15093   -14804   -13755   -12260   -10373    -8086 
   -6696    -7623    -9906   -12148   -14374   -16364   -17795   -18711 
  -19070   -19055   -18562   -17757   -17267   -16411   -14432   -12582 
  -12777   -15394   -18696   -20657   -20544   -18836   -16680   -14629 
  -12361    -9529    -7032    -7322   -10998   -15535   -18647   -19442 
  -17946   -15215   -12688   -11827   -13487   -16386   -17770   -16387 
  -13312   -10486    -9598   -11099   -14002   -16549   -16984   -15026 
  -12213    -9972    -8854    -9198   -10363   -10552    -9197    -8090 
   -9157   -12240   -15985   -19614   -22474   -23133   -20884   -17327 
  -14496   -12807   -12093   -12244   -12600   -12636   -12760   -13342 
  -14251   -15670   -17254   -17884   -17375   -16314   -15310   -15016 
  -15561   -16610   -17521   -17293   -15485   -12623    -9983    -8976 
   -9660   -11263   -13374   -14952   -15007   -14135   -13467   -13552 
  -13981   -13765   -12896   -12330   -12148   -11427   -10012    -9005 
   -9302   -10590   -12513   -15304   -18041   -19394   -19823   -19967 
  -19502   -18488   -17718   -17990   -19080   -19836   -19674   -18779 
  -17004   -14539   -12856   -12679   -12920   -12903   -13157   -13929 
  -14611   -14628   -13973   -12749   -11214   -10349   -11160   -13425 
  -15812   -16885   -15961   -13448   -10492    -8446    -8472   -10373 
  -12186   -12663   -12357   -11533   -10301    -9725   -10188   -10862 
  -11321   -11913   -12780   -13660   -14773   -16746   -19180   -20630 
  -20376   -19062   -17918   -17910   -18952   -20074   -20587   -20343 
  -19291   -17685   -16092   -14648   -13089   -11557   -10258    -9096 
   -8129    -7632    -8051    -9553   -11718   -13996   -15585   -15974 
  -15487   -14427   -13362   -13182   -13851   -14573   -14708   -14269 
  -13950   -14035   -14056   -13849   -13747   -13856   -13956   -13795 
