Origin Time       2021/08/14 22:38:00
Lat.              37.5
Long.             137.2
Depth. (km)       10
Mag.              4.1
Station Code      ISK002
Station Lat.      37.4443
Station Long.     137.2877
Station Height(m) 4
Record Time       2021/08/14 22:38:10
Sampling Freq(Hz) 100Hz
Duration Time(s)  60
Dir.              U-D
Scale Factor      7845(gal)/8223790
Max. Acc. (gal)   24.766
Last Correction   2021/08/14 22:38:10
Memo.             
[...]
   21402    21405    21401    21402    21406    21405    21404    21406 
   21404    21398    21393    21392    21397    21398    21392    21389 
   21385    21379    21379    21374    21365    21361    21363    21366 
   21365    21358    21357    21358    21362    21370    21375    21375 
   21379    21384    21384    21389    21394    21393    21398    21408 
   21411    21412    21412    21413    21420    21425    21425    21420 
   21413    21413    21416    21408    21398    21398    21397    21392 
   21386    21377    21374    21374    21365    21363    21363    21359 
   21355    21351    21351    21361    21365    21363    21367    21365 
   21363    21370    21371    21371    21381    21386    21388    21393 
   21394    21398    21405    21408    21412    21416    21419    21421 
   21417    21416    21421    21417    21413    21416    21409    21400 
   21401    21398    21398    21401    21396    21390    21384    21373 
   21369    21367    21359    21357    21354    21351    21351    21351 
   21355    21358    21358    21362    21367    21367    21369    21374 
   21377    21381    21390    21396    21400    21401    21401    21405 
   21409    21409    21411    21412    21409    21404    21402    21402 
   21398    21401    21405    21405    21401    21397    21394    21392 
   21392    21393    21393    21388    21384    21381    21373    21367 
   21366    21367    21373    21377    21374    21369    21369    21373 
   21381    21382    21378    21377    21377    21377    21377    21378 
   21384    21389    21389    21392    21393    21390    21393    21400 
   21400    21398    21400    21400    21401    21405    21404    21401 
   21400    21397    21397    21400    21400    21397    21392    21388 
   21392    21397    21397    21392    21384    21381    21384    21382 
   21379    21382    21384    21384    21384    21378    21375    21375 
   21374    21378    21381    21375    21375    21379    21381    21385 
   21386    21382    21382    21384    21384    21386    21389    21390 
   21390    21388    21389    21390    21384    21384    21394    21394 
   21389    21386    21382    21388    21392    21390    21394    21398 
   21396    21398    21398    21397    21404    21402    21398    21397 
   21393    21389    21392    21390    21389    21388    21385    21379 
   21377    21377    21375    21370    21369    21374    21373    21371 
   21378    21377    21374    21378    21378    21382    21389    21386 
   21386    21393    21393    21392    21393    21389    21386    21390 
   21392    21394    21394    21390    21389    21393    21396    21397 
   21393    21392    21394    21394    21394    21397    21396    21393 
   21394    21394    21393    21396    21394    21394    21394    21388 
   21384    21386    21385    21385    21385    21381    21379    21381 
   21381    21384    21382    21378    21377    21375    21375    21379 
   21379    21377    21381    21381    21382    21388    21389    21386 
   21389    21390    21390    21389    21389    21393    21393    21392 
   21392    21393    21394    21394    21394    21397    21398    21397 
   21394    21393    21394    21394    21394    21396    21394    21392 
   21390    21385    21381    21384    21386    21385    21382    21379 
   21382    21381    21374    21373    21377    21375    21377    21381 
   21378    21379    21382    21379    21378    21374    21374    21381 
   21381    21377    21378    21379    21384    21388    21388    21388 
   21389    21386    21393    21400    21398    21400    21400    21397 
   21397    21401    21405    21404    21398    21394    21392    21388 
   21389    21393    21390    21388    21384    21379    21385    21388 
   21384    21382    21382    21381    21385    21389    21388    21386 
   21385    21388    21389    21388    21385    21382    21378    21377 
   21379    21381    21379    21377    21373    21377    21379    21378 
   21385    21388    21384    21388    21390    21390    21394    21396 
   21398    21404    21401    21398    21402    21402    21401    21402 
   21400    21397    21396    21393    21390    21393    21392    21389 
   21388    21386    21384    21382    21381    21385    21385    21379 
   21379    21381    21381    21381    21378    21378    21379    21378 
   21379    21381    21375    21377    21385    21388    21386    21390 
   21389    21388    21389    21389    21392    21392    21388    21388 
   21386    21382    21385    21390    21389    21386    21388    21392 
   21393    21393    21394    21394    21394    21397    21396    21393 
   21396    21394    21390    21392    21390    21385    21379    21382 
   21386    21385    21384    21381    21377    21374    21374    21373 
   21375    21377    21375    21374    21375    21381    21386    21384 
   21384    21388    21388    21385    21388    21390    21389    21386 
   21389    21392    21392    21392    21393    21392    21390    21394 
   21396    21393    21393    21389    21389    21394    21393    21390 
   21390    21389    21388    21388    21389    21396    21393    21386 
   21386    21386    21388    21389    21386    21385    21386    21382 
   21381    21384    21384    21382    21382    21384    21386    21388 
   21386    21388    21386    21384    21386    21389    21386    21388 
   21388    21386    21389    21389    21390    21396    21394    21388 
   21389    21392    21390    21393    21392    21386    21390    21390 
   21388    21388    21388    21389    21392    21388    21386    21386 
   21385    21389    21390    21384    21385    21388    21386    21386 
   21386    21388    21386    21379    21382    21390    21386    21382 
   21386    21389    21385    21381    21382    21389    21390    21389 
   21392    21386    21385    21393    21393    21388    21392    21393 
   21393    21394    21390    21385    21385    21386    21393    21394 
   21384    21384    21392    21386    21381    21382    21382    21385 
   21386    21385    21384    21381    21384    21392    21390    21386 
   21386    21388    21388    21389    21386    21386    21389    21386 
   21388    21390    21389    21386    21385    21385    21390    21392 
   21388    21386    21385    21384    21382    21381    21382    21386 
   21388    21385    21384    21384    21389    21390    21388    21388 
   21390    21390    21389    21392    21393    21386    21385    21389 
   21388    21384    21385    21385    21384    21381    21384    21389 
   21390    21388    21388    21388    21390    21394    21394    21390 
   21390    21392    21392    21386    21379    21378    21379    21378 
   21377    21382    21385    21382    21378    21379    21385    21389 
   21392    21390    21388    21386    21390    21390    21386    21389 
   21390    21386    21388    21389    21389    21392    21393    21390 
   21389    21388    21392    21394    21393    21393    21394    21392 
   21390    21392    21388    21388    21389    21388    21390    21393 
   21388    21386    21388    21384    21382    21385    21385    21379 
   21374    21377    21377    21373    21379    21384    21377    21378 
   21384    21381    21384    21382    21382    21392    21392    21386 
   21392    21394    21392    21398    21398    21393    21397    21397 
   21397    21400    21394    21389    21392    21390    21385    21379 
   21378    21382    21382    21379    21384    21384    21381    21385 
   21388    21385    21386    21386    21386    21384    21377    21378 
   21384    21379    21375    21381    21379    21378    21382    21381 
   21382    21386    21386    21388    21388    21386    21388    21389 
   21388    21390    21393    21392    21393    21393    21392    21393 
   21394    21394    21390    21388    21386    21388    21386    21390 
   21393    21388    21384    21386    21388    21390    21392    21389 
   21389    21386    21381    21382    21384    21381    21381    21382 
   21382    21384    21384    21382    21384    21384    21388    21392 
   21382    21381    21388    21384    21379    21382    21381    21382 
   21385    21385    21385    21389    21389    21392    21396    21394 
   21390    21389    21392    21392    21390    21389    21388    21386 
   21388    21388    21386    21388    21389    21389    21388    21384 
   21384    21386    21385    21384    21384    21384    21382    21385 
   21388    21386    21385    21388    21389    21384    21382    21384 
   21379    21375    21377    21379    21378    21377    21384    21388 
   21388    21388    21388    21386    21388    21388    21386    21388 
   21386    21386    21388    21389    21390    21389    21388    21388 
   21390    21390    21393    21393    21389    21388    21388    21385 
   21388    21389    21386    21386    21385    21381    21384    21386 
   21382    21381    21382    21379    21381    21384    21384    21382 
   21377    21377    21382    21382    21382    21384    21384    21385 
   21386    21388    21389    21388    21385    21386    21390    21388 
   21386    21385    21382    21384    21385    21389    21393    21390 
   21386    21390    21389    21389    21392    21388    21384    21384 
   21385    21389    21389    21384    21388    21393    21392    21393 
   21396    21390    21389    21389    21389    21393    21388    21382 
   21385    21382    21378    21384    21381    21379    21388    21382 
   21378    21381    21379    21379    21384    21381    21381    21384 
   21385    21388    21384    21381    21386    21386    21385    21390 
   21390    21388    21392    21396    21397    21398    21398    21397 
   21396    21390    21390    21392    21388    21385    21384    21379 
   21378    21377    21375    21377    21375    21374    21377    21375 
   21371    21375    21379    21379    21378    21377    21377    21381 
   21384    21386    21392    21394    21393    21392    21393    21394 
   21396    21396    21396    21392    21393    21396    21394    21390 
   21388    21385    21386    21388    21386    21384    21381    21381 
   21381    21378    21375    21377    21381    21384    21381    21379 
   21384    21384    21384    21385    21382    21382    21386    21386 
   21382    21384    21386    21390    21390    21388    21388    21388 
   21390    21393    21389    21388    21392    21389    21388    21388 
   21386    21390    21393    21390    21390    21388    21386    21385 
   21386    21386    21384    21379    21382    21384    21382    21382 
   21385    21385    21385    21382    21378    21378    21384    21385 
   21381    21382    21385    21386    21388    21388    21386    21385 
   21389    21394    21390    21386    21390    21394    21396    21394 
   21389    21389    21390    21386    21384    21385    21385    21384 
   21381    21377    21378    21381    21379    21379    21377    21375 
   21381    21382    21382    21382    21382    21386    21390    21390 
   21392    21394    21392    21388    21393    21397    21398    21397 
   21393    21390    21389    21388    21394    21394    21389    21390 
   21388    21379    21382    21382    21377    21378    21377    21378 
   21381    21377    21375    21379    21379    21379    21381    21378 
   21381    21384    21381    21385    21389    21389    21390    21389 
   21388    21392    21393    21392    21394    21392    21388    21390 
   21389    21389    21396    21393    21390    21390    21388    21389 
   21389    21384    21384    21384    21379    21377    21379    21384 
   21382    21378    21379    21384    21381    21379    21382    21379 
   21377    21378    21381    21385    21384    21381    21381    21384 
   21388    21389    21388    21389    21390    21389    21390    21392 
   21392    21393    21393    21390    21393    21394    21393    21389 
   21381    21348    21238    20864    19778    17691    16129    18886 
   26854    32366    26850    16248    15600    23650    23900    17490 
   21077    28748    23508    15813    20827    26582    21672    16259 
   18790    24575    25239    18256    14976    21132    23040    19735 
   24163    28579    20305    13617    22115    27291    18195    15396 
   24684    28498    20818    13020    18181    27915    23314    15665 
   23595    30092    19714    12842    21574    26823    19584    15126 
   21910    28001    22983    18017    22756    22920    15129    18841 
   29965    26708    15662    16013    25012    26927    18419    14489 
   21091    24525    22921    24358    22626    16783    18766    26635 
   27926    20073    11827    14963    27170    30416    20800    14300 
   17963    24250    25683    20889    15799    17027    23812    28661 
   24355    16599    18836    27317    25802    16929    16879    21976 
   20494    20332    25461    24379    19070    19707    22840    22725 
   21313    19830    17786    18438    23009    24322    19363    18611 
   25726    26198    16908    16294    25957    26973    20264    19529 
   21563    20850    20150    19510    19012    20202    22874    24225 
   20328    17828    23693    27248    23695    22099    20314    15126 
   15622    24106    31387    28377    17671    14075    19924    24229 
   25747    24985    19674    15182    15849    20715    25176    22185 
   16926    19886    23994    22100    24314    30465    28055    22378 
   20972    16580    11942    11032     5088     3283    17946    31429 
   34932    41310    44324    33311    20275    17049    21065    21236 
   12109     7730    13895    12484     5359    13998    28281    27679 
   27481    42168    47349    24930     3433    10542    25186    24729 
   24457    24981     7628    -3831    15446    36163    39124    34294 
   16271    -4183     3134    25787    32807    29592    30196    29678 
   23669    19587    23086    22026     7338     2037    19615    32071 
   24902    16486    17217    23511    27014    23680    25239    34686 
   34040    17957     5236    10277    20969    20594    19394    26546 
   25710    14616    13467    27322    38545    28566     9216    11071 
   25274    24937    22555    25984    16876     9126    21932    30970 
   24582    24146    29943    25519    15026    14150    22396    23749 
   17159    18411    24638    21670    13404     8792    12576    25779 
   33775    27818    22106    22168    19693    17203    21406    28814 
   30285    22157    12584    10308    13949    20036    25262    24775 
   21612    21496    20729    18198    19827    22300    18553    14735 
   19333    24640    21644    21730    29481    26273    16453    22323 
   31560    28912    29818    37458    37350    29639    23313    21789 
   22441    22157    20599    16524    13768    18009    22875    22241 
   17686     9717     4981    10620    18553    18026    10008     4388 
    9985    20339    22061    18767    21064    26335    29216    29035 
   24440    19808    21757    25424    25413    25722    25983    22967 
   22798    29536    34072    28829    21162    19089    18068    14605 
   13305    16221    21045    23523    20032    16276    20436    26279 
   24478    19997    19091    20349    23807    27969    28111    25585 
   24471    24825    26555    28885    27125    19772    12541     9447 
    9424    11510    14268    16237    19009    22442    23067    21416 
   22393    26689    27519    21709    18651    23959    27602    24556 
   22634    24154    24120    19745    14358    16513    25014    26898 
   21342    19099    19924    17501    15051    18497    24915    26258 
   22354    22222    26769    26994    23048    21116    20004    18304 
   18233    19224    20443    23699    27342    26265    22480    22648 
   24360    21640    16895    14165    14015    17254    22032    24965 
   26739    27425    24374    18962    15661    15298    15522    15371 
   15558    15365    12962     9402     8888    14007    21454    25195 
   24661    23691    23769    25756    30017    32032    29515    27584 
   28383    28863    29201    30834    30851    26446    21830    22532 
   25161    24609    23175    22198    18796    14239    13405    17367 
   20915    18426    13803    15579    21154    22623    22018    23373 
   24449    24989    25655    23449    19229    16837    15595    14559 
   14912    15815    16363    17189    18037    18523    19751    22893 
   26175    26163    23553    21643    20422    19619    21116    23847 
   25353    25748    24300    21826    22708    24810    23171    22380 
   24534    22331    16804    16060    19352    21567    21629    21604 
   23612    25145    22600    19246    20065    22777    21899    18211 
   16461    16652    16679    17219    18218    19141    20970    22993 
   23542    23257    23743    24790    24873    24725    26040    27318 
   27207    26832    25365    21361    17714    17722    19408    20252 
   21682    23392    22925    21651    21076    20096    19076    17892 
   16248    16777    18573    17810    17304    19666    19548    15712 
   14466    16162    16459    17599    22970    28132    28026    25396 
   25033    26266    26698    26993    28057    28649    27322    25120 
   25346    27629    26906    23218    22447    24451    23275    18792 
   16471    17454    18416    18752    19334    18986    17610    16301 
   15815    17382    18786    16618    14457    15739    17196    17668 
   18982    19963    19611    19727    21286    22864    23679    24386 
   24525    23931    23637    23386    23202    23688    24463    25822 
   26940    26304    25232    23909    21722    21249    23217    25527 
   26762    25941    25224    27221    28588    26477    23418    20871 
   18292    16455    15576    14189    11560     9324     9801    12703 
   15427    16586    16873    17361    18339    19149    19704    20823 
   21826    21789    22037    23167    23818    23770    23912    24081 
   23105    21335    21342    23290    24358    24341    24794    25375 
   25544    24873    23360    23176    24518    24129    21971    21195 
   21810    22102    22545    23396    23765    24038    24214    23035 
   21581    21562    21350    20560    22050    24533    23589    20621 
   20177    21354    20016    16756    15994    17675    17685    16139 
   15781    15712    14949    15113    16366    17876    19584    20903 
   21957    23203    23862    23936    23876    23522    23453    23930 
   24514    24800    23861    22156    21227    20605    20070    21026 
   22646    22804    22666    23880    24285    22293    19886    18887 
   19487    21277    23267    24158    23656    22850    22287    22006 
   22948    24656    25035    24475    24462    23569    21124    19967 
   20831    20845    19437    19164    20389    20645    19566    18918 
   18457    17369    16610    16669    17331    18431    18997    18721 
   18765    19437    20062    21132    23067    23909    22944    22966 
   24464    24661    24102    25331    26514    25348    24185    24320 
   23745    22659    22554    22774    22518    21888    21078    20461 
   19996    19151    18392    18844    19624    19060    18376    18920 
   19484    19809    20544    21267    22036    22902    23518    24225 
   24594    23593    21946    21076    20826    19537    16772    15394 
   16788    17645    16933    17583    19403    20267    21035    22725 
   24071    24381    24834    26180    27356    27267    26696    26388 
   24957    22387    21514    22210    21189    19090    18991    19712 
