Origin Time       2021/08/14 22:38:00
Lat.              37.5
Long.             137.2
Depth. (km)       10
Mag.              4.1
Station Code      ISK015
Station Lat.      37.2265
Station Long.     136.9087
Station Height(m) 3
Record Time       2021/08/14 22:38:20
Sampling Freq(Hz) 100Hz
Duration Time(s)  60
Dir.              N-S
Scale Factor      7845(gal)/8223790
Max. Acc. (gal)   11.429
Last Correction   2021/08/14 22:38:20
Memo.             
[...]
    -664     -661     -660     -660     -662     -661     -658     -657 
    -658     -660     -660     -661     -661     -661     -661     -661 
    -661     -660     -658     -660     -662     -662     -662     -662 
    -662     -660     -660     -661     -662     -662     -661     -660 
    -661     -661     -658     -660     -660     -660     -660     -662 
    -664     -662     -661     -661     -662     -662     -660     -658 
    -660     -661     -664     -664     -661     -661     -662     -661 
    -661     -662     -662     -662     -662     -662     -661     -661 
    -661     -660     -660     -661     -661     -661     -662     -661 
    -661     -661     -662     -662     -661     -661     -662     -661 
    -662     -662     -658     -658     -661     -660     -658     -658 
    -658     -662     -665     -662     -658     -660     -661     -660 
    -661     -664     -662     -662     -664     -661     -661     -661 
    -660     -660     -661     -661     -662     -661     -662     -664 
    -661     -660     -661     -662     -661     -661     -661     -662 
    -664     -661     -660     -661     -660     -660     -662     -662 
    -658     -658     -662     -661     -660     -661     -661     -661 
    -661     -660     -660     -661     -660     -661     -661     -660 
    -658     -660     -662     -660     -658     -660     -661     -662 
    -664     -661     -660     -660     -660     -658     -661     -662 
    -664     -662     -661     -661     -660     -658     -660     -661 
    -661     -661     -664     -664     -660     -657     -660     -661 
    -661     -662     -664     -664     -661     -661     -661     -660 
    -658     -660     -662     -661     -658     -660     -660     -660 
    -662     -662     -661     -660     -660     -658     -658     -660 
    -658     -661     -665     -662     -657     -662     -662     -657 
    -661     -665     -662     -660     -661     -661     -662     -661 
    -660     -660     -662     -662     -661     -664     -662     -658 
    -660     -662     -660     -658     -661     -664     -664     -662 
    -661     -661     -661     -661     -662     -658     -658     -665 
    -664     -660     -661     -662     -660     -661     -662     -662 
    -661     -661     -664     -664     -660     -660     -661     -662 
    -661     -661     -661     -662     -662     -660     -660     -661 
    -661     -662     -661     -658     -661     -661     -661     -664 
    -664     -660     -658     -660     -660     -658     -660     -660 
    -660     -661     -662     -661     -660     -660     -661     -658 
    -660     -661     -662     -660     -660     -661     -660     -660 
    -661     -660     -660     -661     -661     -661     -661     -660 
    -658     -660     -660     -658     -661     -661     -661     -662 
    -660     -658     -661     -661     -658     -658     -661     -661 
    -661     -662     -662     -658     -656     -660     -661     -658 
    -661     -664     -661     -660     -662     -661     -657     -660 
    -661     -661     -662     -664     -664     -661     -661     -661 
    -660     -660     -660     -660     -661     -662     -662     -664 
    -662     -661     -660     -660     -658     -658     -660     -661 
    -662     -664     -661     -661     -661     -658     -661     -664 
    -662     -662     -662     -662     -662     -661     -661     -661 
    -660     -658     -661     -660     -660     -661     -661     -660 
    -660     -661     -661     -660     -660     -661     -662     -664 
    -662     -661     -660     -657     -658     -661     -661     -658 
    -660     -662     -662     -657     -657     -661     -661     -660 
    -661     -661     -661     -661     -661     -660     -661     -662 
    -658     -657     -661     -662     -661     -660     -660     -658 
    -658     -658     -658     -661     -662     -660     -662     -664 
    -660     -660     -662     -658     -658     -661     -660     -661 
    -665     -661     -656     -657     -660     -660     -660     -662 
    -664     -661     -661     -662     -658     -656     -660     -661 
    -657     -657     -662     -662     -660     -660     -661     -661 
    -660     -658     -660     -662     -661     -662     -662     -660 
    -660     -660     -658     -660     -660     -658     -662     -664 
    -660     -661     -661     -658     -658     -658     -657     -658 
    -660     -662     -662     -661     -660     -661     -661     -658 
    -660     -662     -661     -658     -661     -662     -662     -660 
    -657     -658     -660     -660     -661     -660     -661     -661 
    -660     -658     -658     -662     -664     -658     -658     -664 
    -661     -658     -658     -660     -660     -661     -658     -657 
    -660     -662     -664     -661     -660     -661     -660     -658 
    -658     -657     -658     -665     -664     -658     -658     -660 
    -657     -657     -660     -662     -662     -662     -660     -660 
    -658     -657     -660     -660     -656     -656     -661     -661 
    -658     -660     -662     -660     -658     -658     -660     -660 
    -660     -661     -660     -660     -661     -661     -658     -660 
    -660     -660     -662     -661     -658     -662     -664     -660 
    -660     -662     -661     -658     -660     -661     -662     -661 
    -658     -658     -658     -657     -657     -660     -660     -661 
    -662     -658     -658     -662     -661     -660     -660     -661 
    -660     -660     -661     -661     -657     -658     -661     -660 
    -658     -658     -660     -661     -661     -662     -664     -661 
    -660     -662     -661     -657     -657     -660     -661     -658 
    -657     -658     -660     -661     -661     -660     -662     -664 
    -662     -661     -660     -660     -658     -658     -658     -661 
    -662     -661     -658     -661     -661     -658     -658     -660 
    -660     -658     -660     -662     -662     -660     -658     -660 
    -658     -658     -658     -660     -661     -662     -662     -662 
    -662     -661     -657     -656     -660     -661     -660     -661 
    -661     -656     -657     -664     -661     -660     -661     -661 
    -660     -660     -664     -665     -661     -658     -658     -660 
    -660     -661     -661     -660     -661     -664     -661     -658 
    -661     -661     -658     -657     -660     -661     -661     -661 
    -662     -661     -661     -660     -660     -660     -661     -662 
    -661     -660     -661     -662     -658     -657     -658     -660 
    -661     -664     -661     -660     -660     -657     -660     -662 
    -660     -662     -665     -661     -658     -660     -660     -658 
    -658     -661     -662     -660     -658     -660     -661     -661 
    -660     -661     -662     -661     -658     -658     -658     -660 
    -660     -660     -658     -657     -657     -661     -661     -658 
    -660     -662     -660     -660     -661     -661     -660     -658 
    -661     -664     -661     -661     -661     -658     -658     -657 
    -657     -661     -660     -660     -664     -662     -657     -660 
    -662     -660     -658     -662     -661     -656     -658     -662 
    -660     -662     -664     -660     -658     -658     -656     -660 
    -662     -661     -661     -661     -660     -656     -656     -658 
    -660     -661     -661     -660     -662     -661     -658     -661 
    -664     -660     -657     -658     -660     -658     -658     -658 
    -658     -660     -661     -660     -657     -658     -661     -661 
    -661     -662     -664     -660     -657     -660     -661     -660 
    -661     -661     -661     -662     -662     -660     -657     -658 
    -661     -661     -662     -664     -664     -664     -661     -658 
    -658     -660     -661     -658     -660     -664     -665     -662 
    -658     -657     -658     -660     -660     -658     -657     -660 
    -660     -661     -662     -660     -658     -660     -658     -657 
    -660     -661     -661     -661     -658     -656     -660     -662 
    -656     -657     -664     -661     -657     -660     -661     -658 
    -658     -658     -657     -656     -649     -638     -622     -591 
    -549     -538     -623     -796     -949     -976     -831     -568 
    -402     -498     -621     -502     -383     -607    -1020    -1254 
   -1065     -575     -321     -500     -614     -365     -152     -421 
    -926     -989     -633     -599     -986    -1055     -641     -419 
    -672     -884     -606     -271     -546    -1001     -783     -176 
    -121     -847    -1583    -1383     -445       37     -325     -670 
    -499     -376     -756    -1250    -1248     -710     -234     -252 
    -434     -417     -430     -660     -895    -1027    -1104    -1057 
    -792     -338      -52     -330     -837    -1026     -978     -923 
    -907     -893     -591      -22      143     -291     -729     -832 
    -831     -950    -1094     -942     -518     -234     -214     -399 
    -735     -869     -788     -839     -861     -715     -653     -619 
    -498     -472     -608     -768     -819     -718     -584     -568 
    -615     -691     -893    -1027     -849     -477     -217     -351 
    -737     -828     -549     -398     -668    -1039     -953     -465 
    -247     -503     -804     -878     -814     -803     -868     -823 
    -604     -427     -484     -587     -487     -383     -498     -726 
   -1065    -1374    -1193     -577      -79       71     -101     -471 
    -738     -843     -958    -1044     -957     -669     -378     -446 
    -839    -1017     -814     -621     -580     -522     -513     -603 
    -589     -562     -696     -808     -793     -727     -657     -724 
    -884     -761     -402     -276     -461     -722     -881     -793 
    -557     -396     -379     -560     -851     -996     -924     -723 
    -469     -321     -373     -575     -858    -1048    -1005     -918 
    -866     -642     -371     -341     -463     -549     -589     -700 
    -907     -961     -789     -652     -599     -542     -492     -417 
    -383     -513     -765    -1020    -1132    -1005     -687     -319 
     -85     -145     -511     -962    -1186    -1061     -765     -575 
    -492     -390     -448     -742     -892     -774     -622     -548 
    -541     -529     -585     -839     -982     -766     -500     -414 
    -454     -631     -846     -839     -575     -430     -673     -977 
    -943     -666     -492     -600     -719     -515     -303     -507 
    -939    -1148     -905     -514     -429     -508     -546     -685 
    -855     -923     -950     -823     -415      -43     -191     -683 
    -812     -561     -522     -714     -803     -834     -851     -746 
    -529     -403     -643    -1042    -1032     -577     -253     -436 
    -830     -961     -751     -476     -517     -889    -1090     -839 
    -433     -209     -229     -409     -662     -912    -1034     -970 
    -729     -379     -259     -540     -780     -734     -754     -913 
    -842     -529     -348     -481     -812    -1020     -928     -758 
    -581     -352     -351     -530     -572     -649     -893     -986 
    -788     -450     -180     -232     -545     -807    -1004    -1140 
   -1017     -724     -529     -452     -419     -445     -571     -770 
    -924     -970     -923     -720     -415     -299     -427     -611 
    -765     -822     -751     -658     -577     -488     -446     -514 
    -697     -932    -1007     -819     -612     -545     -500     -495 
    -526     -495     -629     -988    -1074     -762     -540     -519 
    -503     -618     -787     -669     -486     -637     -958    -1063 
    -868     -581     -356     -222     -314     -638     -843     -745 
    -646     -768     -800     -553     -483     -812    -1030     -822 
    -498     -405     -473     -402     -332     -661    -1154    -1273 
    -974     -556     -305     -315     -499     -754     -899     -772 
    -564     -487     -523     -681     -880     -934     -792     -529 
    -392     -560     -724     -653     -599     -607     -534     -618 
    -892     -984     -864     -699     -491     -403     -517     -615 
    -637     -625     -561     -623     -804     -722     -480     -595 
    -967    -1094     -858     -561     -486     -514     -484     -523 
    -583     -611     -819    -1027     -835     -403     -168     -309 
    -714    -1097    -1169     -957     -719     -513     -283     -260 
    -650    -1043     -928     -561     -456     -517     -457     -437 
    -699    -1074    -1100     -680     -303     -291     -494     -710 
    -888     -939     -697     -382     -398     -612     -824    -1085 
   -1146     -858     -530     -325     -202     -193     -336     -633 
    -897    -1128    -1539    -1633     -831      168      406       48 
    -315     -548     -803    -1223    -1613    -1489     -733       66 
     228     -234     -805    -1104    -1096     -932     -646     -180 
     153     -110     -820    -1416    -1741    -1756    -1111       48 
     803      658      -16     -808    -1541    -2015    -1961    -1393 
    -756     -302       -4     -179    -1116    -2313    -2820    -1975 
      74     2047     2394      955     -954    -1950    -1337      607 
    2559     3134     1591    -1977    -5806    -7067    -4546      110 
    4050     5333     3705      244    -3541    -6319    -6983    -4710 
     361     6033     8650     5871    -1363    -9116   -12641    -9510 
   -1564     6230     9532     7580     2482    -2929    -6212    -6285 
   -3977    -1012     1154     1756      896     -587    -1810    -2212 
   -1556     -174     1165     1669      638    -1815    -4077    -4094 
   -1663     1269     3019     3106     1333    -1445    -3210    -2980 
   -1586     -330      238      473      530       56     -692     -992 
    -947    -1148    -1588    -2066    -2601    -2822    -1885      264 
    2250     2903     2284      641    -1736    -4112    -5522    -4783 
   -1564     2396     4563     3581      198    -3171    -4384    -3321 
   -1356      395     1545     1917     1367      -55    -1813    -2872 
   -2419     -880      426      727       87     -824    -1201     -970 
    -621     -554     -816     -868     -562     -901    -2007    -2278 
   -1044      449     1082      888      256     -818    -2066    -2413 
   -1355      160      915      571     -471    -1695    -2486    -2273 
   -1459     -846     -364      110      190     -249    -1057    -1651 
   -1128      166      899      847      426     -368    -1075    -1115 
    -654      -52      299      130     -261     -696    -1466    -2424 
   -2737    -1948     -622      403      764      588      205     -345 
   -1107    -1864    -2500    -2820    -2358    -1059      423     1229 
    1040      360     -290     -845    -1233    -1463    -1691    -1688 
   -1236     -730     -330      276      761      527     -315    -1329 
   -1888    -1570     -810     -144      256      124     -669    -1560 
   -1580     -514      550      459     -619    -1501    -1424     -859 
    -486     -202       37     -217    -1019    -1845    -2180    -1807 
    -874       98      467       83     -545     -891     -866     -670 
    -411     -144     -126     -479     -845     -869     -661     -561 
    -665     -739     -635     -499     -584     -951    -1251    -1108 
    -631     -263     -342     -642     -604     -271     -189     -768 
   -1782    -2130    -1058      591     1335      638     -745    -1629 
   -1547     -907     -338     -267     -684    -1270    -1773    -2007 
   -1699     -822      151      684      589     -139    -1115    -1628 
   -1674    -1771    -1773    -1201       98     1748     2459     1279 
    -807    -2134    -2189    -1420     -450      263      433       20 
    -521     -878    -1300    -1644    -1398     -738     -306     -391 
    -764     -966     -816     -500     -295     -522    -1159    -1509 
   -1084     -426     -251     -525     -769     -699     -560     -737 
   -1078    -1138     -795     -287      -54     -410    -1050    -1321 
   -1132     -954     -872     -631     -228      382      989      634 
    -893    -2398    -2963    -2481    -1283      -71      800     1209 
     804      -97     -699    -1028    -1397    -1513    -1216     -770 
    -411     -252     -116      282      712      558     -500    -2019 
   -3017    -2943    -2076    -1015      -99      656     1069      866 
     334     -201     -886    -1541    -1687    -1435    -1252    -1150 
    -594      379      615     -418    -1544    -1540     -700     -202 
    -517     -985     -845     -206      113     -430    -1347    -1397 
    -276      511     -189    -1502    -2122    -1822    -1082     -453 
     -89      120      135      180      334     -209    -1590    -2454 
   -1979     -907     -164      241      515      275     -641    -1474 
   -1479     -984     -746     -715     -476     -299     -522     -881 
   -1086    -1077     -769     -260      -29     -384     -907    -1140 
   -1255    -1375    -1182     -719     -464     -415     -309     -216 
    -152      -64     -143     -427     -660     -600     -333     -368 
    -976    -1634    -1760    -1267     -376      415      669      341 
    -351    -1115    -1895    -2671    -2909    -2002     -149     1601 
    2081     1115     -340    -1391    -1931    -2254    -2262    -1406 
     114     1247     1417      689     -664    -2077    -2868    -2566 
   -1293       71      616      324      -18      -75     -407    -1216 
   -1860    -1741     -888       72      376     -178     -994    -1289 
    -978     -502      -75      225      194     -259     -946    -1560 
   -1783    -1294     -287      137     -684    -1667    -1528     -642 
       2      137      -90     -337     -465     -926    -1799    -2344 
   -2025     -989      179      853      735       86     -500     -799 
    -999    -1101    -1012     -900     -884     -864     -712     -301 
     267      607      452     -241    -1267    -2037    -2131    -1659 
    -750      387     1062      619     -710    -1968    -2390    -1999 
   -1254     -427      244      405       66     -418     -864    -1318 
   -1719    -1860    -1695    -1166     -120     1136     1877     1560 
     265    -1189    -2014    -2262    -2272    -1908     -988      178 
     924      750     -164    -1123    -1497    -1097     -487     -538 
   -1040     -927     -229      -71     -600     -934     -947    -1282 
   -1899    -1925     -920      433     1127      803      -90     -777 
    -899     -895    -1274    -1721    -1557     -838     -337     -514 
    -949     -913     -178      712      878        0    -1314    -2127 
   -2124    -1642     -997     -315      278      591      487       32 
    -683    -1509    -1934    -1610    -1000     -804     -970     -641 
     459     1193      703     -318    -1040    -1471    -1645    -1509 
   -1358    -1237     -774      -32      322      -81     -753     -992 
    -719     -333     -202     -477    -1007    -1456    -1541    -1136 
    -449       58       83     -290     -804    -1270    -1478    -1244 
    -703     -141      302      450       78     -738    -1516    -1696 
   -1244     -600      -75       12     -635    -1517    -1726    -1228 
