Origin Time       2021/08/14 22:38:00
Lat.              37.5
Long.             137.2
Depth. (km)       10
Mag.              4.1
Station Code      ISK007
Station Lat.      37.0427
Station Long.     136.9681
Station Height(m) 3
Record Time       2021/08/14 22:38:27
Sampling Freq(Hz) 100Hz
Duration Time(s)  60
Dir.              N-S
Scale Factor      7845(gal)/8223790
Max. Acc. (gal)   2.585
Last Correction   2021/08/14 22:38:28
Memo.             
[...]
     742      739      739      747      750      741      737      746 
     757      756      741      727      733      746      750      743 
     738      741      742      735      733      734      739      751 
     750      735      724      729      743      750      741      733 
     733      735      742      746      738      731      735      743 
     747      742      735      738      750      750      737      730 
     739      749      747      739      733      735      742      738 
     730      733      742      751      751      735      723      730 
     743      750      745      735      734      735      739      745 
     743      737      738      745      746      739      735      742 
     750      750      743      738      742      751      753      741 
     733      742      751      747      735      727      734      751 
     751      733      722      731      747      750      739      734 
     734      734      737      739      738      739      745      747 
     741      737      738      745      749      746      738      735 
     742      745      745      742      734      734      745      747 
     738      733      739      749      750      735      720      730 
     750      753      743      731      729      735      739      742 
     739      741      749      754      747      738      735      742 
     747      746      743      741      743      749      745      737 
     731      735      742      743      741      737      742      751 
     749      733      722      734      753      751      741      733 
     731      741      745      738      729      729      737      745 
     743      738      741      749      749      746      741      739 
     745      749      743      733      731      739      743      741 
     735      734      739      747      745      734      724      726 
     739      749      746      734      731      739      743      741 
     733      734      745      751      745      735      739      750 
     747      739      734      737      749      757      746      735 
     738      742      743      742      741      742      746      746 
     739      727      727      741      750      749      737      730 
     738      746      745      739      734      735      750      753 
     737      733      743      751      753      743      730      730 
     747      753      739      730      734      742      743      735 
     729      738      750      746      735      729      729      741 
     750      745      730      727      739      747      739      730 
     735      742      743      745      743      743      747      746 
     742      739      737      739      749      753      743      731 
     735      747      747      735      733      743      750      743 
     733      727      739      756      751      737      730      737 
     749      747      734      730      734      741      747      746 
     741      742      743      742      741      735      737      746 
     749      738      730      730      738      742      742      738 
     742      750      745      730      724      733      745      753 
     745      727      718      724      738      749      753      756 
     774      799      788      726      657      637      664      712 
     777      847      876      838      761      672      608      627 
     710      761      764      789      820      805      766      723 
     692      689      695      711      735      710      634      635 
     791      950      949      842      743      661      588      546 
     600      745      841      868      903      886      797      711 
     631      589      653      739      785      842      846      757 
     693      643      588      691      857      850      773      723 
     660      702      849      881      793      661      522      548 
     730      787      715      729      819      876      918      923 
     781      587      541      635      720      666      569      679 
     870      915      926      876      673      600      649      565 
     564      739      837      891      970      963      885      727 
     508      446      552      612      720      988     1088      905 
     712      607      612      656      606      703      947      900 
     688      673      727      750      783      776      768      754 
     692      718      839      837      681      558      629      807 
     781      630      681      804      820      783      772      892 
     950      753      618      652      546      434      561      777 
     988     1043      826      707      768      641      432      449 
     669      957     1135     1024      746      571      535      600 
     743      805      745      747      823      819      789      791 
     687      556      599      715      789      861      900      850 
     738      720      789      703      533      607      891     1054 
     955      757      625      549      562      668      710      672 
     642      675      846     1008      946      716      530      538 
     648      708      724      689      727      961     1086      874 
     680      679      568      411      537      756      812      811 
     824      830      739      537      525      778      946      985 
     994      799      575      572      599      676      877      878 
     687      649      754      842      854      711      588      683 
     745      737      855      815      546      564      892     1040 
     858      634      615      720      772      734      661      604 
     708      973     1015      718      537      631      685      650 
     681      749      838      965      976      780      581      610 
     770      789      675      689      858      919      792      633 
     515      434      448      627      873      913      841      970 
    1093      889      581      427      468      676      807      797 
     878     1009      966      750      535      472      550      587 
     575      793     1061      958      816      932      919      684 
     456      301      357      598      822     1040     1175     1148 
    1036      826      641      542      415      410      557      646 
     777      943      864      703      719      708      681      769 
     723      561      627      905     1031      909      781      681 
     571      580      639      631      676      847     1058     1070 
     795      544      495      564      723      820      784      810 
     872      814      738      691      638      704      896     1026 
     957      710      542      588      616      549      585      770 
     928      935      835      758      676      560      565      657 
     692      808     1027     1004      680      473      577      700 
     657      646      766      784      664      670      803      847 
     816      812      858      874      661      364      391      679 
     927     1051     1050      959      824      739      691      540 
     486      641      668      693      976     1048      778      691 
     756      695      702      854      842      616      598      861 
     939      756      615      554      565      711      804      754 
     783      886      832      696      680      641      492      553 
     769      797      805      864      757      669      727      729 
     665      691      807      805      718      831      957      843 
     778      788      612      454      575      680      548      506 
     785     1089     1089      911      819      734      639      635 
     600      645      886      943      730      606      589      588 
     706      819      807      870     1015      981      743      515 
     488      621      753      808      774      729      805      932 
     877      641      519      639      815      865      839      872 
     877      758      641      526      375      332      396      545 
     830     1131     1293     1231      994      746      468      175 
     237      695     1004     1032      974      857      842      766 
     418      322      634      830      768      611      450      591 
    1089     1325     1100      804      488      351      546      681 
     787     1024     1117      994      743      481      367      426 
     643      841      866      837      862      896      831      703 
     648      673      685      664      746      834      742      699 
     830      893      827      816      828      677      500      518 
     703      919      994      934      830      630      452      383 
     369      557      904     1116     1189     1173      993      695 
     417      342      548      673      565      666     1008     1152 
    1031      745      454      376      452      581      785      954 
     951      851      804      776      621      376      311      641 
    1124     1251      939      610      540      587      656      805 
     851      704      604      587      621      683      665      743 
     931      935      847      859      835      662      502      602 
     820      857      864      970      984      913      803      604 
     469      506      648      789      845      904      942      720 
     441      479      623      603      679     1007     1189     1004 
     757      681      679      600      490      514      699      930 
    1093     1094      942      783      630      396      244      425 
     824     1046      984      893      787      534      328      287 
     364      606      882     1050     1098      931      673      463 
     240      237      515      708      838     1042     1151     1129 
     965      680      679      976     1081     1065     1128      996 
     770      750      642      375      390      554      499      453 
     573      739      954     1073      932      724      641      645 
     706      766      747      789     1011     1173     1107      943 
     766      657      621      413       21     -175      110      757 
    1217     1156      897      816      769      518      423      787 
    1140     1337     1582     1510     1055      584       62     -356 
    -236      249      687     1004     1097      904      677      598 
     630      623      542      596      689      699      931     1208 
    1093      888      864      835      756      652      596      743 
     819      750     1065     1451     1236      808      402      -64 
    -139      126      307      533      847     1150     1466     1599 
    1537     1433     1111      510      -83     -365      -72      741 
    1421     1530     1536     1385      518     -144       99      284 
     189      345      645      907     1038     1121     1210      958 
     513      345      367      475      714      957     1125     1054 
     681      529      699      633      456      483      580      837 
     999      718      452      454      737     1209     1124      687 
     908     1328     1181      797      481      332      417      607 
     874      978      754      745      919      668      469      706 
     739      766     1277     1355      564       72      257      247 
      81      441      984     1125     1132     1198     1182     1142 
     997      783      785      870      853      853      664      160 
     -29      341      600      688     1051     1143      527       36 
     306      897     1210     1188     1066     1027      997      746 
     542      730      882      761      845     1005      622      167 
     294      390      224      446      805      989     1393     1667 
    1324      650       74       32      369      464      607     1147 
    1509     1387     1012      634      545      564      515      831 
    1138      595     -110       74      630      758      828     1001 
     768      457      558      657      583      575      723     1229 
    1764     1711     1370      980      315     -174      -12      611 
    1138      978      446      257      136      -37      372     1152 
    1588     1629     1323      770      427      552      972     1291 
    1217     1032     1035      670     -116     -268      136      329 
     648     1077     1154     1051      753      483      724      934 
     814     1050     1458     1177      434     -152     -552     -329 
     766     1707     1996     2085     1729      657     -484     -909 
    -465      319      963     1410     1611     1460     1174     1044 
     919      571      178       71      232      283      334      780 
    1424     1890     1890     1331      708      287      -93     -183 
      62      309      742     1335     1456     1169     1063     1107 
     839      207     -278     -159      373      878     1320     1553 
    1215      850     1136     1278      611       28      114      291 
     314      542      943      989      664      706     1186     1183 
     610      410      607      615      745     1177     1206      506 
    -241     -175      534     1040     1242     1512     1767     1818 
    1705     1190      197     -554     -660     -468       25      793 
    1198     1170     1436     1927     1640      660      184      236 
       9     -306      -63      873     1907     2096     1560     1131 
     751      182     -333     -724     -720      -67      915     2054 
    3148     3450     2394      442    -1058    -1453    -1287     -750 
     542     2214     3114     2748     1638      325     -734    -1053 
    -757     -152      751     1382     1285     1179     1298      927 
     386      554     1011      924      715     1108     1587     1399 
     850      433      197      291      610      660      742     1260 
    1458      905      195     -202      -41      518      707      495 
     754     1401     1610     1386     1128     1020      935      442 
    -187     -329     -103      291      934     1618     1991     1699 
     877      398      353      -12     -506     -514       28     1026 
    1983     2207     1614      757      206      -43      -68      302 
     769     1146     1827     2370     1884      808       10     -603 
   -1063     -769      125      822     1439     2180     2266     1490 
     679      236      144      403      691      847     1047     1270 
    1364     1143      778      668      465        2       55      738 
    1286     1332     1094      839      518      202      132      152 
     255      622      969     1262     1667     1549      687      -35 
    -237      -62      373      660      850     1231     1439     1255 
     822      452      618      949      757      463      544      766 
     967      930      634      530      627      791     1031     1053 
    1003     1194     1178      784      469      328      241      298 
     523      803      939      869      866     1004      938      648 
     545      722      734      333       93      544     1063      935 
     691      880     1113     1053      797      643      753      872 
     963     1210     1297      934      425      128       25       -9 
     147      540      827      903      907      781      727      897 
     997     1151     1360     1123      810      857      576     -121 
    -291        6       89      417     1317     2012     2193     1988 
    1333      630      153     -317     -553     -348       16      483 
    1032     1490     1850     1979     1773     1275      465     -144 
     -18      495      940     1077      862      642      544      492 
     469      325      322      789     1306     1441     1185      724 
     411      342      380      529      622      445      317      550 
     873     1085     1239     1301     1201      756      224      445 
    1248     1539     1156      592      129       17       85       16 
     162      737     1351     1696     1590     1125      823      788 
     679      519      480      459      396      448      560      476 
     413      812     1410     1537     1139      757      607      442 
     257      172      184      648     1476     1595      984      908 
    1246      915      345      433      742      770      762      746 
     735      918      974      661      342      311      392      251 
     166      704     1394     1366      920      743      627      290 
     120      346      719      935      942     1080     1372     1254 
     676      145     -106      109      861     1528     1609     1390 
    1113      708      325      193      245      283      473      982 
    1485     1680     1559     1206      828      498       81     -318 
    -394     -116      405     1084     1680     2007     1937     1366 
     603      112       41      252      423      475      603      764 
     753      618      634      824      826      631      643      764 
     777      905     1124     1233     1206      912      427      114 
     184      567      884      876      718      697      882      949 
     788      812      873      558      294      463      710      858 
    1111     1309     1069      635      576      699      630      654 
     739      464      205      402      654      719      874     1131 
    1233     1165     1078      954      797      745      661      434 
     359      514      575      469      495      868     1313     1212 
     580      129      176      592     1055     1053      715      542 
     527      707      954      889      865     1119     1117      846 
     634      373      209      494     1004     1246     1102      820 
     648      580      614      903     1225     1159      835      525 
     319      450      719      642      456      567      711      618 
     471      468      729     1262     1547     1169      577      311 
     307      357      533      946     1254     1044      726      831 
     918      567      333      550      783      866     1015     1112 
     988      878      913      758      384      233      328      437 
     670      949      959      761      650      700      710      503 
     237      279      658      897      788      722      912     1063 
    1019      996     1063     1054      903      711      657      688 
     600      545      714      936      961      642      251      315 
     838     1351     1498     1273      913      535      247      237 
     386      583      862     1007      985      955      783      521 
     390      305      270      472      807     1036     1102      985 
     754      654      746      784      681      571      552      662 
     751      657      584      739     1034     1356     1524     1251 
     629      163      184      531      805      747      538      537 
     675      716      695      688      765      988     1156      984 
     583      318      214      171      421      973     1336     1252 
     994      851      805      785      805      774      629      454 
     392      557      761      797      919     1170     1163      880 
     643      554      572      733      967      992      719      552 
     675      656      405      441      745      838      799      865 
     870      822      953     1112      962      573      337      376 
