Origin Time       2021/08/14 22:38:00
Lat.              37.5
Long.             137.2
Depth. (km)       10
Mag.              4.1
Station Code      ISK003
Station Lat.      37.3919
Station Long.     136.9083
Station Height(m) 10
Record Time       2021/08/14 22:38:13
Sampling Freq(Hz) 100Hz
Duration Time(s)  60
Dir.              U-D
Scale Factor      7845(gal)/8223790
Max. Acc. (gal)   4.013
Last Correction   2021/08/14 22:38:12
Memo.             
[...]
   -2151    -2153    -2151    -2153    -2153    -2151    -2151    -2154 
   -2153    -2153    -2155    -2153    -2150    -2153    -2153    -2149 
   -2149    -2150    -2150    -2150    -2151    -2150    -2150    -2154 
   -2154    -2150    -2151    -2153    -2154    -2153    -2151    -2151 
   -2154    -2154    -2153    -2151    -2151    -2151    -2153    -2153 
   -2153    -2153    -2153    -2153    -2153    -2153    -2153    -2153 
   -2153    -2153    -2153    -2154    -2153    -2151    -2151    -2150 
   -2151    -2153    -2151    -2153    -2154    -2151    -2153    -2154 
   -2154    -2155    -2154    -2151    -2151    -2151    -2154    -2154 
   -2151    -2151    -2151    -2153    -2154    -2153    -2151    -2151 
   -2151    -2151    -2151    -2150    -2151    -2153    -2150    -2151 
   -2154    -2153    -2151    -2154    -2153    -2151    -2153    -2153 
   -2154    -2153    -2150    -2150    -2154    -2157    -2153    -2153 
   -2154    -2150    -2150    -2153    -2153    -2151    -2153    -2153 
   -2150    -2150    -2153    -2151    -2150    -2153    -2154    -2154 
   -2154    -2151    -2150    -2154    -2155    -2150    -2151    -2154 
   -2151    -2151    -2155    -2153    -2149    -2150    -2154    -2155 
   -2153    -2151    -2153    -2155    -2154    -2150    -2150    -2154 
   -2154    -2151    -2151    -2154    -2151    -2153    -2157    -2154 
   -2151    -2153    -2150    -2150    -2151    -2151    -2151    -2154 
   -2154    -2150    -2150    -2153    -2153    -2150    -2150    -2153 
   -2153    -2151    -2150    -2150    -2150    -2151    -2151    -2150 
   -2150    -2151    -2151    -2153    -2154    -2150    -2149    -2151 
   -2154    -2154    -2154    -2154    -2154    -2153    -2153    -2151 
   -2151    -2151    -2150    -2153    -2154    -2151    -2150    -2150 
   -2153    -2153    -2153    -2154    -2154    -2151    -2153    -2154 
   -2153    -2151    -2151    -2153    -2151    -2151    -2153    -2153 
   -2150    -2151    -2154    -2153    -2150    -2150    -2151    -2151 
   -2150    -2150    -2151    -2153    -2151    -2151    -2150    -2149 
   -2151    -2153    -2154    -2153    -2151    -2151    -2151    -2151 
   -2151    -2153    -2154    -2151    -2150    -2151    -2150    -2150 
   -2153    -2153    -2151    -2151    -2153    -2153    -2150    -2151 
   -2153    -2150    -2150    -2151    -2150    -2150    -2151    -2153 
   -2151    -2150    -2150    -2151    -2153    -2153    -2150    -2150 
   -2153    -2153    -2153    -2154    -2153    -2150    -2151    -2151 
   -2149    -2151    -2155    -2151    -2150    -2151    -2151    -2149 
   -2150    -2154    -2151    -2150    -2153    -2151    -2150    -2154 
   -2155    -2153    -2150    -2150    -2151    -2153    -2150    -2149 
   -2153    -2154    -2153    -2150    -2150    -2151    -2151    -2154 
   -2153    -2147    -2147    -2154    -2155    -2153    -2151    -2154 
   -2154    -2151    -2153    -2154    -2151    -2150    -2150    -2153 
   -2154    -2151    -2150    -2151    -2151    -2150    -2150    -2151 
   -2151    -2150    -2150    -2151    -2153    -2154    -2151    -2147 
   -2150    -2155    -2154    -2153    -2154    -2151    -2149    -2153 
   -2153    -2151    -2151    -2151    -2153    -2153    -2151    -2151 
   -2151    -2151    -2153    -2151    -2151    -2153    -2153    -2150 
   -2150    -2151    -2153    -2154    -2153    -2149    -2151    -2154 
   -2151    -2150    -2151    -2150    -2150    -2151    -2151    -2150 
   -2149    -2150    -2151    -2150    -2150    -2151    -2153    -2151 
   -2147    -2150    -2153    -2151    -2151    -2153    -2153    -2154 
   -2154    -2151    -2151    -2153    -2151    -2150    -2151    -2157 
   -2155    -2151    -2151    -2154    -2153    -2150    -2151    -2153 
   -2151    -2154    -2154    -2151    -2153    -2154    -2153    -2151 
   -2151    -2151    -2153    -2153    -2151    -2153    -2153    -2150 
   -2151    -2154    -2153    -2150    -2151    -2154    -2153    -2151 
   -2153    -2151    -2151    -2150    -2150    -2153    -2154    -2151 
   -2151    -2153    -2150    -2149    -2153    -2155    -2153    -2150 
   -2151    -2153    -2153    -2153    -2154    -2153    -2151    -2153 
   -2155    -2154    -2151    -2151    -2153    -2151    -2150    -2153 
   -2153    -2150    -2150    -2153    -2153    -2153    -2155    -2153 
   -2153    -2154    -2151    -2150    -2153    -2150    -2151    -2154 
   -2150    -2150    -2155    -2153    -2150    -2154    -2153    -2151 
   -2154    -2153    -2149    -2150    -2153    -2154    -2153    -2150 
   -2151    -2153    -2154    -2153    -2154    -2153    -2151    -2153 
   -2151    -2150    -2153    -2153    -2151    -2151    -2153    -2150 
   -2153    -2155    -2151    -2149    -2151    -2149    -2147    -2151 
   -2155    -2151    -2151    -2153    -2150    -2150    -2151    -2151 
   -2153    -2154    -2153    -2153    -2153    -2154    -2153    -2151 
   -2151    -2151    -2150    -2149    -2150    -2154    -2154    -2151 
   -2154    -2151    -2147    -2150    -2153    -2151    -2151    -2151 
   -2151    -2151    -2151    -2151    -2153    -2154    -2154    -2153 
   -2151    -2150    -2150    -2151    -2153    -2151    -2151    -2151 
   -2151    -2151    -2154    -2154    -2150    -2150    -2154    -2154 
   -2150    -2150    -2151    -2151    -2153    -2153    -2149    -2147 
   -2151    -2151    -2151    -2154    -2153    -2150    -2153    -2154 
   -2150    -2149    -2150    -2150    -2149    -2151    -2151    -2150 
   -2151    -2151    -2150    -2151    -2155    -2153    -2149    -2151 
   -2150    -2149    -2149    -2149    -2151    -2153    -2150    -2150 
   -2153    -2151    -2151    -2151    -2150    -2150    -2150    -2150 
   -2150    -2151    -2153    -2153    -2150    -2153    -2153    -2150 
   -2149    -2150    -2153    -2153    -2150    -2150    -2153    -2151 
   -2151    -2151    -2151    -2153    -2151    -2151    -2154    -2153 
   -2149    -2150    -2151    -2149    -2150    -2151    -2151    -2150 
   -2150    -2149    -2150    -2150    -2150    -2151    -2151    -2151 
   -2151    -2150    -2150    -2151    -2150    -2151    -2154    -2153 
   -2153    -2151    -2149    -2149    -2151    -2154    -2153    -2150 
   -2150    -2151    -2150    -2149    -2150    -2153    -2153    -2154 
   -2154    -2151    -2149    -2150    -2151    -2153    -2151    -2150 
   -2151    -2153    -2153    -2153    -2150    -2150    -2151    -2151 
   -2151    -2151    -2151    -2150    -2151    -2154    -2153    -2151 
   -2151    -2153    -2153    -2151    -2150    -2150    -2151    -2150 
   -2149    -2150    -2151    -2151    -2150    -2151    -2151    -2150 
   -2150    -2153    -2154    -2153    -2153    -2153    -2151    -2151 
   -2151    -2149    -2149    -2153    -2151    -2149    -2151    -2153 
   -2149    -2149    -2153    -2150    -2150    -2153    -2151    -2149 
   -2151    -2151    -2150    -2151    -2154    -2153    -2151    -2149 
   -2149    -2150    -2151    -2150    -2149    -2151    -2153    -2150 
   -2149    -2150    -2151    -2154    -2154    -2151    -2151    -2151 
   -2151    -2151    -2150    -2150    -2150    -2149    -2149    -2150 
   -2151    -2153    -2151    -2151    -2151    -2151    -2150    -2150 
   -2151    -2153    -2151    -2151    -2151    -2150    -2151    -2151 
   -2153    -2153    -2153    -2154    -2153    -2150    -2150    -2151 
   -2151    -2151    -2154    -2154    -2150    -2149    -2151    -2153 
   -2149    -2149    -2154    -2153    -2149    -2150    -2153    -2153 
   -2153    -2149    -2149    -2151    -2151    -2151    -2154    -2153 
   -2151    -2153    -2151    -2151    -2153    -2153    -2150    -2151 
   -2153    -2154    -2153    -2149    -2150    -2151    -2153    -2153 
   -2153    -2151    -2153    -2155    -2155    -2155    -2151    -2147 
   -2149    -2153    -2153    -2150    -2151    -2154    -2153    -2151 
   -2150    -2151    -2153    -2151    -2151    -2153    -2153    -2151 
   -2151    -2150    -2150    -2149    -2151    -2154    -2151    -2151 
   -2153    -2151    -2151    -2153    -2153    -2151    -2151    -2153 
   -2151    -2149    -2151    -2154    -2153    -2151    -2150    -2151 
   -2153    -2150    -2149    -2150    -2153    -2153    -2154    -2153 
   -2150    -2153    -2154    -2150    -2149    -2153    -2153    -2151 
   -2151    -2151    -2149    -2149    -2151    -2151    -2151    -2153 
   -2153    -2153    -2151    -2151    -2150    -2151    -2151    -2151 
   -2153    -2153    -2151    -2150    -2150    -2153    -2153    -2150 
   -2153    -2154    -2153    -2153    -2151    -2150    -2151    -2153 
   -2153    -2154    -2154    -2153    -2153    -2153    -2154    -2153 
   -2151    -2151    -2150    -2153    -2153    -2150    -2150    -2151 
   -2151    -2153    -2154    -2151    -2149    -2153    -2153    -2149 
   -2149    -2154    -2151    -2147    -2151    -2153    -2151    -2153 
   -2153    -2151    -2150    -2153    -2154    -2151    -2153    -2154 
   -2153    -2153    -2153    -2150    -2151    -2154    -2153    -2149 
   -2147    -2151    -2153    -2153    -2153    -2151    -2151    -2154 
   -2155    -2153    -2151    -2151    -2153    -2151    -2150    -2150 
   -2150    -2150    -2153    -2154    -2151    -2150    -2153    -2154 
   -2151    -2151    -2153    -2151    -2151    -2151    -2150    -2150 
   -2153    -2151    -2151    -2150    -2149    -2151    -2150    -2149 
   -2154    -2154    -2151    -2153    -2153    -2150    -2151    -2153 
   -2153    -2153    -2154    -2153    -2150    -2153    -2154    -2150 
   -2153    -2155    -2151    -2151    -2154    -2153    -2151    -2154 
   -2155    -2154    -2151    -2150    -2151    -2153    -2153    -2153 
   -2150    -2150    -2153    -2153    -2153    -2150    -2149    -2151 
   -2150    -2149    -2153    -2151    -2149    -2150    -2151    -2150 
   -2153    -2154    -2151    -2150    -2150    -2151    -2151    -2151 
   -2153    -2153    -2153    -2154    -2153    -2151    -2154    -2154 
   -2150    -2150    -2154    -2151    -2149    -2150    -2154    -2151 
   -2149    -2151    -2153    -2150    -2150    -2153    -2153    -2150 
   -2150    -2151    -2151    -2150    -2149    -2149    -2151    -2150 
   -2151    -2153    -2150    -2150    -2154    -2154    -2151    -2153 
   -2154    -2153    -2153    -2154    -2154    -2151    -2150    -2151 
   -2151    -2153    -2153    -2150    -2153    -2151    -2149    -2151 
   -2155    -2151    -2149    -2150    -2153    -2153    -2153    -2151 
   -2151    -2150    -2149    -2151    -2154    -2153    -2153    -2153 
   -2153    -2153    -2150    -2150    -2153    -2151    -2149    -2150 
   -2151    -2153    -2153    -2153    -2150    -2149    -2151    -2154 
   -2154    -2151    -2150    -2151    -2154    -2153    -2154    -2154 
   -2150    -2149    -2153    -2154    -2151    -2153    -2154    -2151 
   -2153    -2155    -2154    -2150    -2150    -2153    -2155    -2151 
   -2150    -2150    -2150    -2153    -2153    -2153    -2153    -2150 
   -2149    -2153    -2154    -2153    -2153    -2154    -2150    -2147 
   -2151    -2155    -2154    -2151    -2149    -2149    -2150    -2151 
   -2154    -2153    -2151    -2153    -2153    -2151    -2151    -2153 
   -2151    -2150    -2154    -2155    -2154    -2154    -2151    -2149 
   -2151    -2154    -2150    -2150    -2154    -2153    -2149    -2149 
   -2153    -2155    -2150    -2147    -2151    -2153    -2150    -2150 
   -2153    -2154    -2153    -2150    -2153    -2154    -2151    -2154 
   -2154    -2150    -2151    -2153    -2153    -2154    -2151    -2153 
   -2154    -2151    -2151    -2154    -2150    -2147    -2153    -2153 
   -2151    -2153    -2153    -2150    -2151    -2157    -2155    -2151 
   -2153    -2153    -2150    -2151    -2153    -2154    -2153    -2151 
   -2151    -2151    -2151    -2153    -2154    -2153    -2150    -2151 
   -2154    -2155    -2154    -2151    -2151    -2154    -2155    -2153 
   -2151    -2153    -2153    -2151    -2153    -2151    -2151    -2150 
   -2150    -2151    -2151    -2151    -2151    -2153    -2151    -2151 
   -2151    -2151    -2150    -2153    -2155    -2153    -2153    -2153 
   -2150    -2150    -2153    -2151    -2153    -2155    -2153    -2151 
   -2151    -2150    -2153    -2155    -2151    -2151    -2153    -2151 
   -2153    -2153    -2153    -2153    -2153    -2151    -2153    -2154 
   -2155    -2155    -2153    -2153    -2154    -2153    -2151    -2151 
   -2153    -2151    -2151    -2151    -2151    -2154    -2153    -2151 
   -2153    -2153    -2153    -2154    -2153    -2151    -2153    -2155 
   -2153    -2150    -2151    -2150    -2149    -2151    -2155    -2153 
   -2150    -2153    -2154    -2151    -2150    -2153    -2153    -2150 
   -2150    -2150    -2153    -2154    -2151    -2150    -2151    -2151 
   -2151    -2153    -2153    -2151    -2151    -2153    -2151    -2150 
   -2151    -2151    -2153    -2154    -2154    -2151    -2151    -2154 
   -2151    -2151    -2154    -2153    -2151    -2151    -2154    -2154 
   -2150    -2150    -2151    -2149    -2151    -2155    -2154    -2150 
   -2150    -2153    -2154    -2153    -2153    -2153    -2151    -2150 
   -2153    -2153    -2151    -2153    -2151    -2150    -2151    -2151 
   -2150    -2151    -2151    -2153    -2153    -2155    -2160    -2170 
   -2215    -2358    -2701    -3242    -3680    -3493    -2467    -1070 
    -241     -729    -2056    -2350     -743     1178     1155    -2141 
   -6359    -6232    -2045      712     -669    -4353    -5130    -1972 
     -98     -611    -2030    -4081    -3983    -1674     -792    -1715 
   -2787    -2933    -1849    -1188    -1907    -2589    -2493    -2191 
   -2080    -2133    -2054    -1930    -2220    -3022    -3373    -2168 
    -805    -1252    -2444    -2716    -2022    -1088    -1077    -2115 
   -2937    -2771    -2123    -2197    -2855    -2749    -2231    -2103 
   -1823    -1621    -2020    -2331    -2317    -2284    -2116    -2083 
   -2359    -2344    -1814    -1572    -2064    -2428    -2380    -2582 
   -2439    -1687    -1699    -2204    -1992    -1759    -2027    -2093 
   -2002    -2299    -2598    -2293    -1848    -1962    -2330    -2447 
   -2544    -2727    -2698    -2593    -2377    -1960    -1937    -2104 
   -1732    -1399    -1694    -1961    -1719    -1557    -1863    -2204 
   -2492    -2775    -2655    -2324    -2300    -2454    -2592    -2494 
   -1949    -1701    -2064    -2056    -1795    -2084    -2342    -1979 
   -1525    -1688    -2222    -2133    -1730    -2003    -2397    -2438 
   -2677    -2965    -2826    -2216    -1632    -1830    -2234    -1948 
   -1707    -1896    -1950    -2145    -2527    -2374    -1995    -2076 
   -2340    -2493    -2439    -2172    -2181    -2289    -2138    -2258 
   -2350    -1966    -1746    -1753    -1865    -2254    -2440    -2323 
   -2288    -2204    -2061    -2201    -2380    -1993    -1421    -1564 
   -2168    -2505    -2594    -2330    -1788    -1929    -2529    -2475 
   -2228    -2238    -2022    -1898    -2106    -2207    -2192    -2230 
   -2258    -2172    -1965    -1960    -2297    -2538    -2601    -2721 
   -2583    -2081    -1669    -1536    -1609    -1912    -2226    -2135 
   -1894    -2101    -2558    -2632    -2343    -2145    -2087    -2003 
   -2033    -2164    -2070    -1902    -2157    -2587    -2431    -1736 
   -1367    -1669    -2193    -2636    -2679    -2150    -1834    -1998 
   -2111    -2373    -2408    -1790    -1773    -2381    -2228    -1972 
   -2299    -2211    -1922    -2220    -2527    -2562    -2609    -2492 
   -2196    -2023    -2054    -2231    -2272    -1938    -1629    -1659 
   -1846    -2172    -2490    -2432    -2185    -2222    -2386    -2254 
   -1946    -1833    -1925    -1929    -1853    -2050    -2401    -2505 
   -2440    -2350    -2181    -2050    -2061    -2111    -2154    -2195 
   -2176    -2215    -2281    -2187    -2080    -2000    -1945    -2088 
   -2061    -1857    -2116    -2524    -2528    -2411    -2246    -1891 
   -1907    -2458    -2479    -1800    -1680    -2332    -2710    -2407 
   -1976    -1764    -1738    -2155    -2604    -2215    -1842    -2208 
   -2212    -1918    -2115    -2177    -2068    -2258    -2258    -2099 
   -2104    -1972    -1922    -2110    -2149    -2212    -2303    -2127 
   -2084    -2243    -2257    -2435    -2582    -2062    -1771    -2278 
   -2396    -2061    -2108    -2218    -2133    -2088    -2085    -2172 
   -2353    -2343    -2079    -1948    -2034    -2091    -2196    -2223 
   -1988    -2019    -2326    -2289    -2123    -1957    -1757    -2104 
   -2450    -2068    -1923    -2327    -2552    -2585    -2457    -2154 
   -1992    -2019    -2145    -2290    -2241    -1996    -1815    -1792 
   -1844    -1949    -2018    -1884    -1729    -1904    -2263    -2582 
   -2695    -2193    -1761    -2173    -2492    -2652    -3037    -2435 
   -1466    -1723    -2224    -2485    -2899    -2448    -1279     -926 
   -1609    -2390    -2664    -2702    -2473    -1873    -1827    -2235 
   -2274    -2258    -2243    -2128    -2046    -1961    -2239    -2517 
   -2419    -2474    -2038    -1317    -1989    -2794    -2344    -2131 
   -2033    -1480    -1761    -2290    -1971    -1725    -2069    -2681 
   -2947    -2326    -1810    -2137    -2430    -2385    -2270    -2027 
   -1848    -1991    -2517    -2909    -2448    -1682    -1567    -2041 
   -2407    -2122    -1564    -1270    -1352    -2081    -2782    -2436 
   -1825    -2060    -2579    -2258    -1518    -1784    -2839    -3275 
   -2874    -2384    -2343    -2843    -3369    -3283    -2527    -1498 
   -1055    -1602    -1919    -1337     -953    -1139    -1399    -1584 
   -1521    -1424    -1819    -2257    -2160    -2232    -2943    -3349 
   -3061    -3014    -3280    -2899    -2080    -1965    -2558    -2659 
   -1876    -1219    -1312    -1817    -2330    -2563    -2251    -1358 
    -881    -1864    -2901    -2529    -1892    -1849    -2137    -2493 
   -2293    -2112    -2722    -2760    -1921    -1741    -2266    -2840 
   -3256    -2776    -1710    -1578    -2173    -2343    -2309    -2388 
   -2014    -1205     -837    -1127    -1694    -2521    -3203    -2992 
   -2138    -1534    -1714    -2582    -3284    -3111    -2563    -2107 
   -1483    -1053    -1250    -1614    -1865    -1961    -1710    -1429 
   -1528    -1971    -2814    -3601    -3337    -2407    -1964    -2061 
   -2326    -2397    -2081    -1829    -1780    -1767    -1857    -1730 
   -1607    -2110    -2509    -2397    -2409    -2439    -2502    -2751 
   -2818    -2978    -3132    -2902    -2760    -2550    -2165    -2026 
   -1741    -1497    -1525     -926     -480    -1513    -2424    -1939 
   -1630    -2277    -2673    -2477    -2376    -2216    -1929    -2197 
   -2803    -2847    -2459    -2424    -2535    -2211    -1786    -1463 
   -1260    -1448    -1719    -1915    -2216    -2342    -2363    -2667 
   -3052    -3083    -2529    -1688    -1328    -1597    -2003    -2249 
   -2056    -1555    -1518    -1996    -2373    -2559    -2593    -2447 
   -2465    -2619    -2558    -2451    -2227    -1620    -1294    -1679 
   -2065    -2079    -1957    -1659    -1571    -2249    -2922    -2938 
   -2878    -2737    -2308    -2205    -2465    -2502    -2220    -1918 
   -1826    -1807    -1757    -1838    -1912    -1784    -1726    -1850 
