Origin Time       2021/08/14 22:38:00
Lat.              37.5
Long.             137.2
Depth. (km)       10
Mag.              4.1
Station Code      ISK006
Station Lat.      37.1602
Station Long.     136.6897
Station Height(m) 80
Record Time       2021/08/14 22:38:30
Sampling Freq(Hz) 100Hz
Duration Time(s)  60
Dir.              N-S
Scale Factor      7845(gal)/8223790
Max. Acc. (gal)   1.311
Last Correction   2021/08/14 22:38:30
Memo.             
[...]
   11277    11276    11276    11277    11280    11276    11276    11284 
   11280    11277    11281    11276    11276    11281    11279    11279 
   11279    11279    11281    11276    11275    11283    11279    11276 
   11281    11279    11276    11283    11280    11275    11277    11279 
   11273    11277    11281    11277    11276    11281    11284    11276 
   11273    11280    11277    11275    11280    11281    11279    11279 
   11280    11281    11279    11280    11283    11277    11275    11284 
   11280    11273    11277    11279    11279    11277    11277    11281 
   11277    11275    11277    11276    11280    11283    11280    11279 
   11277    11275    11280    11281    11277    11277    11279    11276 
   11277    11281    11276    11271    11276    11280    11277    11279 
   11283    11277    11273    11280    11280    11276    11279    11284 
   11281    11277    11277    11281    11279    11272    11279    11281 
   11271    11275    11283    11277    11276    11279    11279    11280 
   11280    11280    11276    11272    11279    11283    11277    11277 
   11280    11279    11279    11279    11279    11280    11277    11277 
   11281    11281    11277    11277    11277    11277    11277    11279 
   11277    11276    11279    11279    11277    11277    11280    11279 
   11276    11280    11281    11280    11277    11276    11279    11280 
   11279    11280    11279    11276    11279    11280    11284    11292 
   11302    11313    11314    11300    11275    11246    11244    11273 
   11286    11272    11260    11236    11232    11276    11307    11284 
   11272    11273    11236    11223    11273    11287    11279    11298 
   11273    11240    11291    11349    11329    11326    11350    11308 
   11267    11260    11237    11249    11279    11291    11313    11299 
   11249    11221    11230    11271    11319    11350    11323    11245 
   11169    11161    11267    11375    11342    11240    11221    11317 
   11398    11379    11292    11227    11245    11265    11242    11236 
   11207    11167    11191    11233    11315    11446    11461    11400 
   11369    11298    11244    11256    11190    11101    11157    11250 
   11265    11292    11302    11245    11263    11392    11480    11429 
   11280    11179    11171    11159    11163    11253    11313    11287 
   11317    11357    11294    11264    11315    11329    11315    11277 
   11182    11152    11227    11269    11246    11253    11331    11399 
   11421    11469    11445    11281    11207    11245    11194    11149 
   11190    11187    11159    11194    11281    11364    11448    11499 
   11379    11183    11205    11350    11277    11134    11207    11271 
   11236    11313    11350    11232    11217    11300    11261    11241 
   11334    11307    11203    11217    11256    11331    11480    11476 
   11302    11188    11171    11236    11340    11303    11213    11232 
   11233    11207    11288    11342    11252    11192    11265    11385 
   11439    11344    11209    11190    11211    11196    11206    11211 
   11160    11191    11400    11539    11430    11295    11319    11395 
   11395    11311    11187    11119    11156    11156    11152    11276 
   11310    11205    11271    11427    11448    11483    11488    11310 
   11171    11115    11067    11179    11284    11238    11277    11319 
   11280    11350    11327    11187    11299    11400    11225    11207 
   11313    11198    11141    11219    11213    11311    11473    11412 
   11296    11295    11279    11290    11399    11419    11304    11200 
   11125    11146    11259    11253    11246    11368    11365    11240 
   11229    11264    11244    11260    11295    11322    11358    11298 
   11207    11175    11099    11118    11327    11466    11449    11387 
   11322    11327    11399    11344    11186    11187    11264    11157 
   11047    11202    11379    11322    11260    11269    11207    11256 
   11441    11442    11327    11295    11267    11272    11290    11217 
   11214    11326    11350    11310    11315    11302    11240    11244 
   11288    11205    11075    11109    11199    11223    11326    11425 
   11335    11317    11416    11344    11268    11321    11313    11294 
   11246    11080    11055    11257    11396    11434    11456    11360 
   11283    11346    11291    11105    11075    11142    11179    11319 
   11429    11372    11403    11407    11232    11222    11340    11323 
   11327    11338    11194    11070    11103    11144    11109    11148 
   11384    11637    11611    11362    11171    11129    11191    11302 
   11330    11245    11218    11287    11267    11183    11182    11221 
   11333    11495    11527    11535    11539    11304    10968    10822 
   10903    11136    11352    11403    11329    11321    11438    11452 
   11362    11404    11395    11250    11300    11365    11134    10963 
   11005    11068    11273    11551    11537    11337    11260    11242 
   11238    11311    11322    11259    11268    11277    11178    11084 
   11183    11376    11441    11475    11481    11313    11179    11152 
   11011    11003    11233    11287    11284    11450    11423    11280 
   11396    11503    11416    11354    11300    11233    11234    11215 
   11211    11209    11086    11063    11196    11232    11292    11395 
   11298    11245    11369    11335    11257    11399    11445    11273 
   11269    11376    11284    11188    11215    11172    11169    11325 
   11365    11269    11238    11159    11072    11221    11416    11460 
   11449    11394    11302    11248    11214    11227    11300    11303 
   11276    11299    11253    11215    11237    11183    11152    11223 
   11323    11416    11400    11333    11319    11269    11260    11367 
   11377    11248    11124    11078    11167    11276    11260    11252 
   11321    11321    11326    11421    11398    11292    11277    11237 
   11194    11261    11253    11182    11300    11437    11298    11110 
   11130    11230    11296    11353    11396    11396    11308    11237 
   11296    11296    11210    11214    11246    11271    11341    11402 
   11398    11288    11151    11199    11302    11205    11140    11198 
   11161    11217    11429    11516    11511    11450    11267    11192 
   11317    11331    11183    11130    11163    11132    11133    11223 
   11269    11303    11441    11477    11357    11371    11423    11296 
   11182    11114    11030    11106    11234    11265    11356    11327 
   11155    11284    11566    11607    11551    11411    11136    11032 
   11113    11098    11064    11132    11214    11367    11538    11497 
   11327    11241    11236    11272    11349    11470    11504    11245 
   10926    10936    11097    11183    11356    11495    11353    11203 
   11315    11419    11338    11319    11394    11367    11264    11200 
   11175    11206    11253    11179    11102    11232    11362    11360 
   11421    11434    11298    11292    11402    11349    11167    11047 
   11043    11118    11227    11313    11342    11345    11384    11445 
   11412    11327    11340    11365    11329    11335    11353    11198 
   10908    10840    11072    11261    11373    11488    11429    11313 
   11308    11271    11287    11426    11427    11329    11269    11156 
   11102    11163    11164    11160    11250    11321    11313    11337 
   11433    11472    11448    11439    11335    11136    11029    11048 
   11065    11030    11107    11411    11654    11676    11715    11681 
   11334    11002    10917    10849    10837    10972    11132    11376 
   11538    11403    11367    11615    11732    11574    11380    11207 
   10986    10887    11113    11348    11203    11020    11159    11303 
   11313    11376    11387    11344    11408    11460    11437    11387 
   11245    11087    11057    11137    11257    11294    11206    11205 
   11299    11267    11281    11449    11419    11291    11318    11261 
   11163    11226    11295    11325    11315    11176    11080    11148 
   11254    11384    11523    11549    11442    11315    11292    11342 
   11329    11295    11213    10971    10886    11106    11249    11369 
   11616    11574    11279    11173    11194    11209    11302    11352 
   11263    11190    11187    11213    11317    11373    11259    11190 
   11300    11421    11368    11129    10959    11044    11183    11237 
   11284    11303    11236    11191    11276    11367    11392    11454 
   11461    11373    11429    11535    11287    10903    10926    11045 
   10902    11044    11476    11550    11497    11570    11389    11263 
   11537    11597    11430    11568    11512    11055    10935    11098 
   11128    11250    11519    11632    11535    11392    11209    10997 
   11009    11155    11043    10878    10975    11129    11263    11416 
   11394    11256    11252    11376    11600    11808    11646    11153 
   10795    10789    11029    11350    11614    11651    11466    11335 
   11291    11198    11205    11319    11318    11190    11083    11051 
   11095    11284    11519    11568    11488    11434    11357    11267 
   11280    11361    11373    11280    11118    10968    10835    10731 
   10858    11200    11456    11569    11596    11466    11290    11272 
   11358    11377    11207    10901    10847    11167    11362    11357 
   11503    11581    11449    11454    11545    11497    11387    11232 
   11011    10851    10813    10959    11361    11659    11431    10963 
   10793    11053    11472    11736    11773    11607    11412    11421 
   11535    11448    11134    10800    10582    10737    11248    11537 
   11426    11241    11098    11106    11376    11684    11785    11658 
   11391    11182    11128    11142    11209    11237    11149    11092 
   11130    11194    11315    11504    11580    11443    11367    11449 
   11302    10987    11063    11375    11534    11553    11098    10265 
   10095    10818    11765    12388    12232    11460    11010    11308 
   11713    11599    11203    10893    10719    10889    11402    11584 
   11138    10794    10979    11288    11604    11839    11614    11292 
   11394    11526    11379    11183    10852    10415    10551    11283 
   11628    11275    10967    11102    11408    11726    11927    11839 
   11550    11253    11132    11200    11206    11025    10875    11009 
   11275    11322    11307    11485    11479    11175    11156    11322 
   11137    10959    11090    11182    11202    11341    11526    11562 
   11456    11446    11431    11190    11082    11291    11418    11511 
   11813    11848    11325    10835    10832    11111    11398    11572 
   11477    11122    10864    10851    10903    11037    11214    11230 
   11187    11265    11349    11331    11469    11803    11788    11488 
   11512    11549    11214    11006    10999    10866    10901    11257 
   11449    11296    11091    10957    10912    11141    11627    11923 
   11716    11384    11300    11190    10995    10957    10920    11011 
   11411    11581    11396    11376    11502    11460    11389    11395 
   11159    10859    11010    11245    11275    11473    11639    11511 
   11338    11195    11134    11229    11281    11160    10983    10875 
   10881    11082    11399    11596    11757    11990    11974    11561 
   11110    10868    10716    10656    10821    11053    11237    11399 
   11288    10963    10991    11411    11784    11993    12012    11807 
   11605    11383    10959    10705    10827    10987    11110    11304 
   11403    11144    10744    10773    11051    11091    11171    11545 
   11785    11622    11452    11620    11858    11854    11701    11595 
   11456    10999    10426    10386    10929    11450    11570    11507 
   11496    11240    10821    10899    11353    11570    11527    11385 
   11260    11335    11457    11449    11369    11055    10625    10660 
   11172    11686    11931    11828    11423    10878    10596    10843 
   11155    11099    11055    11345    11657    11696    11541    11385 
   11435    11614    11562    11365    11350    11300    11063    10952 
   10887    10709    10847    11283    11468    11410    11214    10862 
   10812    11277    11861    12248    12144    11450    10786    10746 
   11092    11353    11491    11464    11200    11010    10974    10849 
   10759    10952    11369    11755    11954    11915    11659    11422 
   11372    11433    11441    11210    10887    10754    10636    10623 
   11137    11794    12006    11909    11591    11021    10640    10639 
   10779    11203    11882    12133    11697    11092    10732    10624 
   10744    11097    11331    11145    11013    11443    12033    12239 
   12131    11820    11335    10932    10719    10590    10608    10849 
   11213    11524    11680    11669    11507    11369    11489    11697 
   11668    11408    11032    10638    10473    10643    10856    10887 
   10955    11294    11616    11615    11556    11634    11612    11483 
   11468    11605    11785    11848    11650    11213    10793    10597 
   10665    10976    11241    11169    10967    10889    11017    11292 
   11480    11577    11578    11376    11264    11302    11217    11296 
   11709    12039    12121    11909    11338    10732    10385    10461 
   10972    11334    11176    10893    10751    10837    11322    11870 
   11997    11776    11479    11353    11500    11556    11254    10980 
   11007    11133    11263    11398    11372    11253    11203    11082 
   10883    10824    10905    11115    11522    11997    12291    12172 
   11742    11427    11209    10731    10138     9904    10152    10670 
   11281    11772    11952    12019    12148    12085    11705    11276 
   10941    10629    10465    10677    11134    11545    11823    11944 
   11862    11506    10970    10678    10756    10920    11109    11303 
   11346    11327    11399    11558    11739    11824    11797    11701 
   11437    10928    10386    10185    10397    10758    11133    11553 
   11880    11948    11916    11912    11809    11512    11059    10741 
   10855    11086    11099    11144    11310    11367    11394    11489 
   11500    11433    11367    11275    11203    11155    11053    10875 
   10710    10717    10902    11244    11678    11886    11722    11469 
   11412    11465    11396    11234    11055    10871    10944    11365 
   11747    11813    11665    11493    11365    11186    10881    10600 
   10539    10721    11067    11464    11682    11508    11072    10790 
   10970    11512    11977    12135    12154    12031    11645    11237 
   10943    10628    10453    10527    10663    10790    10936    11191 
   11554    11819    11985    12085    12008    11839    11583    11098 
   10628    10516    10669    10881    11125    11254    11138    11070 
   11290    11537    11632    11700    11736    11739    11777    11676 
   11353    11086    10949    10756    10638    10818    10983    10895 
   10909    11167    11477    11824    12059    11940    11605    11259 
   10905    10702    10798    10989    11155    11410    11607    11569 
   11475    11472    11516    11566    11526    11333    11053    10831 
   10822    10940    11059    11268    11389    11254    11223    11472 
   11722    11796    11650    11275    10848    10665    10824    11136 
   11358    11441    11461    11514    11628    11669    11557    11423 
   11353    11261    11038    10763    10601    10639    10912    11273 
   11473    11531    11611    11738    11816    11718    11452    11107 
   10802    10694    10735    10790    10902    11086    11315    11610 
   11897    12086    12110    11927    11623    11267    10881    10627 
   10557    10566    10733    11047    11272    11415    11564    11601 
   11554    11564    11576    11448    11215    11101    11217    11383 
   11464    11503    11443    11273    11124    11016    10883    10774 
   10817    11026    11302    11577    11735    11681    11545    11481 
   11475    11441    11319    11146    11037    10990    10951    11018 
   11141    11099    11007    11097    11279    11453    11641    11762 
   11727    11561    11362    11244    11194    11124    11080    11156 
   11311    11421    11415    11357    11361    11446    11496    11425 
   11241    10968    10698    10612    10778    11075    11341    11573 
   11778    11817    11670    11524    11441    11321    11198    11144 
   11083    10964    10862    10866    10979    11101    11253    11496 
   11645    11597    11553    11593    11630    11642    11560    11308 
   11011    10810    10679    10621    10677    10805    11051    11439 
   11777    11954    11985    11769    11446    11334    11303    11121 
   10960    10941    10972    11118    11357    11442    11344    11244 
   11176    11157    11263    11357    11286    11221    11275    11288 
   11288    11394    11442    11337    11227    11144    11055    11074 
   11192    11298    11391    11443    11410    11421    11530    11588 
   11510    11348    11198    11128    11130    11160    11164    11145 
   11124    11098    11136    11263    11367    11368    11290    11244 
   11314    11422    11425    11365    11371    11358    11267    11234 
   11264    11248    11199    11130    11064    11109    11245    11323 
   11348    11389    11404    11354    11344    11392    11391    11361 
   11380    11385    11326    11232    11132    11028    10921    10871 
   10906    10975    11098    11326    11589    11772    11842    11792 
   11641    11477    11338    11169    11018    10970    10990    11047 
   11134    11215    11306    11404    11394    11241    11119    11199 
   11381    11470    11450    11346    11169    11067    11195    11437 
   11519    11376    11182    11080    11070    11133    11260    11311 
   11229    11199    11308    11394    11408    11410    11352    11280 
   11296    11345    11406    11458    11389    11237    11156    11103 
   11028    11067    11195    11209    11164    11223    11322    11364 
   11395    11472    11545    11537    11466    11353    11215    11128 
   11072    11030    11074    11144    11130    11059    11011    11105 
   11345    11591    11754    11832    11808    11682    11518    11361 
   11180    10998    10891    10863    10872    10902    10975    11121 
   11254    11294    11340    11441    11526    11619    11669    11550 
   11353    11225    11188    11194    11144    11048    11025    11074 
   11160    11322    11485    11506    11445    11406    11350    11281 
   11230    11160    11072    11033    11068    11148    11277    11421 
   11460    11442    11529    11635    11612    11495    11315    11098 
   10956    10912    10921    10964    11030    11152    11335    11511 
   11604    11558    11435    11356    11314    11249    11168    11121 
   11110    11105    11153    11250    11281    11264    11304    11358 
   11372    11411    11477    11487    11462    11454    11385    11276 
   11236    11219    11151    11072    11055    11114    11200    11269 
   11313    11321    11319    11384    11500    11542    11475    11372 
   11267    11148    11013    10924    10953    11083    11229    11317 
   11371    11453    11508    11475    11403    11311    11210    11169 
   11183    11209    11242    11215    11160    11205    11288    11323 
   11333    11295    11272    11368    11479    11461    11387    11334 
   11236    11102    11067    11122    11176    11254    11357    11391 
