Origin Time       2021/08/14 22:38:00
Lat.              37.5
Long.             137.2
Depth. (km)       10
Mag.              4.1
Station Code      ISK004
Station Lat.      37.3080
Station Long.     137.1470
Station Height(m) 4
Record Time       2021/08/14 22:38:15
Sampling Freq(Hz) 100Hz
Duration Time(s)  60
Dir.              U-D
Scale Factor      7845(gal)/8223790
Max. Acc. (gal)   2.372
Last Correction   2021/08/14 22:38:15
Memo.             
[...]
   -5630    -5609    -5562    -5529    -5466    -5482    -5597    -5620 
   -5543    -5556    -5625    -5575    -5460    -5409    -5401    -5451 
   -5513    -5463    -5462    -5580    -5620    -5636    -5668    -5616 
   -5567    -5506    -5400    -5351    -5394    -5509    -5555    -5589 
   -5724    -5663    -5435    -5374    -5395    -5456    -5622    -5718 
   -5636    -5505    -5460    -5490    -5525    -5499    -5420    -5448 
   -5568    -5606    -5590    -5559    -5499    -5522    -5622    -5583 
   -5371    -5270    -5427    -5625    -5714    -5714    -5625    -5518 
   -5455    -5412    -5405    -5437    -5497    -5572    -5618    -5630 
   -5597    -5471    -5382    -5481    -5610    -5626    -5593    -5516 
   -5429    -5422    -5512    -5674    -5686    -5459    -5296    -5360 
   -5540    -5607    -5520    -5564    -5688    -5667    -5599    -5501 
   -5424    -5441    -5421    -5441    -5556    -5570    -5525    -5549 
   -5574    -5513    -5451    -5505    -5579    -5589    -5589    -5562 
   -5526    -5497    -5451    -5452    -5517    -5618    -5634    -5462 
   -5354    -5456    -5557    -5598    -5576    -5503    -5562    -5647 
   -5572    -5495    -5445    -5417    -5535    -5584    -5495    -5544 
   -5548    -5429    -5505    -5568    -5470    -5516    -5593    -5597 
   -5663    -5584    -5428    -5489    -5529    -5432    -5445    -5503 
   -5503    -5559    -5590    -5535    -5537    -5556    -5508    -5529 
   -5580    -5503    -5467    -5557    -5564    -5520    -5529    -5476 
   -5458    -5545    -5543    -5503    -5535    -5499    -5489    -5594 
   -5603    -5548    -5557    -5518    -5487    -5521    -5490    -5462 
   -5499    -5493    -5490    -5559    -5593    -5572    -5587    -5578 
   -5489    -5467    -5517    -5472    -5459    -5559    -5562    -5521 
   -5560    -5535    -5490    -5529    -5526    -5512    -5559    -5555 
   -5506    -5532    -5552    -5505    -5506    -5528    -5490    -5502 
   -5528    -5479    -5506    -5575    -5562    -5583    -5601    -5528 
   -5506    -5513    -5455    -5460    -5526    -5530    -5545    -5589 
   -5541    -5485    -5503    -5486    -5481    -5564    -5587    -5549 
   -5555    -5522    -5485    -5529    -5533    -5501    -5525    -5518 
   -5490    -5524    -5530    -5509    -5540    -5560    -5539    -5540 
   -5541    -5512    -5495    -5495    -5494    -5530    -5576    -5560 
   -5551    -5564    -5516    -5474    -5487    -5475    -5494    -5562 
   -5556    -5525    -5536    -5526    -5516    -5540    -5539    -5522 
   -5541    -5540    -5503    -5508    -5522    -5493    -5499    -5539 
   -5537    -5544    -5549    -5510    -5505    -5530    -5522    -5540 
   -5560    -5524    -5518    -5537    -5517    -5512    -5512    -5485 
   -5499    -5532    -5529    -5549    -5575    -5548    -5535    -5536 
   -5497    -5471    -5486    -5495    -5529    -5583    -5579    -5545 
   -5543    -5522    -5490    -5489    -5486    -5494    -5544    -5575 
   -5560    -5551    -5536    -5498    -5483    -5494    -5499    -5528 
   -5562    -5553    -5545    -5559    -5535    -5505    -5513    -5516 
   -5518    -5530    -5512    -5502    -5528    -5526    -5513    -5533 
   -5551    -5533    -5533    -5552    -5533    -5506    -5516    -5522 
   -5526    -5540    -5535    -5514    -5503    -5503    -5512    -5520 
   -5518    -5526    -5544    -5543    -5528    -5524    -5528    -5533 
   -5539    -5540    -5533    -5530    -5535    -5522    -5503    -5503 
   -5510    -5513    -5513    -5518    -5529    -5535    -5539    -5545 
   -5549    -5544    -5533    -5528    -5518    -5510    -5516    -5522 
   -5526    -5516    -5501    -5505    -5524    -5535    -5533    -5537 
   -5555    -5556    -5528    -5509    -5512    -5518    -5524    -5522 
   -5522    -5529    -5532    -5524    -5512    -5503    -5508    -5525 
   -5539    -5533    -5517    -5529    -5562    -5559    -5522    -5506 
   -5517    -5530    -5526    -5510    -5509    -5525    -5540    -5541 
   -5518    -5501    -5521    -5541    -5529    -5516    -5516    -5533 
   -5559    -5555    -5526    -5513    -5518    -5528    -5521    -5508 
   -5524    -5540    -5524    -5513    -5512    -5513    -5530    -5540 
   -5533    -5535    -5528    -5516    -5530    -5552    -5556    -5540 
   -5508    -5495    -5510    -5526    -5522    -5505    -5509    -5539 
   -5556    -5537    -5512    -5518    -5540    -5545    -5539    -5528 
   -5521    -5526    -5529    -5525    -5516    -5503    -5502    -5520 
   -5535    -5530    -5526    -5533    -5529    -5529    -5545    -5545 
   -5525    -5513    -5516    -5526    -5536    -5530    -5520    -5521 
   -5524    -5514    -5503    -5512    -5532    -5545    -5545    -5530 
   -5514    -5513    -5522    -5536    -5548    -5548    -5533    -5521 
   -5517    -5502    -5487    -5510    -5547    -5543    -5522    -5521 
   -5520    -5524    -5539    -5547    -5547    -5544    -5528    -5514 
   -5521    -5529    -5522    -5513    -5516    -5521    -5521    -5518 
   -5514    -5517    -5528    -5540    -5545    -5541    -5535    -5535 
   -5540    -5537    -5529    -5521    -5516    -5516    -5512    -5498 
   -5501    -5516    -5520    -5524    -5536    -5548    -5553    -5548 
   -5537    -5536    -5528    -5517    -5521    -5525    -5521    -5521 
   -5510    -5512    -5514    -5508    -5525    -5532    -5532    -5551 
   -5548    -5529    -5520    -5529    -5537    -5524    -5525    -5533 
   -5518    -5508    -5510    -5514    -5517    -5520    -5533    -5543 
   -5539    -5532    -5522    -5522    -5530    -5524    -5512    -5514 
   -5524    -5532    -5535    -5533    -5529    -5525    -5524    -5528 
   -5530    -5521    -5510    -5518    -5528    -5520    -5517    -5526 
   -5537    -5547    -5539    -5518    -5517    -5536    -5541    -5528 
   -5521    -5520    -5516    -5508    -5505    -5513    -5525    -5539 
   -5551    -5553    -5548    -5535    -5516    -5508    -5513    -5508 
   -5501    -5518    -5533    -5533    -5539    -5539    -5526    -5525 
   -5532    -5530    -5526    -5537    -5543    -5524    -5512    -5525 
   -5524    -5501    -5497    -5514    -5529    -5536    -5528    -5526 
   -5556    -5571    -5532    -5497    -5513    -5544    -5539    -5508 
   -5497    -5512    -5528    -5526    -5513    -5513    -5528    -5537 
   -5544    -5544    -5528    -5522    -5549    -5572    -5537    -5474 
   -5470    -5513    -5529    -5517    -5514    -5537    -5559    -5552 
   -5525    -5510    -5521    -5541    -5547    -5535    -5525    -5521 
   -5518    -5517    -5513    -5513    -5521    -5521    -5518    -5535 
   -5544    -5535    -5532    -5536    -5537    -5532    -5518    -5516 
   -5530    -5537    -5522    -5516    -5526    -5530    -5529    -5525 
   -5514    -5509    -5518    -5529    -5540    -5541    -5544    -5549 
   -5540    -5516    -5503    -5509    -5520    -5535    -5532    -5509 
   -5510    -5530    -5532    -5522    -5525    -5533    -5541    -5551 
   -5544    -5520    -5503    -5509    -5529    -5540    -5529    -5514 
   -5517    -5529    -5530    -5526    -5525    -5525    -5529    -5537 
   -5533    -5520    -5510    -5521    -5540    -5540    -5526    -5517 
   -5506    -5509    -5526    -5537    -5536    -5536    -5532    -5525 
   -5522    -5521    -5521    -5524    -5529    -5529    -5532    -5525 
   -5505    -5506    -5530    -5539    -5533    -5533    -5532    -5528 
   -5528    -5528    -5524    -5522    -5526    -5529    -5526    -5526 
   -5528    -5521    -5517    -5520    -5524    -5526    -5526    -5530 
   -5533    -5535    -5535    -5530    -5528    -5532    -5529    -5525 
   -5524    -5520    -5517    -5517    -5512    -5510    -5520    -5530 
   -5533    -5535    -5541    -5541    -5536    -5536    -5536    -5526 
   -5517    -5513    -5512    -5517    -5525    -5535    -5539    -5533 
   -5521    -5510    -5510    -5516    -5526    -5544    -5560    -5557 
   -5544    -5528    -5514    -5506    -5508    -5518    -5529    -5529 
   -5517    -5509    -5512    -5521    -5529    -5543    -5559    -5556 
   -5539    -5530    -5524    -5514    -5521    -5532    -5525    -5513 
   -5509    -5508    -5508    -5514    -5524    -5530    -5536    -5543 
   -5545    -5541    -5535    -5529    -5532    -5540    -5537    -5518 
   -5508    -5509    -5510    -5509    -5509    -5524    -5536    -5537 
   -5537    -5530    -5532    -5540    -5540    -5533    -5529    -5528 
   -5517    -5513    -5517    -5525    -5532    -5524    -5506    -5493 
   -5499    -5526    -5555    -5574    -5570    -5556    -5535    -5505 
   -5490    -5495    -5518    -5539    -5541    -5539    -5526    -5514 
   -5502    -5490    -5510    -5549    -5564    -5552    -5535    -5529 
   -5521    -5510    -5518    -5522    -5521    -5525    -5522    -5526 
   -5529    -5528    -5528    -5517    -5522    -5541    -5539    -5536 
   -5526    -5512    -5525    -5533    -5530    -5528    -5514    -5525 
   -5529    -5514    -5522    -5522    -5517    -5529    -5528    -5536 
   -5545    -5537    -5535    -5520    -5514    -5525    -5522    -5532 
   -5533    -5514    -5518    -5518    -5521    -5536    -5529    -5530 
   -5536    -5530    -5532    -5526    -5525    -5530    -5528    -5530 
   -5520    -5509    -5512    -5512    -5517    -5533    -5544    -5545 
   -5535    -5524    -5522    -5526    -5530    -5535    -5528    -5522 
   -5516    -5509    -5513    -5516    -5524    -5539    -5544    -5544 
   -5532    -5524    -5535    -5533    -5529    -5530    -5528    -5521 
   -5512    -5516    -5517    -5516    -5522    -5522    -5526    -5529 
   -5528    -5530    -5537    -5543    -5530    -5521    -5520    -5520 
   -5522    -5524    -5526    -5522    -5516    -5514    -5509    -5517 
   -5533    -5543    -5544    -5539    -5529    -5517    -5521    -5541 
   -5568    -5589    -5572    -5502    -5447    -5487    -5547    -5540 
   -5522    -5522    -5452    -5347    -5343    -5420    -5576    -5810 
   -5844    -5595    -5386    -5408    -5584    -5691    -5594    -5571 
   -5676    -5459    -5192    -5464    -5794    -5598    -5271    -5312 
   -5555    -5481    -5200    -5402    -5842    -5607    -5111    -5427 
   -5934    -5655    -5481    -5842    -5822    -5621    -5717    -5625 
   -5283    -5197    -5439    -5568    -5470    -5489    -5470    -5283 
   -5328    -5487    -5545    -5657    -5655    -5472    -5405    -5567 
   -5775    -5832    -5803    -5487    -5011    -5352    -6070    -5833 
   -5309    -5533    -5807    -5437    -4951    -4927    -5378    -5840 
   -5786    -5668    -5603    -5189    -5416    -5967    -5471    -5197 
   -5683    -5722    -5625    -5637    -5537    -5688    -5667    -5130 
   -4889    -5379    -5846    -5687    -5540    -5896    -6043    -5410 
   -4900    -5456    -5915    -5354    -5124    -5768    -6070    -5506 
   -5008    -5356    -5680    -5294    -5265    -5788    -5815    -5679 
   -5826    -5652    -5476    -5497    -5004    -4710    -5464    -6003 
   -5724    -5861    -5980    -5189    -5097    -5744    -5394    -5217 
   -6016    -5968    -5242    -5331    -5765    -5683    -5233    -5092 
   -5603    -5859    -5397    -5312    -5792    -5873    -5475    -5275 
   -5366    -5290    -5366    -5672    -5475    -5733    -6650    -6060 
   -4801    -4955    -5327    -5274    -5516    -5684    -5649    -5526 
   -5360    -5540    -5742    -5557    -5468    -5617    -5543    -5460 
   -5664    -5701    -5745    -5892    -5371    -4810    -5032    -5405 
   -5670    -5823    -5751    -5578    -5215    -5132    -5649    -5792 
   -5432    -5591    -5977    -5778    -5614    -5805    -5541    -5082 
   -5043    -5185    -5481    -5576    -5490    -6030    -6349    -5711 
   -5325    -5181    -4671    -4804    -5629    -5903    -5790    -5934 
   -5971    -5626    -5202    -5047    -5273    -5753    -6039    -5886 
   -5769    -5543    -5005    -5062    -5447    -5501    -5680    -5575 
   -5146    -5532    -6215    -5852    -5098    -5233    -5732    -5489 
   -5015    -5476    -6187    -5734    -5123    -5545    -5846    -5494 
   -5159    -5142    -5682    -5975    -5460    -5412    -5670    -5328 
   -5479    -5957    -5301    -4816    -5921    -6330    -5130    -5348 
   -6424    -5436    -4382    -5001    -5651    -6023    -6365    -6258 
   -5984    -5840    -5435    -4685    -4756    -5543    -5221    -4715 
   -5589    -6076    -5579    -5346    -4884    -4939    -6301    -6237 
   -5198    -6075    -6326    -4959    -5166    -5819    -5559    -5672 
   -5155    -4777    -5825    -5811    -5385    -6330    -6404    -5493 
   -5244    -4954    -4564    -5247    -6097    -5606    -5171    -5883 
   -6004    -5098    -4819    -5528    -5953    -5605    -5400    -5589 
   -5570    -5420    -5359    -5503    -5898    -6037    -6116    -6000 
   -5059    -4788    -5664    -5979    -5528    -5131    -5629    -6210 
   -5116    -4375    -5595    -6188    -5576    -5255    -5069    -5292 
   -5945    -5590    -4993    -5497    -5594    -5248    -5638    -5530 
   -5383    -6219    -6207    -5611    -5794    -5651    -5225    -5223 
   -4745    -4364    -5373    -6170    -5755    -5927    -6312    -5655 
   -5629    -6199    -5502    -4947    -5560    -5228    -4199    -4738 
   -5884    -6010    -6079    -6274    -5891    -5807    -5879    -5329 
   -5235    -5269    -4633    -4936    -5884    -5999    -5934    -5458 
   -4572    -4776    -5648    -6056    -6218    -6181    -5586    -5397 
   -6072    -5656    -4502    -4692    -5339    -5807    -6214    -5972 
   -6070    -6520    -5702    -3936    -3040    -4131    -5834    -6397 
   -6409    -6343    -6180    -6153    -5856    -5327    -4893    -4831 
   -5737    -6458    -5702    -5111    -5293    -5047    -5292    -5838 
   -4973    -4384    -5265    -5648    -5647    -6365    -6821    -6723 
   -6477    -5778    -4757    -3940    -3909    -4638    -5505    -6258 
   -6149    -5394    -5583    -6343    -6421    -5780    -5152    -5331 
   -5637    -5433    -5412    -5371    -5054    -5171    -5578    -5929 
   -6328    -6226    -5765    -5748    -5491    -4783    -4828    -5090 
   -4681    -4503    -4608    -4826    -5621    -6250    -6619    -7106 
   -6940    -6458    -6157    -5377    -4491    -4456    -5142    -5471 
   -4970    -4671    -4889    -4837    -4957    -5960    -7037    -7299 
   -6967    -6484    -5794    -4932    -4540    -4839    -5125    -5092 
   -5019    -5069    -5182    -5127    -5173    -5679    -6061    -5991 
   -5933    -5821    -5532    -5543    -5586    -5220    -5216    -5846 
   -6034    -5520    -5409    -5830    -5941    -5857    -5663    -5217 
   -5039    -5152    -5393    -5553    -5190    -5023    -5229    -4958 
   -4796    -5283    -5998    -6558    -6517    -6250    -6046    -5624 
   -5564    -5628    -5093    -4746    -4804    -4853    -5289    -5988 
   -6494    -6678    -6223    -5358    -4869    -4893    -4922    -4926 
   -5464    -6231    -6342    -6087    -6046    -5756    -5138    -4773 
   -4342    -3763    -4126    -5390    -6450    -7261    -7578    -6493 
   -5044    -4860    -5242    -5188    -5004    -5224    -5977    -6264 
   -5425    -4877    -5259    -5545    -5842    -6478    -6610    -6029 
   -5347    -4847    -4355    -4024    -4603    -5649    -6070    -6278 
   -6508    -6150    -5536    -5246    -5223    -5116    -4989    -5405 
   -5917    -5752    -5478    -5620    -5702    -5333    -5146    -5744 
   -6106    -5486    -4857    -4853    -5235    -5602    -5709    -5923 
   -6173    -5937    -5738    -5917    -5675    -5186    -5436    -5698 
   -5115    -4938    -5405    -5038    -4677    -5796    -6833    -6502 
   -6035    -5796    -5040    -4523    -5162    -5784    -5292    -4922 
   -5391    -5508    -5398    -5742    -5763    -5459    -5568    -5872 
   -5838    -5425    -5340    -5832    -5757    -5128    -5363    -6008 
   -6102    -6077    -5724    -4931    -4699    -5104    -5339    -5400 
   -5810    -6076    -5560    -4950    -4723    -4873    -5679    -6615 
   -7044    -6907    -5884    -4766    -4796    -5016    -4679    -4934 
   -5641    -5725    -5617    -5682    -5637    -5776    -6038    -5915 
   -5290    -4606    -4791    -5541    -5707    -5528    -5435    -5445 
   -5798    -5988    -5761    -5698    -5545    -5036    -5051    -5648 
   -5667    -5296    -5610    -6219    -6388    -6115    -5544    -5243 
   -5337    -5197    -4990    -5108    -5078    -4783    -4893    -5486 
   -5948    -6160    -6265    -6173    -5891    -5548    -5462    -5807 
   -6043    -5580    -4766    -4598    -5096    -5395    -5599    -6000 
   -6114    -5918    -5670    -5352    -5200    -5327    -5427    -5404 
   -5404    -5393    -5441    -5599    -5468    -5140    -5252    -5541 
   -5535    -5503    -5501    -5472    -5606    -5892    -6088    -5863 
   -5436    -5329    -5452    -5661    -5798    -5582    -5350    -5325 
   -5325    -5513    -5714    -5489    -5189    -5220    -5456    -5779 
   -5853    -5611    -5671    -5833    -5433    -5120    -5427    -5688 
   -5728    -5721    -5529    -5408    -5356    -5028    -4938    -5486 
   -5965    -5976    -5863    -5741    -5610    -5401    -5019    -4973 
   -5529    -6045    -5964    -5555    -5549    -5726    -5358    -5026 
   -5301    -5598    -5653    -5630    -5490    -5331    -5282    -5377 
   -5656    -5877    -5902    -5923    -5719    -5263    -5179    -5383 
   -5466    -5691    -5927    -5710    -5356    -5212    -5244    -5540 
   -5749    -5475    -5217    -5352    -5566    -5610    -5533    -5580 
   -5836    -5929    -5651    -5386    -5340    -5238    -5194    -5562 
   -5987    -5957    -5675    -5559    -5652    -5651    -5255    -4806 
   -4873    -5196    -5289    -5390    -5628    -5659    -5535    -5506 
   -5643    -5961    -6034    -5705    -5579    -5580    -5428    -5571 
   -5753    -5499    -5185    -5076    -5340    -5779    -5686    -5497 
   -5790    -5768    -5301    -5236    -5402    -5265    -5252    -5730 
   -6081    -5772    -5359    -5462    -5590    -5359    -5432    -5844 
   -5871    -5714    -5597    -5269    -5127    -5312    -5451    -5584 
   -5553    -5350    -5571    -5937    -5772    -5525    -5586    -5613 
   -5508    -5373    -5194    -5098    -5363    -5899    -6111    -5925 
   -5892    -6011    -5880    -5358    -4849    -4966    -5184    -4887 
   -4924    -5516    -5706    -5520    -5493    -5485    -5408    -5387 
   -5503    -5798    -5949    -5814    -5756    -5805    -5854    -5791 
   -5404    -5246    -5643    -5682    -5246    -5116    -5148    -5167 
   -5536    -6041    -6274    -6174    -5736    -5232    -5066    -5189 
   -5389    -5548    -5470    -5382    -5676    -5833    -5595    -5544 
   -5441    -5007    -4936    -5283    -5468    -5595    -5736    -5529 
   -5229    -5306    -5591    -5786    -5788    -5829    -6120    -6226 
   -5948    -5503    -4892    -4572    -4874    -5244    -5474    -5710 
   -5779    -5827    -6031    -5975    -5641    -5580    -5749    -5823 
   -5822    -5634    -5329    -5223    -5220    -5086    -4789    -4720 
   -5188    -5567    -5652    -6010    -6272    -5954    -5674    -5838 
   -5937    -5752    -5637    -5433    -5023    -4963    -5161    -5082 
   -5059    -5375    -5582    -5549    -5651    -5892    -5983    -5891 
   -5571    -5071    -5085    -5748    -6120    -5860    -5410    -5093 
   -5089    -5246    -5417    -5799    -6164    -6131    -5899    -5628 
