Origin Time       2021/08/14 22:38:00
Lat.              37.5
Long.             137.2
Depth. (km)       10
Mag.              4.1
Station Code      ISK001
Station Lat.      37.4999
Station Long.     137.1764
Station Height(m) 6
Record Time       2021/08/14 22:38:11
Sampling Freq(Hz) 100Hz
Duration Time(s)  60
Dir.              E-W
Scale Factor      7845(gal)/8223790
Max. Acc. (gal)   19.337
Last Correction   2021/08/14 22:38:10
Memo.             
[...]
   -8140    -8183    -8162    -8140    -8182    -8156    -8145    -8182 
   -8152    -8154    -8179    -8144    -8155    -8189    -8147    -8144 
   -8181    -8155    -8155    -8175    -8145    -8154    -8179    -8158 
   -8148    -8163    -8163    -8164    -8168    -8148    -8156    -8183 
   -8151    -8137    -8179    -8174    -8149    -8151    -8160    -8170 
   -8163    -8149    -8159    -8172    -8156    -8156    -8170    -8148 
   -8159    -8181    -8148    -8152    -8174    -8152    -8159    -8170 
   -8154    -8168    -8163    -8140    -8174    -8168    -8139    -8175 
   -8164    -8140    -8185    -8162    -8129    -8185    -8174    -8135 
   -8179    -8170    -8139    -8174    -8162    -8144    -8179    -8160 
   -8144    -8181    -8163    -8139    -8176    -8175    -8147    -8160 
   -8163    -8160    -8174    -8159    -8152    -8174    -8160    -8154 
   -8172    -8154    -8162    -8179    -8141    -8151    -8182    -8151 
   -8156    -8174    -8144    -8167    -8187    -8132    -8154    -8199 
   -8147    -8141    -8179    -8159    -8158    -8167    -8148    -8164 
   -8175    -8147    -8154    -8170    -8162    -8162    -8159    -8151 
   -8174    -8168    -8131    -8164    -8195    -8140    -8141    -8186 
   -8168    -8154    -8152    -8156    -8183    -8162    -8136    -8171 
   -8176    -8141    -8156    -8175    -8156    -8162    -8162    -8147 
   -8179    -8174    -8135    -8167    -8181    -8145    -8159    -8164 
   -8148    -8174    -8167    -8143    -8170    -8164    -8145    -8175 
   -8163    -8141    -8170    -8167    -8151    -8167    -8154    -8159 
   -8186    -8145    -8140    -8182    -8160    -8151    -8168    -8149 
   -8158    -8175    -8154    -8158    -8174    -8152    -8160    -8172 
   -8149    -8168    -8179    -8136    -8148    -8189    -8154    -8144 
   -8176    -8159    -8164    -8174    -8137    -8167    -8185    -8129 
   -8163    -8194    -8135    -8154    -8186    -8147    -8162    -8171 
   -8136    -8174    -8179    -8133    -8164    -8178    -8147    -8166 
   -8170    -8151    -8167    -8163    -8149    -8170    -8166    -8155 
   -8164    -8155    -8160    -8174    -8154    -8155    -8174    -8160 
   -8151    -8170    -8167    -8151    -8158    -8159    -8162    -8172 
   -8148    -8148    -8193    -8163    -8129    -8179    -8179    -8144 
   -8158    -8159    -8170    -8174    -8139    -8160    -8190    -8154 
   -8147    -8168    -8160    -8164    -8162    -8147    -8174    -8178 
   -8137    -8159    -8185    -8151    -8155    -8172    -8152    -8159 
   -8170    -8155    -8166    -8164    -8147    -8171    -8171    -8141 
   -8163    -8179    -8145    -8154    -8178    -8160    -8159    -8166 
   -8152    -8166    -8167    -8149    -8166    -8167    -8149    -8164 
   -8164    -8154    -8175    -8156    -8141    -8198    -8171    -8120 
   -8182    -8187    -8133    -8158    -8171    -8159    -8174    -8158 
   -8145    -8182    -8166    -8136    -8172    -8175    -8140    -8158 
   -8174    -8156    -8163    -8159    -8149    -8182    -8164    -8140 
   -8174    -8162    -8154    -8172    -8143    -8159    -8197    -8144 
   -8135    -8189    -8163    -8145    -8174    -8151    -8158    -8182 
   -8147    -8156    -8182    -8154    -8154    -8163    -8154    -8172 
   -8166    -8139    -8163    -8176    -8151    -8154    -8163    -8160 
   -8174    -8167    -8137    -8166    -8183    -8140    -8156    -8182 
   -8145    -8159    -8175    -8144    -8164    -8178    -8147    -8162 
   -8166    -8149    -8175    -8159    -8140    -8179    -8167    -8140 
   -8174    -8167    -8144    -8168    -8164    -8154    -8174    -8152 
   -8148    -8185    -8152    -8147    -8186    -8148    -8141    -8186 
   -8159    -8145    -8168    -8156    -8156    -8170    -8154    -8156 
   -8176    -8159    -8148    -8170    -8160    -8152    -8170    -8156 
   -8156    -8174    -8155    -8159    -8176    -8147    -8159    -8187 
   -8149    -8145    -8175    -8156    -8156    -8166    -8149    -8176 
   -8171    -8132    -8170    -8182    -8144    -8162    -8170    -8151 
   -8168    -8164    -8145    -8174    -8164    -8140    -8179    -8167 
   -8136    -8178    -8168    -8133    -8179    -8176    -8133    -8168 
   -8176    -8139    -8167    -8172    -8141    -8175    -8168    -8133 
   -8170    -8171    -8147    -8167    -8162    -8155    -8172    -8152 
   -8152    -8178    -8154    -8147    -8181    -8160    -8144    -8164 
   -8156    -8164    -8174    -8143    -8160    -8176    -8148    -8166 
   -8168    -8140    -8168    -8168    -8135    -8172    -8186    -8131 
   -8151    -8195    -8149    -8143    -8176    -8158    -8167    -8168 
   -8133    -8167    -8182    -8144    -8171    -8174    -8135    -8172 
   -8183    -8136    -8154    -8178    -8163    -8154    -8147    -8162 
   -8181    -8156    -8139    -8170    -8175    -8149    -8158    -8164 
   -8160    -8175    -8151    -8139    -8185    -8166    -8135    -8176 
   -8168    -8140    -8168    -8162    -8152    -8182    -8149    -8139 
   -8191    -8160    -8132    -8185    -8160    -8136    -8179    -8158 
   -8152    -8182    -8147    -8152    -8186    -8144    -8143    -8185 
   -8155    -8143    -8187    -8160    -8137    -8182    -8168    -8148 
   -8168    -8159    -8172    -8175    -8127    -8158    -8197    -8141 
   -8139    -8182    -8166    -8158    -8164    -8155    -8170    -8159 
   -8135    -8176    -8193    -8135    -8140    -8187    -8167    -8151 
   -8156    -8145    -8172    -8189    -8145    -8143    -8172    -8163 
   -8164    -8163    -8148    -8175    -8172    -8136    -8163    -8176 
   -8139    -8158    -8189    -8152    -8144    -8171    -8163    -8159 
   -8160    -8156    -8176    -8159    -8136    -8172    -8174    -8141 
   -8162    -8168    -8151    -8172    -8162    -8137    -8179    -8182 
   -8141    -8158    -8176    -8172    -8156    -8137    -8171    -8195 
   -8149    -8139    -8174    -8163    -8162    -8167    -8141    -8170 
   -8185    -8133    -8162    -8189    -8139    -8156    -8182    -8148 
   -8162    -8176    -8141    -8156    -8185    -8152    -8152    -8187 
   -8155    -8144    -8182    -8154    -8154    -8185    -8143    -8155 
   -8186    -8145    -8158    -8178    -8145    -8167    -8175    -8131 
   -8160    -8186    -8143    -8155    -8172    -8148    -8168    -8166 
   -8143    -8176    -8174    -8137    -8166    -8172    -8144    -8171 
   -8171    -8136    -8168    -8175    -8141    -8166    -8168    -8151 
   -8175    -8163    -8143    -8174    -8166    -8148    -8170    -8156 
   -8158    -8182    -8144    -8140    -8186    -8159    -8144    -8175 
   -8152    -8156    -8182    -8144    -8154    -8191    -8148    -8143 
   -8182    -8162    -8155    -8171    -8144    -8158    -8189    -8151 
   -8144    -8174    -8152    -8158    -8172    -8143    -8164    -8178 
   -8139    -8160    -8179    -8144    -8159    -8175    -8151    -8158 
   -8166    -8151    -8168    -8172    -8145    -8158    -8178    -8158 
   -8155    -8160    -8155    -8174    -8162    -8144    -8174    -8162 
   -8144    -8178    -8162    -8139    -8179    -8164    -8135    -8179 
   -8174    -8137    -8171    -8170    -8149    -8168    -8162    -8154 
   -8171    -8159    -8152    -8178    -8160    -8140    -8179    -8166 
   -8136    -8171    -8167    -8147    -8172    -8160    -8147    -8174 
   -8163    -8149    -8167    -8156    -8163    -8181    -8151    -8147 
   -8178    -8166    -8154    -8163    -8152    -8167    -8174    -8141 
   -8160    -8181    -8149    -8163    -8171    -8136    -8168    -8186 
   -8137    -8156    -8178    -8145    -8164    -8174    -8144    -8166 
   -8168    -8147    -8171    -8171    -8143    -8167    -8179    -8141 
   -8154    -8185    -8156    -8144    -8163    -8168    -8167    -8151 
   -8148    -8186    -8166    -8128    -8174    -8182    -8143    -8162 
   -8162    -8155    -8185    -8152    -8137    -8181    -8167    -8145 
   -8163    -8164    -8164    -8162    -8148    -8170    -8174    -8143 
   -8159    -8175    -8149    -8156    -8166    -8155    -8166    -8164 
   -8149    -8167    -8172    -8144    -8163    -8179    -8137    -8156 
   -8191    -8144    -8144    -8183    -8156    -8154    -8175    -8151 
   -8159    -8172    -8143    -8162    -8182    -8145    -8151    -8174 
   -8159    -8160    -8162    -8147    -8174    -8175    -8136    -8164 
   -8189    -8141    -8143    -8179    -8162    -8155    -8171    -8149 
   -8156    -8176    -8145    -8154    -8181    -8152    -8154    -8167 
   -8155    -8175    -8164    -8137    -8175    -8174    -8139    -8171 
   -8172    -8152    -8168    -8149    -8155    -8191    -8152    -8133 
   -8179    -8172    -8143    -8163    -8170    -8152    -8167    -8164 
   -8149    -8168    -8160    -8152    -8176    -8151    -8144    -8187 
   -8159    -8139    -8176    -8159    -8148    -8179    -8154    -8141 
   -8186    -8164    -8135    -8172    -8167    -8151    -8170    -8151 
   -8162    -8178    -8143    -8160    -8183    -8136    -8148    -8190 
   -8155    -8141    -8172    -8164    -8162    -8166    -8147    -8159 
   -8176    -8155    -8154    -8170    -8160    -8162    -8164    -8149 
   -8163    -8170    -8152    -8166    -8168    -8149    -8162    -8174 
   -8156    -8162    -8166    -8154    -8174    -8167    -8140    -8168 
   -8170    -8145    -8164    -8163    -8155    -8174    -8155    -8151 
   -8175    -8149    -8149    -8185    -8152    -8148    -8178    -8147 
   -8156    -8186    -8143    -8147    -8186    -8152    -8147    -8174 
   -8151    -8159    -8178    -8143    -8151    -8185    -8162    -8144 
   -8164    -8167    -8158    -8160    -8155    -8164    -8171    -8141 
   -8158    -8182    -8152    -8156    -8170    -8155    -8166    -8162 
   -8145    -8170    -8172    -8147    -8163    -8172    -8149    -8162 
   -8178    -8149    -8152    -8174    -8149    -8160    -8183    -8143 
   -8158    -8185    -8139    -8156    -8186    -8145    -8163    -8175 
   -8136    -8167    -8181    -8141    -8163    -8172    -8155    -8168 
   -8151    -8155    -8189    -8149    -8135    -8185    -8168    -8140 
   -8170    -8159    -8152    -8182    -8141    -8136    -8195    -8166 
   -8136    -8172    -8168    -8147    -8164    -8167    -8154    -8164 
   -8167    -8158    -8166    -8158    -8156    -8172    -8155    -8154 
   -8170    -8147    -8160    -8186    -8145    -8148    -8183    -8154 
   -8154    -8174    -8143    -8162    -8189    -8139    -8152    -8191 
   -8145    -8154    -8183    -8145    -8156    -8178    -8148    -8156 
   -8176    -8159    -8156    -8162    -8156    -8174    -8163    -8137 
   -8176    -8178    -8136    -8160    -8175    -8151    -8160    -8167 
   -8154    -8171    -8166    -8136    -8172    -8179    -8133    -8167 
   -8176    -8132    -8167    -8183    -8143    -8156    -8168    -8155 
   -8168    -8162    -8147    -8168    -8166    -8151    -8167    -8163 
   -8151    -8172    -8163    -8149    -8172    -8156    -8148    -8176 
   -8159    -8145    -8174    -8166    -8155    -8168    -8152    -8152 
   -8178    -8154    -8148    -8183    -8156    -8147    -8178    -8155 
   -8159    -8178    -8147    -8158    -8175    -8145    -8163    -8185 
   -8143    -8154    -8179    -8144    -8158    -8182    -8147    -8155 
   -8175    -8151    -8160    -8178    -8149    -8152    -8171    -8163 
   -8160    -8154    -8156    -8178    -8155    -8145    -8179    -8168 
   -8139    -8159    -8168    -8155    -8163    -8162    -8151    -8166 
   -8164    -8149    -8168    -8166    -8145    -8176    -8170    -8132 
   -8172    -8176    -8141    -8163    -8162    -8162    -8181    -8141 
   -8148    -8202    -8152    -8120    -8175    -8178    -8170    -8168 
   -8139    -8156    -8174    -8154    -8170    -8175    -8140    -8155 
   -8185    -8144    -8143    -8194    -8154    -8128    -8162    -8117 
   -8087    -8098    -8050    -8077    -8266    -8260    -7989    -8159 
   -8361    -8280    -8932    -8754    -7730    -8313    -8336    -8131 
   -9211    -8299    -7450    -8044    -7825    -9032    -9263    -7275 
   -7982    -8814    -8079    -8603    -8025    -7091    -8104    -7716 
   -6723    -7555    -7261    -6493    -7672    -8051    -7442    -8212 
   -8723    -8672    -9418    -9622    -9695    -9852    -8392    -7395 
   -8386    -9046    -8256    -6851    -6542    -7854    -8398    -7398 
   -7115    -8186    -9297    -9171    -8058    -8136    -9192    -8576 
   -7489    -8301    -8700    -7658    -7519    -7749    -7646    -8100 
   -8220    -8046    -8577    -8996    -8275    -7577    -8669    -9227 
   -7750    -7296    -7597    -7805    -8617    -7878    -7086    -8322 
   -8753    -8270    -8081    -8035    -8893    -9494    -8649    -7757 
   -7672    -7504    -6967    -7257    -8043    -8661    -9239    -8206 
   -6963    -8542    -9815    -8044    -6882    -8718    -9998    -8503 
   -8039    -9189    -8241    -7141    -8321    -8314    -6880    -7719 
   -8895    -7960    -8082    -8322    -6278    -6718    -9339    -9428 
   -8837    -7938    -7196    -8733    -9004    -7311    -6411    -7109 
   -8895    -9205    -9428    -9828    -7287    -6084    -8255    -8602 
   -8078    -9888    -9038    -5032    -6508    -9859    -7942    -7619 
   -9520    -8579    -8043    -7931    -7666    -9499    -9923    -7761 
   -6166    -5972    -6863    -6702    -6153    -8152   -10216   -10893 
  -10674    -7933    -5692    -5331    -2371     -216    -2367    -2520 
     372     3372     4255    -2050   -10939   -15919   -20258   -22682 
  -23058   -26395   -28431   -24858   -18958   -11475    -4136    -1008 
     310     2619     3782      685    -8023   -16434   -17768   -14145 
  -10509    -8453    -7014    -7437    -9880    -6455     3210     6427 
       5    -9738   -16602   -11685      626     1621    -9450   -14735 
   -8579    -2755    -6647   -14611   -16503   -14462   -13999   -12313 
   -8989    -7515    -6115    -3226    -2754    -6569   -10435    -8468 
    -969     2790    -2428    -9614   -12291   -10922    -8109    -7176 
   -7817    -8143    -8942    -8399    -6728    -7734    -9042    -8808 
  -10035   -10933    -9516    -9319   -11157   -10960    -7140    -2841 
    -110     1313    -1584   -10368   -16945   -14832    -8881    -6637 
  -10705   -14530   -11824    -9648   -13196   -16286   -15057   -10584 
   -5834    -4754    -5703    -4320    -2674    -4507    -6637    -4203 
     406     1776    -1679    -8550   -13860   -13109   -10470   -10458 
   -8864    -5097    -5578    -9740   -13396   -16521   -16830   -12862 
   -7672    -3445    -3040    -7202   -10658    -9950    -7204    -5259 
   -3743    -2925    -6196   -11205   -11503    -7681    -4989    -7322 
  -12798   -14100    -9796    -6716    -9864   -14727   -12411    -5265 
   -2602    -3904    -4503    -3595    -1999    -4171   -10431   -11981 
   -7203    -4838    -7985   -11877   -12945   -10586    -6585    -6205 
  -11121   -14083    -9787    -3098    -1663    -6805   -12528   -13277 
  -10447    -8652    -9691   -10970    -9404    -6764    -6639    -8484 
   -9510    -8097    -4079     -544    -1281    -4321    -6619    -9784 
  -13162   -12727    -8849    -5215    -4426    -7608   -11874   -11970 
   -9096    -8976   -10729   -10234    -8571    -7052    -4972    -3960 
   -5239    -7191    -8317    -7962    -6697    -6843    -8638    -9726 
  -10235   -11508   -12233   -11296    -9653    -8808    -9423    -9620 
   -8475    -8147    -8039    -6654    -5633    -5152    -5329    -7059 
   -7755    -6454    -6439    -8648   -10079    -8743    -7276    -9032 
  -12104   -12372   -10029    -8181    -8233    -9251    -8761    -5786 
   -3249    -3179    -3875    -4413    -5634    -6658    -6706    -7581 
   -9625   -11769   -13950   -14143   -11601    -9832    -9215    -7821 
   -6986    -7067    -6678    -5811    -4927    -5028    -6540    -7960 
   -8029    -7385    -7546    -8073    -8240    -9605   -11128   -10435 
  -10011   -11862   -13543   -13328   -11443    -9062    -8202    -8194 
   -6735    -4795    -4523    -6123    -7555    -6849    -6187    -7692 
   -9566   -10459    -9722    -7734    -7545    -8966    -8499    -6698 
   -5782    -5363    -5649    -6872    -7923    -9080    -9529    -8064 
   -7237    -7577    -7591    -8411    -8807    -7550    -7466    -8920 
   -9443    -8145    -6069    -5062    -5535    -6324    -6778    -7096 
   -7746    -8878    -9999   -10600   -10679   -10760   -11047   -10386 
   -8347    -6766    -7258    -9100    -9660    -7973    -6583    -7226 
   -8937   -10523   -10948    -9678    -7654    -6663    -7464    -8765 
   -9274    -8959    -8074    -7186    -6764    -7102    -8444    -9640 
   -9323    -8066    -7398    -7778    -7889    -7176    -6930    -6971 
   -6469    -6289    -6837    -7707    -8484    -8668    -8171    -6979 
   -6563    -8378    -9875    -9076    -7924    -7261    -6500    -6862 
   -8938   -10663   -10740    -9860    -8792    -8230    -8141    -7653 
   -6814    -6631    -7233    -7704    -7950    -8448    -8991    -9643 
  -10665   -11227   -10471    -9327    -8860    -8244    -7032    -6367 
   -6735    -7055    -6357    -5798    -6997    -8626    -8750    -8452 
   -9099    -9863    -9849    -9139    -8532    -8550    -8280    -7477 
   -6848    -6326    -6077    -6257    -6588    -7083    -7688    -8691 
   -9634    -9417    -9184    -9886    -9946    -8770    -7479    -7163 
   -8307    -9803   -10035    -8819    -7472    -7430    -7740    -7103 
   -6910    -7734    -8479    -8984    -9121    -9166    -9742    -9726 
   -8226    -6469    -5751    -6126    -6802    -6928    -6517    -6524 
   -7230    -7420    -6943    -7134    -8037    -9116   -10057   -10103 
   -9706    -9517    -8968    -8293    -8098    -8055    -7771    -7393 
   -7391    -8135    -9265    -9440    -8479    -7928    -8289    -8888 
   -9166    -9034    -9009    -9009    -8775    -9008    -9397    -8368 
   -6366    -5640    -6347    -6767    -6740    -7233    -8041    -8410 
   -8325    -8332    -8672    -8834    -8797    -9004    -8949    -8623 
   -8519    -8205    -8114    -8627    -8559    -8013    -8002    -8386 
   -8618    -8145    -7732    -8289    -8567    -8145    -7893    -7578 
   -7136    -7114    -7476    -7793    -8221    -8839    -8938    -8397 
   -7597    -6953    -7257    -8486    -9379    -8910    -7589    -6882 
   -7217    -7889    -8001    -7368    -7237    -8032    -8572    -8993 
   -9562    -8976    -7595    -7053    -7102    -7407    -8472    -9358 
   -9093    -8851    -9764   -10731   -10359    -9185    -8295    -7928 
   -7844    -7354    -6523    -6644    -7854    -8698    -8484    -7994 
   -7419    -6388    -6193    -7511    -8873    -9605    -9370    -8248 
   -8240    -9347    -9285    -8505    -8456    -8307    -7465    -6567 
   -5938    -6131    -7555    -8838    -8901    -8610    -8473    -8383 
   -8553    -8533    -8028    -7929    -8434    -8627    -8748    -9406 
   -9282    -7719    -6561    -6903    -7948    -8702    -8915    -8911 
   -8530    -7677    -7130    -7462    -8275    -8565    -8101    -7811 
   -8067    -8527    -8911    -8684    -7955    -7636    -7719    -7767 
   -7932    -8023    -8024    -8433    -8878    -8563    -7765    -7670 
   -8255    -8217    -7612    -7342    -7615    -8068    -8087    -8070 
   -8451    -8510    -8518    -8977    -9120    -8980    -9126    -8900 
   -8029    -7642    -8133    -8675    -9080    -9647    -9775    -8930 
