Origin Time       2021/08/14 22:38:00
Lat.              37.5
Long.             137.2
Depth. (km)       10
Mag.              4.1
Station Code      ISK006
Station Lat.      37.1602
Station Long.     136.6897
Station Height(m) 80
Record Time       2021/08/14 22:38:30
Sampling Freq(Hz) 100Hz
Duration Time(s)  60
Dir.              U-D
Scale Factor      7845(gal)/8223790
Max. Acc. (gal)   1.035
Last Correction   2021/08/14 22:38:30
Memo.             
[...]
   20171    20170    20166    20169    20170    20170    20170    20166 
   20169    20171    20169    20167    20171    20171    20170    20169 
   20170    20170    20167    20170    20173    20166    20169    20171 
   20166    20167    20166    20163    20171    20170    20164    20170 
   20169    20164    20170    20171    20170    20167    20167    20170 
   20169    20169    20171    20170    20167    20170    20170    20167 
   20169    20171    20173    20167    20164    20171    20171    20166 
   20169    20170    20166    20169    20167    20166    20170    20169 
   20166    20167    20167    20171    20171    20164    20166    20169 
   20169    20169    20169    20167    20169    20167    20167    20170 
   20166    20169    20170    20163    20164    20169    20169    20169 
   20167    20170    20170    20164    20169    20169    20163    20169 
   20173    20169    20170    20170    20166    20170    20167    20163 
   20169    20167    20170    20173    20167    20167    20169    20169 
   20171    20170    20167    20171    20170    20167    20171    20170 
   20167    20171    20170    20169    20167    20167    20169    20169 
   20167    20171    20170    20167    20167    20166    20169    20170 
   20167    20170    20171    20166    20167    20171    20169    20171 
   20171    20166    20166    20170    20170    20169    20166    20170 
   20171    20169    20169    20169    20166    20166    20167    20170 
   20171    20167    20166    20167    20156    20137    20110    20085 
   20092    20140    20209    20258    20233    20155    20124    20167 
   20231    20248    20178    20090    20115    20237    20328    20317 
   20279    20266    20217    20147    20098    20062    20092    20156 
   20167    20144    20119    20116    20121    20106    20120    20144 
   20144    20131    20088    20075    20143    20235    20318    20348 
   20259    20112    20058    20128    20237    20312    20299    20233 
   20185    20163    20162    20132    20047    19982    20005    20109 
   20223    20283    20293    20256    20187    20143    20154    20201 
   20231    20173    20050    19984    20058    20200    20299    20332 
   20283    20171    20066    20047    20124    20181    20171    20163 
   20170    20158    20116    20081    20092    20143    20217    20252 
   20206    20170    20208    20254    20228    20148    20115    20158 
   20240    20314    20272    20121    20039    20100    20218    20275 
   20198    20055    19975    20036    20208    20314    20252    20148 
   20108    20128    20178    20178    20119    20073    20089    20198 
   20317    20328    20260    20214    20194    20147    20098    20083 
   20054    20042    20146    20255    20204    20121    20169    20235 
   20232    20221    20196    20121    20055    20046    20100    20196 
   20295    20344    20275    20174    20150    20132    20079    20098 
   20186    20204    20146    20146    20185    20182    20185    20213 
   20187    20101    20078    20106    20097    20131    20196    20201 
   20239    20308    20264    20148    20097    20155    20271    20313 
   20221    20140    20119    20046    19997    20077    20173    20233 
   20299    20289    20156    20079    20120    20110    20098    20190 
   20235    20164    20083    20113    20232    20255    20209    20227 
   20212    20106    20034    20077    20169    20241    20294    20291 
   20240    20183    20082    19989    20013    20086    20136    20236 
   20374    20387    20259    20135    20061    20011    20039    20147 
   20220    20200    20144    20108    20102    20170    20308    20420 
   20401    20235    20013    19889    19940    20106    20250    20240 
   20125    20067    20115    20237    20356    20337    20214    20140 
   20136    20121    20108    20136    20183    20255    20304    20227 
   20056    19958    20012    20105    20178    20314    20412    20329 
   20179    20098    20097    20120    20135    20115    20048    20024 
   20101    20223    20332    20363    20293    20178    20086    20021 
   20001    20119    20266    20200    20081    20131    20216    20299 
   20359    20279    20160    20086    20019    19996    20092    20272 
   20331    20198    20071    20058    20154    20266    20274    20241 
   20228    20193    20177    20155    20078    20005    19951    19969 
   20125    20306    20439    20476    20320    20059    19886    19907 
   20074    20229    20339    20382    20282    20170    20173    20170 
   20073    19992    20015    20106    20252    20362    20289    20160 
   20167    20245    20264    20189    20073    19997    20004    20052 
   20083    20160    20304    20409    20432    20332    20119    19921 
   19822    19899    20123    20312    20436    20470    20343    20208 
   20129    20051    20052    20069    19992    19977    20048    20125 
   20302    20474    20412    20231    20146    20148    20144    20110 
   20063    19996    19982    20135    20339    20425    20402    20277 
   20112    20034    19973    19924    20028    20216    20313    20304 
   20231    20115    20058    20156    20274    20268    20236    20193 
   20102    20131    20256    20225    20075    19989    19990    20092 
   20251    20379    20362    20150    20012    20063    20083    20137 
   20294    20305    20173    20115    20185    20297    20345    20283 
   20115    19930    19863    19940    20166    20405    20389    20187 
   20131    20239    20283    20210    20125    20024    19908    19936 
   20124    20301    20420    20409    20183    19955    19948    20058 
   20151    20233    20277    20266    20262    20304    20335    20260 
   20098    19957    19950    20077    20181    20169    20089    20104 
   20279    20344    20179    20055    20061    20119    20233    20329 
   20329    20266    20193    20162    20170    20162    20129    20128 
   20163    20133    20029    19994    20092    20243    20340    20331 
   20212    20052    19988    20012    20028    20078    20198    20312 
   20366    20337    20217    20102    20081    20088    20132    20294 
   20397    20314    20212    20170    20140    20101    20077    20081 
   20038    19969    20035    20224    20382    20467    20426    20182 
   19908    19826    19870    19948    20119    20341    20436    20399 
   20370    20304    20163    20113    20112    20036    20035    20147 
   20166    20082    20078    20121    20089    20123    20305    20409 
   20329    20162    20024    20048    20191    20344    20428    20255 
   19962    19892    19981    20092    20193    20214    20250    20326 
   20362    20295    20036    19792    19857    20092    20333    20537 
   20517    20237    19965    19943    20148    20347    20362    20191 
   19966    19882    20009    20216    20410    20538    20409    20077 
   19896    19880    19885    20017    20210    20297    20345    20397 
   20385    20275    20101    19997    19993    20038    20092    20085 
   20079    20150    20239    20379    20532    20528    20376    20174 
   19962    19812    19751    19781    19961    20277    20548    20595 
   20401    20133    19973    19930    19969    20088    20216    20298 
   20358    20356    20283    20229    20202    20127    19966    19832 
   19867    20009    20183    20399    20511    20455    20328    20179 
   20061    19938    19811    19862    20029    20163    20324    20440 
   20407    20309    20194    20129    20160    20128    20009    20028 
   20148    20198    20250    20275    20148    20085    20236    20355 
   20263    20123    20090    20040    20013    20183    20277    20150 
   20116    20164    20154    20209    20293    20255    20164    20120 
   20089    20082    20147    20208    20239    20298    20306    20224 
   20147    20069    19951    19872    19872    19996    20278    20541 
   20592    20421    20156    20001    19993    20065    20152    20190 
   20237    20285    20212    20109    20083    20129    20210    20170 
   20011    19967    20079    20240    20434    20532    20403    20193 
   20029    19932    19942    20024    20038    20002    20115    20321 
   20374    20324    20289    20186    20067    20031    20046    20092 
   20143    20179    20183    20200    20299    20366    20314    20263 
   20202    20086    20059    20139    20163    20106    20066    20088 
   20159    20267    20304    20177    20039    20062    20154    20158 
   20127    20123    20063    20004    20108    20216    20181    20201 
   20262    20248    20344    20472    20344    20154    20123    20028 
   19869    19926    20110    20194    20237    20335    20386    20333 
   20294    20221    20050    20015    20058    19963    20000    20256 
   20398    20309    20154    20117    20160    20160    20200    20218 
   20115    20069    20069    20032    20204    20472    20436    20250 
   20143    19985    19874    19988    20197    20306    20218    20077 
   20051    20097    20210    20306    20177    19988    20007    20132 
   20244    20332    20251    20052    19961    19980    20151    20416 
   20470    20312    20124    20015    20097    20310    20505    20505 
   20156    19770    19799    20127    20380    20414    20286    20143 
   20135    20198    20124    19986    20036    20187    20252    20285 
   20256    20106    19974    19962    20104    20310    20320    20171 
   20137    20206    20139    19947    19962    20217    20391    20389 
   20239    20007    19926    20029    20148    20277    20416    20374 
   20125    19943    19962    20093    20183    20116    20005    20063 
   20266    20433    20437    20262    20075    20131    20352    20440 
   20358    20220    19996    19745    19796    20174    20440    20395 
   20163    19908    19849    20069    20402    20513    20255    20001 
   20020    20154    20293    20343    20206    20032    19967    20036 
   20169    20270    20332    20272    20085    19996    20050    20169 
   20324    20371    20297    20250    20193    20040    19889    19919 
   20066    20178    20367    20567    20501    20304    20241    20245 
   20151    19955    19741    19591    19714    20190    20665    20767 
   20510    20129    19832    19808    20075    20309    20326    20285 
   20169    19978    20002    20173    20167    20102    20110    20067 
   20048    20193    20351    20339    20236    20194    20224    20302 
   20364    20263    19988    19712    19584    19670    20047    20628 
   20981    20850    20470    20054    19776    19842    20135    20328 
   20328    20236    20040    19754    19735    20101    20487    20718 
   20680    20247    19819    19773    19935    20146    20314    20256 
   20097    20051    20063    20048    19939    19905    20210    20557 
   20603    20459    20166    19851    19850    20071    20262    20424 
   20451    20299    20127    19974    19932    20035    20124    20152 
   20136    20119    20191    20285    20336    20366    20336    20281 
   20204    20062    19940    19890    19985    20263    20445    20385 
   20216    19975    19776    19782    19928    20108    20328    20586 
   20745    20660    20443    20209    19973    19897    19989    20042 
   20097    20228    20216    20004    19827    19850    20116    20444 
   20526    20347    20065    19842    19911    20271    20648    20792 
   20517    19845    19241    19238    19773    20325    20614    20687 
   20601    20449    20416    20475    20382    20090    19816    19750 
   19927    20150    20158    20028    19974    20017    20143    20314 
   20405    20395    20353    20239    20038    19888    19899    20102 
   20464    20648    20347    19796    19419    19548    20174    20723 
   20830    20540    20052    19846    20035    20259    20375    20306 
   20051    19857    19890    20150    20498    20686    20572    20229 
   19855    19696    19888    20245    20430    20279    19951    19820 
   19980    20182    20318    20395    20362    20262    20183    20183 
   20236    20239    20208    20155    20028    19934    19965    20079 
   20218    20268    20217    20162    20081    19963    19932    20090 
   20347    20466    20406    20301    20214    20213    20248    20159 
   20046    20083    20210    20402    20595    20483    20000    19525 
   19423    19731    20225    20655    20780    20483    19996    19684 
   19741    20105    20480    20628    20532    20294    20094    20011 
   19993    20043    20104    20019    19865    19870    19990    20112 
   20305    20534    20623    20507    20244    19919    19661    19665 
   19882    20094    20379    20772    20979    20835    20453    20036 
   19724    19576    19619    19723    19781    19930    20275    20699 
   20929    20769    20332    19869    19657    19799    20012    20125 
   20244    20282    20197    20204    20227    20094    20021    20151 
   20305    20367    20421    20452    20333    20143    20005    19900 
   19915    20075    20206    20270    20331    20313    20220    20224 
   20321    20380    20360    20196    19882    19626    19607    19819 
   20117    20407    20638    20645    20360    20015    19805    19778 
   19985    20310    20528    20540    20312    19973    19801    19897 
   20109    20268    20372    20418    20286    20048    19946    20004 
   20198    20494    20587    20314    19909    19542    19359    19602 
   20143    20595    20779    20733    20645    20633    20582    20426 
   20205    19885    19473    19114    19105    19619    20421    21065 
   21253    20995    20552    20194    20021    19924    19724    19511 
   19537    19836    20312    20763    20837    20467    20043    19900 
   20020    20212    20301    20173    19880    19683    19807    20206 
   20584    20636    20316    19900    19661    19661    19893    20235 
   20417    20383    20364    20457    20586    20704    20699    20455 
   20034    19588    19348    19484    19861    20221    20494    20715 
   20804    20628    20301    19942    19561    19450    19793    20291 
   20610    20598    20306    19942    19687    19683    19908    20270 
   20690    20883    20687    20331    19988    19742    19741    19940 
   20185    20344    20336    20279    20308    20339    20325    20259 
   20056    19781    19650    19751    19996    20286    20545    20611 
   20448    20258    20163    20117    20094    20043    19911    19854 
   20062    20351    20456    20424    20351    20235    20148    20159 
   20173    20109    20025    19971    19905    19882    20028    20224 
   20349    20522    20667    20594    20324    19930    19568    19462 
   19668    20052    20412    20659    20831    20837    20609    20282 
   19946    19638    19519    19672    19966    20256    20468    20541 
   20464    20306    20120    19984    19990    20032    20001    20012 
   20090    20113    20083    20117    20241    20387    20511    20507 
   20305    20097    20024    20019    20093    20196    20133    19963 
   19884    19869    19874    20007    20264    20525    20691    20677 
   20490    20247    20063    19973    19944    19985    20038    20007 
   19990    20097    20247    20376    20443    20457    20472    20363 
   20124    19973    19962    20012    20088    20150    20170    20170 
   20132    20009    19880    19889    20007    20125    20262    20459 
   20648    20703    20568    20302    20005    19800    19776    19884 
   20016    20109    20146    20142    20160    20251    20336    20295 
   20166    20065    20036    20090    20190    20272    20310    20301 
   20262    20206    20216    20364    20483    20352    20032    19735 
   19627    19731    19967    20233    20368    20324    20262    20291 
   20375    20409    20331    20209    20110    20036    19993    19963 
   19934    19985    20182    20426    20518    20380    20136    19958 
   19950    20073    20182    20245    20321    20414    20466    20372 
   20155    19942    19811    19816    19932    20078    20206    20268 
   20283    20297    20260    20201    20162    20074    19993    20036 
   20152    20267    20355    20351    20282    20256    20264    20232 
   20136    20019    19940    19924    19950    20007    20117    20299 
   20483    20538    20439    20279    20110    19959    19911    19993 
   20143    20274    20310    20250    20158    20100    20132    20259 
   20340    20254    20085    19961    19946    20035    20125    20179 
   20231    20252    20245    20233    20196    20190    20247    20282 
   20256    20212    20163    20104    20048    20028    20047    20081 
   20133    20204    20251    20266    20266    20227    20144    20062 
   20021    20070    20186    20258    20229    20155    20127    20154 
   20202    20275    20285    20209    20173    20155    20136    20162 
   20136    20039    20001    20061    20164    20247    20286    20290 
   20225    20112    20048    20039    20098    20229    20277    20210 
   20177    20155    20123    20186    20281    20260    20151    20066 
   20054    20082    20169    20308    20345    20279    20250    20201 
   20055    19935    19953    20071    20220    20347    20380    20290 
   20143    20039    20050    20146    20241    20266    20190    20089 
   20081    20177    20301    20340    20264    20146    20032    19996 
   20097    20236    20286    20213    20078    20002    19998    20017 
   20086    20182    20250    20299    20304    20227    20156    20175 
   20228    20251    20250    20216    20144    20079    20073    20104 
   20112    20120    20170    20212    20214    20217    20220    20194 
   20142    20150    20223    20239    20204    20190    20144    20074 
   20097    20223    20312    20279    20175    20063    20021    20112 
   20225    20250    20210    20093    19948    19966    20158    20309 
   20310    20245    20162    20048    20012    20100    20189    20244 
   20277    20220    20108    20050    20098    20241    20366    20339 
   20187    20066    20043    20115    20227    20271    20224    20152 
   20074    20020    20062    20202    20310    20286    20198    20132 
   20097    20113    20154    20181    20201    20196    20162    20142 
   20148    20175    20205    20189    20142    20140    20231    20333 
   20333    20256    20156    20039    20020    20164    20291    20275 
   20162    20002    19911    19955    20061    20197    20336    20405 
   20403    20331    20205    20112    20061    20044    20098    20171 
   20183    20144    20109    20086    20032    19971    19994    20119 
   20255    20329    20329    20287    20228    20198    20252    20313 
   20266    20147    20054    20005    20009    20089    20190    20229 
   20212    20179    20170    20196    20216    20218    20214    20163 
   20092    20081    20137    20191    20193    20175    20174    20190 
   20227    20239    20201    20158    20119    20113    20177    20236 
   20224    20150    20089    20116    20146    20121    20109    20096 
   20097    20187    20299    20347    20329    20275    20205    20104 
   20009    20021    20113    20206    20252    20212    20129    20071 
   20039    20058    20171    20308    20367    20336    20266    20214 
   20173    20110    20062    20048    20063    20097    20127    20170 
   20228    20252    20223    20152    20086    20071    20088    20131 
   20206    20231    20185    20156    20173    20206    20247    20254 
