Origin Time       2021/08/14 22:38:00
Lat.              37.5
Long.             137.2
Depth. (km)       10
Mag.              4.1
Station Code      ISK003
Station Lat.      37.3919
Station Long.     136.9083
Station Height(m) 10
Record Time       2021/08/14 22:38:13
Sampling Freq(Hz) 100Hz
Duration Time(s)  60
Dir.              N-S
Scale Factor      7845(gal)/8223790
Max. Acc. (gal)   3.630
Last Correction   2021/08/14 22:38:12
Memo.             
[...]
   -9209    -9212    -9209    -9209    -9212    -9211    -9208    -9211 
   -9212    -9209    -9209    -9209    -9208    -9211    -9213    -9213 
   -9211    -9209    -9209    -9212    -9213    -9212    -9208    -9204 
   -9208    -9213    -9211    -9209    -9208    -9207    -9212    -9215 
   -9209    -9208    -9213    -9209    -9204    -9208    -9212    -9211 
   -9209    -9209    -9209    -9211    -9212    -9211    -9208    -9209 
   -9209    -9208    -9208    -9209    -9211    -9209    -9209    -9209 
   -9208    -9209    -9212    -9212    -9209    -9207    -9208    -9211 
   -9212    -9208    -9208    -9212    -9211    -9211    -9212    -9208 
   -9207    -9211    -9213    -9209    -9207    -9208    -9209    -9209 
   -9209    -9207    -9205    -9208    -9209    -9208    -9208    -9209 
   -9209    -9209    -9211    -9213    -9211    -9208    -9209    -9209 
   -9211    -9213    -9209    -9207    -9208    -9211    -9211    -9208 
   -9208    -9208    -9207    -9207    -9208    -9208    -9211    -9212 
   -9211    -9209    -9211    -9211    -9209    -9211    -9211    -9209 
   -9209    -9211    -9211    -9211    -9208    -9209    -9211    -9207 
   -9205    -9209    -9211    -9208    -9208    -9211    -9213    -9212 
   -9211    -9211    -9209    -9208    -9211    -9213    -9209    -9205 
   -9207    -9208    -9209    -9212    -9209    -9207    -9209    -9211 
   -9211    -9212    -9209    -9208    -9212    -9215    -9211    -9207 
   -9208    -9211    -9211    -9211    -9211    -9211    -9209    -9209 
   -9212    -9213    -9212    -9209    -9208    -9211    -9209    -9207 
   -9207    -9209    -9211    -9211    -9211    -9208    -9208    -9208 
   -9211    -9209    -9208    -9207    -9209    -9211    -9209    -9208 
   -9209    -9209    -9209    -9209    -9209    -9208    -9208    -9208 
   -9208    -9208    -9207    -9205    -9209    -9211    -9205    -9208 
   -9213    -9209    -9204    -9207    -9208    -9209    -9211    -9209 
   -9208    -9209    -9209    -9207    -9207    -9208    -9209    -9208 
   -9208    -9208    -9211    -9212    -9209    -9207    -9209    -9209 
   -9207    -9209    -9211    -9205    -9207    -9211    -9208    -9207 
   -9211    -9208    -9205    -9207    -9208    -9207    -9207    -9208 
   -9209    -9209    -9211    -9208    -9205    -9207    -9209    -9209 
   -9208    -9211    -9212    -9207    -9207    -9209    -9211    -9212 
   -9209    -9208    -9209    -9209    -9207    -9209    -9212    -9208 
   -9207    -9209    -9211    -9209    -9209    -9212    -9211    -9208 
   -9208    -9209    -9209    -9208    -9205    -9204    -9208    -9212 
   -9211    -9209    -9209    -9211    -9211    -9209    -9207    -9205 
   -9209    -9213    -9209    -9207    -9209    -9211    -9209    -9208 
   -9209    -9209    -9208    -9209    -9211    -9207    -9205    -9208 
   -9208    -9209    -9209    -9209    -9209    -9209    -9209    -9209 
   -9211    -9212    -9208    -9207    -9209    -9208    -9208    -9209 
   -9208    -9211    -9212    -9209    -9209    -9209    -9209    -9212 
   -9213    -9209    -9207    -9212    -9212    -9208    -9209    -9212 
   -9209    -9208    -9208    -9208    -9209    -9208    -9207    -9208 
   -9212    -9213    -9208    -9208    -9211    -9209    -9209    -9213 
   -9209    -9205    -9212    -9212    -9208    -9209    -9208    -9209 
   -9212    -9208    -9205    -9208    -9211    -9212    -9211    -9208 
   -9209    -9209    -9208    -9207    -9208    -9211    -9209    -9208 
   -9211    -9212    -9208    -9207    -9211    -9212    -9209    -9207 
   -9211    -9212    -9208    -9208    -9211    -9208    -9207    -9208 
   -9211    -9212    -9209    -9208    -9208    -9209    -9209    -9211 
   -9211    -9211    -9208    -9207    -9209    -9212    -9213    -9209 
   -9208    -9211    -9211    -9211    -9211    -9208    -9205    -9208 
   -9212    -9209    -9211    -9213    -9211    -9208    -9212    -9212 
   -9207    -9209    -9212    -9208    -9207    -9211    -9212    -9209 
   -9208    -9209    -9212    -9209    -9207    -9208    -9209    -9208 
   -9209    -9209    -9209    -9212    -9212    -9208    -9208    -9211 
   -9209    -9209    -9209    -9205    -9207    -9209    -9209    -9211 
   -9211    -9207    -9207    -9209    -9212    -9211    -9209    -9211 
   -9212    -9209    -9208    -9211    -9213    -9211    -9208    -9207 
   -9211    -9211    -9207    -9205    -9207    -9211    -9211    -9211 
   -9211    -9207    -9205    -9209    -9211    -9209    -9211    -9211 
   -9208    -9209    -9212    -9213    -9209    -9207    -9207    -9211 
   -9211    -9209    -9211    -9209    -9207    -9207    -9209    -9208 
   -9205    -9205    -9209    -9208    -9205    -9208    -9207    -9205 
   -9211    -9211    -9205    -9204    -9208    -9207    -9204    -9207 
   -9209    -9207    -9204    -9207    -9208    -9207    -9208    -9208 
   -9207    -9208    -9208    -9207    -9207    -9207    -9207    -9207 
   -9207    -9207    -9208    -9209    -9208    -9208    -9211    -9209 
   -9207    -9207    -9209    -9209    -9204    -9205    -9212    -9211 
   -9207    -9208    -9209    -9211    -9208    -9207    -9208    -9208 
   -9205    -9207    -9211    -9211    -9207    -9209    -9208    -9205 
   -9207    -9211    -9208    -9207    -9209    -9205    -9202    -9209 
   -9213    -9209    -9207    -9209    -9209    -9209    -9209    -9211 
   -9207    -9207    -9211    -9211    -9209    -9209    -9208    -9209 
   -9209    -9207    -9207    -9208    -9209    -9208    -9208    -9209 
   -9209    -9208    -9208    -9208    -9208    -9208    -9208    -9209 
   -9208    -9209    -9213    -9211    -9208    -9209    -9211    -9208 
   -9205    -9209    -9211    -9208    -9207    -9211    -9209    -9208 
   -9208    -9209    -9211    -9212    -9212    -9209    -9208    -9209 
   -9209    -9211    -9211    -9209    -9208    -9207    -9208    -9209 
   -9208    -9207    -9207    -9209    -9209    -9209    -9207    -9208 
   -9211    -9212    -9208    -9207    -9209    -9208    -9208    -9209 
   -9208    -9208    -9209    -9208    -9205    -9207    -9208    -9208 
   -9211    -9211    -9205    -9208    -9209    -9205    -9207    -9209 
   -9209    -9209    -9208    -9208    -9208    -9208    -9209    -9209 
   -9208    -9208    -9211    -9212    -9211    -9209    -9209    -9207 
   -9207    -9209    -9211    -9209    -9207    -9208    -9211    -9209 
   -9207    -9208    -9209    -9207    -9208    -9212    -9211    -9208 
   -9209    -9209    -9209    -9209    -9207    -9205    -9205    -9208 
   -9209    -9208    -9208    -9208    -9208    -9208    -9208    -9207 
   -9208    -9208    -9205    -9208    -9209    -9205    -9207    -9212 
   -9211    -9205    -9204    -9209    -9212    -9209    -9208    -9208 
   -9207    -9204    -9207    -9212    -9211    -9207    -9208    -9209 
   -9207    -9205    -9209    -9213    -9209    -9204    -9207    -9208 
   -9209    -9211    -9209    -9208    -9209    -9209    -9207    -9209 
   -9211    -9211    -9212    -9209    -9207    -9209    -9211    -9209 
   -9211    -9208    -9205    -9207    -9212    -9211    -9207    -9211 
   -9212    -9207    -9207    -9212    -9211    -9204    -9205    -9211 
   -9211    -9209    -9211    -9209    -9207    -9209    -9211    -9211 
   -9209    -9208    -9208    -9208    -9207    -9209    -9211    -9211 
   -9209    -9208    -9209    -9211    -9208    -9208    -9213    -9212 
   -9207    -9205    -9208    -9211    -9209    -9207    -9207    -9208 
   -9208    -9208    -9209    -9208    -9208    -9211    -9211    -9207 
   -9208    -9211    -9208    -9207    -9208    -9208    -9208    -9209 
   -9211    -9211    -9209    -9209    -9208    -9208    -9208    -9208 
   -9211    -9212    -9207    -9208    -9211    -9208    -9207    -9211 
   -9211    -9209    -9208    -9207    -9208    -9212    -9213    -9211 
   -9209    -9209    -9208    -9205    -9208    -9211    -9205    -9202 
   -9208    -9212    -9208    -9205    -9207    -9208    -9208    -9208 
   -9208    -9211    -9209    -9208    -9209    -9211    -9208    -9209 
   -9212    -9209    -9207    -9209    -9209    -9209    -9209    -9212 
   -9211    -9208    -9209    -9209    -9209    -9212    -9213    -9209 
   -9208    -9211    -9211    -9208    -9207    -9208    -9211    -9209 
   -9207    -9209    -9209    -9208    -9209    -9211    -9209    -9209 
   -9208    -9208    -9208    -9208    -9209    -9211    -9208    -9207 
   -9209    -9211    -9208    -9207    -9207    -9205    -9207    -9209 
   -9209    -9208    -9207    -9205    -9209    -9209    -9204    -9207 
   -9213    -9213    -9207    -9208    -9212    -9211    -9211    -9212 
   -9212    -9209    -9209    -9209    -9209    -9209    -9209    -9208 
   -9209    -9209    -9208    -9211    -9211    -9212    -9211    -9209 
   -9211    -9211    -9209    -9211    -9208    -9207    -9208    -9209 
   -9208    -9209    -9211    -9209    -9208    -9209    -9211    -9209 
   -9209    -9209    -9209    -9211    -9211    -9209    -9207    -9208 
   -9209    -9208    -9209    -9209    -9208    -9209    -9211    -9209 
   -9211    -9211    -9211    -9209    -9208    -9209    -9211    -9211 
   -9209    -9209    -9209    -9208    -9208    -9209    -9211    -9208 
   -9207    -9209    -9211    -9209    -9208    -9209    -9209    -9209 
   -9211    -9211    -9211    -9202    -9175    -9158    -9204    -9313 
   -9389    -9312    -9065    -8777    -8765    -9153    -9494    -9408 
   -9024    -8788    -9351   -10311   -10214    -8974    -8023    -8641 
  -10291   -10416    -8505    -7312    -8365   -10501   -11392    -9657 
   -7574    -8068    -9969   -10384    -8741    -7237    -8095   -10146 
  -10825    -9915    -8588    -8032    -8873   -10103   -10258    -9058 
   -7728    -7929    -9352   -10268   -10002    -9099    -8781    -9622 
  -10538   -10224    -8687    -7686    -8718   -10341   -10152    -8199 
   -6952    -8313   -10612   -10728    -8841    -7642    -8363    -9907 
  -10689   -10384    -9714    -9112    -8595    -8407    -8946    -9844 
   -9796    -8617    -8004    -8698    -9644   -10066    -9852    -9279 
   -8911    -8928    -9305    -9828    -9853    -9142    -8421    -8629 
   -9539    -9722    -8766    -8166    -8800    -9556    -9393    -8799 
   -8797    -9529   -10071    -9809    -9208    -8761    -8559    -8862 
   -9616   -10000    -9532    -8924    -8993    -9432    -9574    -9405 
   -9239    -9232    -9231    -9042    -8861    -8883    -8988    -9134 
   -9267    -9126    -8758    -8745    -9381    -9860    -9432    -8912 
   -9177    -9698    -9841    -9636    -9273    -8981    -8900    -8996 
   -9092    -8939    -8702    -8837    -9323    -9841   -10096    -9655 
   -8783    -8576    -9227    -9757    -9558    -8915    -8490    -8557 
   -8887    -9321    -9632    -9466    -9134    -9115    -9207    -9123 
   -8977    -8972    -9205    -9506    -9556    -9378    -9324    -9459 
   -9347    -8884    -8800    -9413    -9913    -9682    -9062    -8680 
   -8816    -9086    -9142    -9200    -9157    -8780    -8564    -8980 
   -9729   -10087    -9730    -9223    -9228    -9694   -10014    -9575 
   -8641    -8271    -8718    -9205    -9382    -9408    -9243    -8912 
   -8797    -9108    -9375    -9134    -8883    -9244    -9714    -9603 
   -9127    -8839    -9013    -9416    -9512    -9208    -8976    -9086 
   -9211    -9001    -8814    -9225    -9907   -10089    -9732    -9158 
   -8634    -8617    -9081    -9356    -9175    -8742    -8415    -8684 
   -9393    -9809    -9729    -9427    -9224    -9397    -9578    -9169 
   -8556    -8594    -9269    -9701    -9333    -8746    -8819    -9532 
  -10157   -10062    -9321    -8785    -8943    -9192    -8977    -8703 
   -8941    -9450    -9535    -9153    -8912    -9062    -9309    -9437 
   -9456    -9427    -9464    -9497    -9243    -8799    -8664    -8957 
   -9201    -9151    -9069    -9078    -9107    -9185    -9335    -9421 
   -9305    -9228    -9423    -9529    -9344    -9211    -9212    -9116 
   -8965    -8935    -9028    -9185    -9258    -9135    -9065    -9270 
   -9498    -9369    -9081    -9239    -9691    -9664    -9167    -8745 
   -8627    -8988    -9613    -9722    -9240    -8846    -8793    -9112 
   -9683    -9899    -9552    -9105    -8939    -9036    -9055    -8970 
   -9111    -9300    -9259    -9212    -9162    -8931    -8802    -8966 
   -9232    -9440    -9340    -8920    -8804    -9250    -9609    -9360 
   -8895    -8903    -9425    -9899    -9867    -9406    -9078    -9248 
   -9490    -9229    -8737    -8756    -9290    -9489    -9078    -8829 
   -9027    -9258    -9402    -9458    -9362    -9182    -9039    -9169 
   -9483    -9490    -9167    -8924    -9036    -9462    -9621    -9085 
   -8457    -8542    -9246    -9756    -9516    -8969    -8880    -9306 
   -9694    -9517    -9055    -8927    -8976    -9084    -9463    -9680 
   -9508    -9202    -8827    -8869    -9436    -9630    -9298    -9024 
   -8891    -8854    -9063    -9477    -9633    -9246    -8873    -8993 
   -9302    -9447    -9269    -8974    -9039    -9346    -9409    -9074 
   -8707    -8910    -9463    -9701    -9580    -9096    -8722    -9263 
   -9899    -9610    -9020    -8699    -8673    -8941    -9184    -9266 
   -9255    -9243    -9387    -9297    -8856    -8851    -9390    -9879 
   -9969    -9458    -8761    -8657    -9116    -9575    -9624    -9275 
   -9019    -9076    -9146    -9061    -8954    -9055    -9436    -9856 
   -9923    -9521    -9278    -9871   -10696   -10696   -10138   -10088 
  -10771   -11138    -9941    -7419    -5404    -5474    -7354    -8889 
   -8236    -6313    -5628    -7049    -9224   -10706   -11479   -11974 
  -11728   -10204    -8060    -6947    -7996   -10100   -10771    -9169 
   -7076    -6648    -8141   -10258   -11713   -11858   -10797    -9472 
   -9126    -9933   -10507   -10012    -9532    -9778    -9614    -8185 
   -6764    -7257    -9261   -10427    -9652    -8235    -8314   -10133 
  -11250   -10208    -8665    -8511    -9502    -9811    -8243    -6296 
   -6655    -9564   -12295   -12027    -8862    -6141    -6662    -9306 
  -11102   -10829    -9417    -8518    -8935    -9892   -10145    -9536 
   -8811    -8519    -8858    -9589    -9678    -8552    -7499    -8056 
   -9767   -10963   -10743    -9506    -8166    -7464    -7879    -9050 
   -9822    -9859    -9760    -9597    -9224    -9225    -9956   -10773 
  -10762    -9661    -8425    -8181    -8630    -8920    -8962    -8937 
   -9034    -9265    -9165    -8819    -8877    -9223    -9432    -9594 
   -9907   -10257    -9992    -8934    -8310    -9003    -9973    -9657 
   -8262    -7676    -8490    -9169    -8941    -8644    -9012    -9930 
  -10393    -9512    -8239    -8309    -9386    -9757    -9454    -9659 
   -9896    -9076    -8017    -8306    -9775   -10947   -11094   -10463 
   -9394    -8422    -8225    -8962    -9956   -10093    -9112    -8125 
   -8073    -8495    -8579    -8586    -9175    -9902    -9763    -8895 
   -8344    -8567    -9288   -10120   -10575   -10147    -9012    -8401 
   -9100    -9887    -9420    -8391    -7962    -8077    -8284    -8538 
   -8964    -9591   -10062    -9873    -9300    -9146    -9531    -9872 
   -9823    -9444    -8820    -8243    -8340    -9344   -10374   -10172 
   -8783    -7628    -7790    -8962    -9998   -10146    -9684    -9198 
   -9022    -9532   -10528   -10925   -10211    -8999    -8264    -8619 
   -9510    -9848    -9485    -8918    -8518    -8617    -9262    -9880 
   -9575    -8228    -7163    -7473    -8546    -9366    -9695    -9666 
   -9549    -9580    -9606    -9394    -9080    -9019    -9393    -9867 
   -9895    -9524    -9262    -9328    -9571    -9749    -9834    -9918 
   -9760    -9185    -8618    -8557    -8804    -8631    -7939    -7708 
   -8581    -9755   -10160    -9693    -8881    -8505    -9094   -10142 
  -10723   -10453    -9493    -8675    -8792    -9274    -9072    -8387 
   -8136    -8422    -8629    -8646    -8803    -8861    -8533    -8280 
   -8526    -9047    -9370    -9189    -8780    -8897    -9661   -10243 
  -10245   -10176   -10218    -9969    -9410    -9101    -9371    -9734 
   -9690    -9574    -9720    -9697    -9190    -8702    -8730    -9018 
   -9094    -8932    -8815    -8942    -9313    -9923   -10574   -10640 
   -9873    -8959    -8731    -9239    -9640    -9315    -8793    -8606 
   -8469    -8384    -8661    -9042    -9192    -9175    -9049    -8931 
   -9053    -9305    -9485    -9552    -9429    -9211    -9089    -9024 
   -9030    -9105    -8966    -8430    -7896    -8040    -8973   -10050 
  -10450    -9757    -8537    -8000    -8640    -9747   -10376   -10219 
   -9652    -9381    -9690   -10107   -10057    -9513    -9144    -9636 
  -10486   -10513    -9544    -8311    -7546    -7692    -8429    -8986 
   -9112    -8800    -8179    -7888    -8235    -8845    -9370    -9655 
   -9772    -9857    -9810    -9769    -9938    -9942    -9551    -9208 
   -9148    -9185    -9250    -9301    -9194    -8858    -8379    -8116 
   -8446    -9077    -9344    -9242    -9163    -9159    -9163    -9131 
   -9053    -9219    -9675    -9898    -9678    -9184    -8658    -8596 
   -9097    -9583    -9549    -8988    -8517    -8793    -9598   -10227 
  -10258    -9794    -9428    -9529    -9706    -9644    -9587    -9580 
   -9289    -8708    -8363    -8710    -9427    -9744    -9528    -9138 
   -8770    -8594    -8688    -9011    -9490    -9788    -9670    -9313 
   -8968    -8891    -9086    -9157    -8996    -8799    -8721    -8897 
   -9132    -9225    -9360    -9402    -9216    -9220    -9404    -9259 
   -8837    -8645    -8881    -9181    -9177    -9036    -8892    -8660 
   -8608    -8932    -9398    -9740    -9782    -9652    -9614    -9616 
   -9626    -9694    -9679    -9502    -9301    -9310    -9533    -9659 
   -9436    -8986    -8830    -9211    -9504    -9094    -8334    -8086 
   -8621    -9220    -9312    -9220    -9161    -8962    -8796    -8803 
   -8824    -9011    -9539   -10000    -9941    -9432    -8935    -8843 
   -9032    -9094    -8904    -8648    -8710    -9354   -10079   -10087 
   -9494    -9080    -9139    -9406    -9514    -9379    -9385    -9671 
   -9695    -9055    -8202    -8063    -8856    -9617    -9567    -9100 
   -8878    -9051    -9412    -9524    -9256    -9162    -9599    -9980 
   -9702    -9228    -9244    -9541    -9632    -9448    -9192    -9142 
   -9331    -9402    -9107    -8777    -8935    -9490    -9822    -9562 
   -8927    -8472    -8509    -8808    -8937    -8824    -8816    -9000 
   -9038    -8931    -9008    -9229    -9339    -9328    -9364    -9474 
   -9526    -9479    -9402    -9288    -9116    -9016    -9061    -9113 
   -9076    -9094    -9377    -9771    -9817    -9401    -8893    -8664 
   -8834    -9186    -9342    -9246    -9085    -8945    -8966    -9290 
   -9701    -9848    -9628    -9190    -8895    -9081    -9583    -9738 
   -9331    -9062    -9393    -9811    -9792    -9450    -9153    -9105 
   -9207    -9232    -9038    -8657    -8438    -8689    -9193    -9436 
   -9126    -8581    -8542    -9147    -9726    -9883    -9860    -9828 
   -9595    -9078    -8546    -8306    -8491    -9049    -9605    -9674 
   -9246    -8800    -8753    -9059    -9333    -9275    -8951    -8630 
   -8586    -8880    -9171    -9161    -9099    -9251    -9439    -9509 
   -9481    -9239    -8799    -8569    -8784    -9092    -9212    -9313 
