Origin Time       2021/08/14 22:38:00
Lat.              37.5
Long.             137.2
Depth. (km)       10
Mag.              4.1
Station Code      ISK004
Station Lat.      37.3080
Station Long.     137.1470
Station Height(m) 4
Record Time       2021/08/14 22:38:15
Sampling Freq(Hz) 100Hz
Duration Time(s)  60
Dir.              E-W
Scale Factor      7845(gal)/8223790
Max. Acc. (gal)   3.040
Last Correction   2021/08/14 22:38:15
Memo.             
[...]
    -739     -662     -629     -631     -616     -699     -777     -665 
    -581     -650     -787     -862     -735     -614     -583     -540 
    -583     -665     -747     -791     -714     -688     -697     -607 
    -588     -680     -769     -814     -707     -618     -668     -619 
    -592     -687     -726     -751     -683     -560     -622     -778 
    -842     -727     -627     -654     -637     -675     -733     -661 
    -623     -634     -635     -696     -764     -735     -673     -683 
    -673     -611     -630     -680     -745     -823     -680     -506 
    -637     -724     -680     -731     -699     -696     -715     -580 
    -672     -791     -649     -681     -726     -635     -722     -715 
    -568     -625     -680     -649     -741     -747     -652     -693 
    -699     -662     -722     -700     -665     -731     -711     -664 
    -706     -688     -622     -648     -691     -677     -692     -695 
    -656     -697     -712     -633     -660     -733     -697     -672 
    -692     -656     -650     -708     -692     -653     -706     -719 
    -677     -702     -693     -641     -676     -695     -684     -746 
    -719     -618     -662     -718     -676     -675     -673     -634 
    -669     -707     -673     -691     -730     -666     -629     -700 
    -700     -664     -719     -707     -641     -688     -712     -650 
    -666     -708     -680     -689     -699     -649     -692     -737 
    -652     -653     -714     -666     -677     -723     -669     -670 
    -723     -691     -670     -684     -653     -639     -679     -673 
    -657     -703     -692     -650     -712     -723     -652     -680 
    -704     -668     -700     -708     -664     -697     -707     -661 
    -689     -704     -662     -675     -681     -648     -680     -715 
    -666     -660     -707     -689     -658     -677     -668     -669 
    -710     -688     -670     -716     -685     -638     -689     -693 
    -666     -712     -699     -652     -691     -703     -679     -707 
    -691     -653     -699     -706     -658     -687     -691     -645 
    -684     -715     -673     -681     -703     -668     -675     -703 
    -676     -670     -687     -668     -673     -700     -684     -675 
    -689     -680     -676     -687     -679     -673     -688     -681 
    -670     -706     -707     -661     -668     -693     -679     -689 
    -704     -684     -687     -707     -696     -681     -684     -679 
    -673     -684     -687     -679     -683     -688     -677     -657 
    -653     -666     -680     -689     -693     -685     -681     -683 
    -676     -677     -683     -680     -689     -695     -681     -687 
    -703     -696     -681     -684     -697     -697     -681     -670 
    -676     -680     -675     -679     -683     -684     -683     -670 
    -675     -689     -677     -673     -688     -687     -680     -681 
    -683     -691     -695     -685     -687     -692     -680     -670 
    -673     -680     -685     -687     -692     -696     -683     -672 
    -679     -688     -687     -677     -676     -684     -688     -679 
    -670     -681     -697     -693     -679     -680     -689     -685 
    -680     -679     -668     -665     -679     -696     -700     -679 
    -658     -675     -703     -708     -693     -683     -685     -692 
    -692     -675     -668     -693     -706     -687     -681     -677 
    -662     -668     -688     -687     -677     -691     -710     -697 
    -675     -676     -688     -691     -689     -670     -654     -681 
    -706     -691     -670     -669     -688     -695     -676     -662 
    -673     -683     -680     -681     -691     -688     -673     -675 
    -691     -689     -679     -691     -699     -680     -675     -684 
    -681     -683     -687     -677     -673     -675     -680     -688 
    -687     -680     -680     -688     -695     -687     -670     -666 
    -681     -692     -687     -679     -681     -688     -692     -687 
    -672     -672     -688     -693     -681     -677     -684     -680 
    -679     -688     -684     -679     -689     -685     -673     -683 
    -693     -687     -683     -685     -685     -687     -684     -679 
    -685     -697     -695     -683     -679     -679     -675     -672 
    -683     -691     -691     -689     -681     -675     -680     -681 
    -684     -684     -675     -677     -688     -684     -680     -687 
    -681     -677     -680     -679     -680     -683     -684     -681 
    -684     -693     -693     -692     -692     -677     -666     -684 
    -691     -680     -684     -688     -676     -679     -693     -683 
    -670     -679     -680     -675     -681     -687     -679     -680 
    -695     -693     -683     -680     -677     -670     -670     -673 
    -680     -692     -684     -677     -689     -681     -673     -684 
    -684     -685     -687     -681     -680     -681     -681     -681 
    -685     -692     -688     -680     -683     -683     -685     -689 
    -687     -687     -673     -668     -680     -679     -679     -677 
    -675     -683     -684     -683     -683     -684     -695     -692 
    -680     -680     -681     -680     -683     -687     -692     -689 
    -683     -687     -683     -676     -683     -685     -680     -681 
    -683     -680     -680     -677     -675     -681     -683     -679 
    -677     -681     -691     -693     -688     -683     -684     -693 
    -687     -672     -675     -683     -692     -697     -693     -689 
    -683     -670     -672     -685     -689     -675     -668     -679 
    -688     -683     -665     -664     -681     -681     -680     -697 
    -700     -691     -689     -688     -687     -687     -685     -676 
    -676     -691     -693     -681     -685     -693     -683     -675 
    -679     -675     -670     -676     -680     -688     -692     -681 
    -673     -679     -683     -680     -673     -688     -706     -695 
    -684     -684     -679     -681     -685     -672     -658     -665 
    -683     -689     -683     -679     -692     -697     -685     -679 
    -681     -684     -684     -681     -683     -684     -679     -680 
    -683     -675     -676     -688     -692     -691     -691     -691 
    -689     -684     -677     -680     -681     -677     -681     -683 
    -677     -675     -679     -687     -680     -664     -668     -688 
    -691     -685     -684     -680     -677     -681     -681     -680 
    -681     -683     -687     -695     -695     -685     -680     -684 
    -689     -688     -685     -683     -677     -676     -681     -684 
    -683     -676     -670     -680     -688     -679     -676     -685 
    -693     -695     -689     -683     -681     -681     -681     -683 
    -685     -685     -681     -677     -677     -679     -680     -680 
    -684     -687     -683     -681     -680     -675     -679     -685 
    -683     -681     -684     -687     -688     -687     -683     -684 
    -687     -685     -683     -684     -684     -685     -681     -675 
    -677     -687     -688     -687     -687     -685     -683     -680 
    -680     -680     -680     -681     -683     -681     -679     -679 
    -683     -683     -680     -684     -687     -687     -689     -687 
    -677     -680     -687     -687     -685     -687     -684     -684 
    -684     -681     -680     -680     -683     -680     -676     -681 
    -685     -685     -687     -688     -681     -676     -679     -684 
    -685     -688     -689     -687     -688     -687     -680     -677 
    -676     -673     -680     -685     -680     -675     -676     -681 
    -683     -684     -684     -681     -680     -685     -688     -688 
    -689     -683     -680     -685     -685     -683     -684     -683 
    -683     -685     -688     -684     -676     -676     -681     -685 
    -679     -675     -679     -683     -683     -681     -677     -676 
    -683     -691     -693     -685     -684     -685     -677     -675 
    -685     -693     -691     -683     -676     -679     -684     -691 
    -693     -687     -680     -675     -673     -679     -684     -684 
    -680     -683     -683     -680     -680     -680     -676     -679 
    -692     -696     -687     -681     -684     -687     -683     -685 
    -688     -680     -681     -688     -691     -681     -668     -672 
    -679     -685     -692     -684     -685     -684     -675     -687 
    -685     -676     -683     -672     -672     -684     -677     -679 
    -677     -679     -692     -684     -684     -695     -685     -691 
    -687     -675     -683     -677     -683     -691     -675     -683 
    -688     -679     -684     -672     -672     -685     -680     -688 
    -685     -679     -693     -684     -680     -684     -676     -685 
    -683     -680     -697     -689     -677     -677     -669     -675 
    -677     -681     -687     -677     -683     -687     -681     -691 
    -692     -687     -688     -683     -675     -673     -680     -688 
    -687     -683     -681     -681     -681     -684     -680     -673 
    -677     -676     -676     -684     -689     -687     -683     -685 
    -687     -680     -679     -680     -680     -677     -683     -687 
    -684     -684     -679     -683     -691     -685     -685     -684 
    -677     -677     -679     -679     -681     -689     -683     -675 
    -683     -683     -685     -684     -677     -681     -685     -685 
    -685     -681     -668     -672     -692     -691     -680     -679 
    -666     -661     -680     -692     -687     -683     -681     -693 
    -691     -675     -718     -762     -692     -619     -677     -729 
    -689     -665     -657     -596     -530     -575     -761     -876 
    -722     -567     -666     -735     -648     -692     -814     -764 
    -653     -661     -704     -657     -673     -837     -891     -722 
    -503     -423     -518     -606     -673     -843     -845     -550 
    -415     -629     -795     -726     -727     -850     -761     -604 
    -672     -689     -533     -576     -859     -943     -819     -822 
    -797     -587     -436     -542     -765     -693     -475     -585 
    -808     -849     -776     -629     -533     -554     -535     -427 
    -468     -703     -796     -841    -1007     -851     -517     -608 
    -849     -814     -749     -880     -967     -810     -573     -410 
    -398     -552     -661     -757     -888     -654     -325     -673 
   -1053     -560      -24     -255     -715     -903     -908     -841 
    -810     -874     -826     -738     -861     -812     -522     -572 
    -774     -722     -730     -801     -615     -461     -630     -820 
    -820     -608     -209     -121     -486     -603     -533     -903 
   -1123     -741     -738    -1063     -720     -367     -612     -811 
    -967    -1129     -851     -583     -811     -990     -722     -345 
    -167     -245     -414     -365     -456     -972    -1173     -908 
    -773     -619     -365     -544     -963     -895     -594     -720 
    -882     -662     -525     -549     -392     -322     -642    -1078 
   -1320    -1152     -531       -8     -191     -776     -984     -877 
    -984    -1100     -789     -363     -461     -842     -734     -440 
    -514     -510     -342     -521     -800     -774     -710     -815 
    -919     -885     -661     -261     -145     -637    -1005     -835 
    -792     -886     -789     -874    -1020     -797     -549     -577 
    -742     -893     -795     -364      -49     -189     -495     -688 
    -814     -915     -926     -707     -378     -321     -550     -818 
   -1042    -1171    -1036     -631     -409     -571     -766    -1012 
   -1225     -839     -259     -452     -950     -741     -369     -561 
    -572     -309     -564     -741     -371     -346     -724     -781 
    -664     -804     -918     -807     -791     -826     -851     -966 
    -734     -328     -446     -656     -652     -969    -1115     -608 
    -414     -607     -391     -448    -1039    -1026     -695     -737 
    -473      -89     -318     -791    -1194    -1323     -904     -433 
    -384     -415     -271     -417     -800     -865     -982    -1190 
    -857     -436     -426     -438     -564     -966     -931     -461 
    -457     -666     -656     -932    -1170     -980     -999     -878 
    -352     -291     -322     -184     -643    -1053     -765     -415 
    -422     -876    -1267     -901     -305      -90       58       71 
    -449    -1066    -1318    -1347    -1316    -1561    -1906    -1713 
   -1331     -857      -20      317       97      153       68     -276 
    -211     -191     -564     -459      -20     -205     -598     -708 
    -963    -1019     -471     -352    -1154    -1714    -1800    -2014 
   -1575     -560     -414     -692     -631     -881    -1062     -587 
    -248     -367     -754    -1460    -1648     -719      365      965 
    1096      596     -222     -845    -1156    -1189    -1003     -828 
    -531      295      614     -568    -2045    -2829    -2917    -2150 
   -1086     -864    -1371    -1201     -276      348      761      831 
     209     -481    -1169    -1602     -981      237     1078     1193 
     878      554      -85    -1139    -1764    -1684    -1806    -2284 
   -2223    -1691    -1147     -376      152      -68     -534    -1102 
   -1748    -2091    -2316    -2385    -1520      172     1385     1578 
    1159      133    -1109    -1814    -2061    -1630      -93     1561 
    2115     1719     1019      -28    -1571    -3091    -3869    -3531 
   -2226     -616      375      392      243      284     -232     -851 
    -888    -1152    -1587    -1526    -1379    -1260     -868     -125 
     595      498     -183     -398     -162     -222     -837    -1842 
   -2594    -1939     -101     1170     1359      965     -112    -1451 
   -2093    -1957    -1568    -1435    -1787    -2015    -1362     -194 
     576      650      282     -388    -1289    -1907    -1929    -1597 
    -946      -90      438      716     1242     1541      855     -318 
   -1200    -1761    -2060    -2056    -1764    -1278     -689       76 
     792      739     -341    -1711    -2570    -2713    -2073     -865 
      79      -10     -945    -1499     -876      288      877      319 
    -808    -1198     -522      382      805      672      334       14 
    -352     -666     -835    -1169    -1961    -2929    -3545    -3588 
   -2961    -1830     -770       71      823      965      102     -931 
   -1252    -1140     -672      552     1761     1966     1463      610 
    -589    -1409    -1165     -425      -25     -297    -1360    -2593 
   -2916    -2281    -1387     -611     -278     -486     -649     -635 
    -986    -1421    -1278     -895     -814     -772     -334      346 
     616       86     -668     -942     -892     -737     -464     -413 
    -751    -1163    -1321    -1156     -812     -496     -487     -623 
    -322       79     -186     -866    -1350    -1409    -1057     -550 
    -167      -43     -143     -342     -629     -909     -961     -854 
   -1007    -1394    -1426    -1129     -989     -729      -58      411 
     338      152      -35     -464     -993    -1385    -1593    -1366 
    -766     -484     -529     -460     -641    -1166    -1462    -1534 
   -1505    -1198     -803     -542     -264      183      598      549 
     -35     -815    -1290    -1206     -939     -824     -712     -639 
    -673     -507     -298     -476     -831    -1092    -1112     -727 
    -282       27      419      481     -144     -843    -1314    -1788 
   -1800    -1163     -803     -897     -859     -839     -878     -564 
       0      317      -22     -855    -1534    -1792    -1640    -1082 
    -467     -135       33      120      -70     -499     -866     -882 
    -432      145      271     -251    -1092    -1651    -1709    -1586 
   -1335     -954     -889    -1297    -1737    -1694    -1070     -292 
     203      294      152       37      -58     -240     -363     -387 
    -513     -599     -442     -380     -591     -855    -1073    -1043 
    -685     -419     -534     -884    -1323    -1811    -2112    -1895 
   -1181     -367      139      341      430      240     -338    -1065 
   -1779    -2100    -1567     -583       45      122       55      166 
     197     -118     -529     -672     -459     -174     -160     -498 
   -1081    -1660    -1992    -2053    -1941    -1825    -1804    -1587 
    -940     -276       55      280      508      479       82     -446 
    -784     -733     -418     -238     -298     -322     -195     -120 
    -263     -477     -552     -567     -718     -943    -1043    -1069 
   -1200    -1341    -1296    -1120     -969    -1011    -1397    -1702 
   -1398     -923     -720     -459     -209     -487    -1136    -1475 
   -1181     -542       22      454      780      706      135     -405 
    -507     -311      -45       -6     -410     -932    -1170    -1175 
   -1084     -870     -658     -762    -1229    -1676    -1730    -1413 
   -1019     -696     -467     -472     -627     -645     -703    -1073 
   -1402    -1304     -931     -406      261      688      572      118 
    -495    -1185    -1567    -1291     -627     -225     -334     -576 
    -711     -940    -1173    -1198    -1181    -1084     -797     -468 
    -160      -56     -329     -602     -544     -434     -693    -1340 
   -1948    -2077    -1669     -916       52      985     1289      756 
       2     -460     -789    -1119    -1201     -904     -448      -94 
     -31     -390    -1084    -1821    -2263    -2201    -1795    -1325 
    -877     -525     -286      -35      148       99      -18     -105 
    -398     -943    -1310    -1134     -653     -336     -287     -444 
    -689     -880    -1093    -1363    -1556    -1570    -1197     -506 
      87      498      608       40     -878    -1420    -1583    -1590 
   -1323     -888     -530     -387     -513     -569     -274       29 
      -1     -255     -542     -881    -1278    -1413    -1105     -700 
    -398      -83       60     -222     -708    -1035    -1169    -1200 
   -1044     -575       52      386      240      -62     -444    -1115 
   -1756    -1918    -1750    -1472    -1026     -545     -337     -411 
    -626     -814     -734     -515     -533     -784    -1012     -909 
    -333      301      503      287     -156     -735    -1278    -1575 
   -1485     -936     -255      130      259      234      -91     -768 
   -1377    -1360     -926     -712     -808     -954    -1016    -1034 
   -1038    -1003    -1015    -1034     -961     -989    -1134    -1096 
    -834     -557     -267       49      -18     -627    -1260    -1622 
   -1690    -1198     -245      419      383       62     -139     -198 
    -157     -228     -562     -780     -616     -475     -706    -1129 
   -1433    -1445    -1175     -841     -652     -703     -954    -1090 
    -796     -271       12      -71     -361     -739     -997    -1000 
    -895     -803     -737     -753     -855     -935     -822     -513 
    -363     -631    -1000    -1038     -818     -564     -352     -276 
    -294     -286     -338     -583     -934    -1125    -1089    -1092 
   -1242    -1333    -1252    -1058     -769     -438     -243     -226 
    -228     -128      -63     -216     -487     -729     -931     -955 
