Origin Time       2021/08/14 22:38:00
Lat.              37.5
Long.             137.2
Depth. (km)       10
Mag.              4.1
Station Code      ISK015
Station Lat.      37.2265
Station Long.     136.9087
Station Height(m) 3
Record Time       2021/08/14 22:38:20
Sampling Freq(Hz) 100Hz
Duration Time(s)  60
Dir.              E-W
Scale Factor      7845(gal)/8223790
Max. Acc. (gal)   6.641
Last Correction   2021/08/14 22:38:20
Memo.             
[...]
    7967     7967     7970     7974     7971     7969     7970     7967 
    7967     7970     7969     7966     7969     7971     7971     7970 
    7971     7971     7967     7967     7970     7970     7967     7969 
    7970     7969     7970     7970     7967     7967     7969     7969 
    7967     7970     7970     7969     7970     7970     7970     7970 
    7966     7966     7969     7967     7967     7971     7971     7967 
    7967     7970     7969     7965     7967     7971     7969     7970 
    7971     7967     7966     7969     7967     7966     7969     7971 
    7971     7969     7970     7970     7970     7969     7967     7966 
    7967     7969     7970     7970     7970     7971     7973     7971 
    7969     7966     7966     7970     7970     7969     7970     7973 
    7971     7966     7966     7971     7970     7969     7971     7973 
    7971     7971     7971     7969     7966     7967     7969     7971 
    7971     7971     7971     7971     7970     7969     7967     7969 
    7969     7969     7970     7974     7973     7969     7969     7969 
    7969     7967     7967     7967     7970     7974     7973     7970 
    7969     7970     7970     7969     7969     7970     7971     7973 
    7971     7970     7966     7966     7969     7969     7967     7969 
    7971     7969     7969     7971     7971     7970     7970     7966 
    7969     7971     7971     7971     7971     7969     7969     7969 
    7970     7971     7970     7970     7974     7971     7969     7971 
    7973     7970     7970     7971     7970     7969     7971     7971 
    7971     7971     7970     7970     7969     7969     7970     7970 
    7970     7971     7969     7967     7969     7970     7969     7967 
    7969     7970     7970     7969     7969     7970     7970     7969 
    7970     7970     7969     7970     7971     7969     7969     7971 
    7970     7967     7967     7969     7967     7970     7969     7966 
    7971     7973     7969     7970     7969     7965     7969     7973 
    7970     7970     7971     7971     7970     7967     7967     7967 
    7971     7974     7971     7970     7969     7969     7969     7969 
    7967     7967     7969     7971     7973     7971     7970     7970 
    7971     7970     7967     7966     7970     7970     7969     7971 
    7974     7973     7971     7970     7967     7966     7970     7971 
    7969     7970     7973     7971     7970     7969     7967     7970 
    7971     7970     7973     7973     7970     7969     7969     7970 
    7970     7969     7967     7969     7970     7970     7971     7969 
    7969     7971     7969     7967     7970     7971     7970     7973 
    7973     7969     7969     7971     7970     7969     7969     7970 
    7970     7971     7970     7967     7966     7966     7967     7969 
    7969     7971     7974     7971     7969     7970     7970     7969 
    7969     7969     7970     7970     7970     7973     7971     7970 
    7971     7970     7966     7967     7970     7970     7971     7971 
    7971     7969     7970     7973     7969     7966     7969     7973 
    7971     7973     7973     7969     7965     7965     7967     7969 
    7970     7970     7969     7971     7973     7971     7970     7970 
    7969     7969     7969     7969     7971     7974     7971     7971 
    7970     7965     7966     7970     7970     7970     7971     7973 
    7971     7970     7969     7969     7969     7966     7967     7971 
    7971     7971     7971     7969     7966     7969     7971     7970 
    7969     7970     7971     7971     7973     7973     7971     7970 
    7969     7970     7971     7970     7970     7973     7971     7967 
    7969     7969     7965     7966     7967     7967     7969     7974 
    7973     7966     7967     7970     7967     7966     7970     7970 
    7967     7967     7970     7970     7969     7969     7967     7966 
    7969     7971     7970     7969     7971     7971     7969     7965 
    7967     7969     7967     7969     7974     7973     7970     7971 
    7970     7967     7966     7967     7970     7969     7971     7975 
    7971     7969     7970     7969     7967     7970     7970     7970 
    7971     7973     7970     7970     7971     7969     7966     7969 
    7971     7969     7970     7973     7974     7971     7969     7969 
    7969     7969     7970     7970     7970     7971     7970     7969 
    7970     7970     7967     7967     7970     7969     7967     7970 
    7971     7967     7966     7969     7969     7966     7969     7970 
    7970     7970     7970     7970     7971     7971     7967     7967 
    7971     7970     7967     7969     7971     7970     7970     7970 
    7970     7967     7969     7971     7971     7970     7971     7971 
    7970     7971     7970     7965     7966     7974     7974     7970 
    7971     7970     7965     7966     7969     7969     7969     7971 
    7971     7970     7973     7970     7966     7969     7970     7967 
    7969     7970     7970     7969     7969     7970     7971     7970 
    7966     7969     7973     7971     7973     7973     7970     7970 
    7971     7970     7967     7967     7971     7974     7971     7973 
    7973     7969     7967     7969     7967     7967     7973     7974 
    7973     7971     7969     7967     7970     7969     7966     7966 
    7970     7970     7971     7973     7973     7970     7970     7970 
    7966     7966     7971     7970     7970     7970     7970     7971 
    7971     7970     7969     7969     7970     7973     7973     7971 
    7971     7971     7970     7966     7966     7969     7969     7969 
    7971     7973     7969     7969     7969     7969     7969     7969 
    7970     7970     7969     7970     7970     7969     7970     7970 
    7969     7967     7967     7971     7970     7969     7970     7973 
    7970     7967     7966     7967     7970     7971     7974     7973 
    7970     7971     7969     7966     7967     7969     7967     7969 
    7973     7974     7974     7973     7969     7967     7967     7966 
    7967     7970     7970     7970     7971     7971     7970     7971 
    7971     7970     7970     7970     7970     7971     7973     7971 
    7969     7967     7970     7973     7973     7971     7971     7971 
    7971     7971     7970     7969     7969     7969     7969     7971 
    7970     7971     7974     7970     7967     7969     7967     7966 
    7967     7970     7970     7969     7969     7970     7970     7969 
    7969     7969     7970     7970     7967     7970     7971     7967 
    7967     7969     7966     7969     7971     7971     7973     7971 
    7969     7969     7969     7969     7970     7971     7969     7969 
    7971     7971     7971     7973     7973     7971     7970     7969 
    7970     7970     7971     7970     7970     7969     7967     7969 
    7970     7970     7971     7973     7971     7971     7971     7970 
    7970     7971     7969     7967     7970     7971     7971     7971 
    7971     7969     7969     7971     7969     7969     7970     7970 
    7971     7973     7969     7969     7970     7970     7970     7971 
    7971     7973     7973     7973     7973     7970     7970     7970 
    7966     7969     7971     7971     7974     7973     7971     7971 
    7970     7969     7969     7967     7970     7973     7971     7970 
    7973     7969     7967     7971     7971     7970     7969     7971 
    7975     7974     7969     7971     7971     7967     7970     7974 
    7973     7971     7974     7974     7970     7969     7970     7970 
    7967     7969     7973     7973     7971     7971     7973     7970 
    7969     7970     7970     7967     7970     7974     7973     7971 
    7973     7973     7971     7970     7970     7970     7969     7969 
    7971     7971     7970     7971     7969     7969     7973     7974 
    7971     7971     7974     7973     7970     7970     7971     7971 
    7969     7969     7971     7970     7971     7975     7974     7970 
    7970     7969     7966     7967     7967     7969     7973     7971 
    7969     7973     7971     7967     7969     7971     7973     7973 
    7973     7974     7973     7970     7969     7970     7969     7969 
    7971     7971     7973     7975     7973     7970     7969     7969 
    7967     7969     7970     7977     7982     7979     7985     8017 
    8071     8094     8014     7855     7722     7717     7912     8133 
    8056     7788     7801     8167     8463     8310     7746     7346 
    7676     8325     8343     7708     7376     7915     8716     8737 
    7971     7491     7815     8218     8023     7581     7554     7966 
    8237     8005     7665     7747     8141     8326     8089     7873 
    8078     8276     8014     7665     7709     8020     8158     7935 
    7645     7719     8133     8392     8252     7983     7813     7851 
    8129     8278     7989     7557     7381     7568     8005     8343 
    8245     7908     7836     8190     8581     8440     7782     7252 
    7260     7699     8202     8459     8406     8171     7975     7955 
    7959     7803     7620     7636     7852     8168     8428     8352 
    7993     7747     7693     7744     7928     8066     8066     8056 
    8060     8067     8020     7885     7803     7863     7969     7971 
    7942     8051     8232     8260     8032     7762     7715     7792 
    7886     8028     8095     8008     7863     7792     7863     8035 
    8178     8141     7915     7754     7888     8189     8248     7966 
    7762     7859     8047     8176     8178     8093     8008     7807 
    7589     7661     7939     8118     8098     7983     7878     7881 
    8036     8129     8005     7885     7954     8149     8256     8085 
    7813     7723     7759     7782     7842     7963     8062     8178 
    8270     8197     8083     7967     7750     7647     7786     7902 
    7913     7996     8100     8137     8140     8020     7846     7942 
    8240     8279     7915     7547     7593     7906     8104     8108 
    7986     7908     8047     8167     8052     7912     7813     7673 
    7704     8000     8241     8181     7978     7913     7983     8023 
    7994     7950     7939     7959     8039     8197     8212     7989 
    7840     7885     7904     7857     7832     7819     7832     7950 
    8139     8197     8028     7763     7642     7793     7983     8067 
    8175     8239     8202     8182     8078     7840     7739     7879 
    7994     7932     7828     7834     7992     8152     8113     7989 
    7944     7834     7689     7774     8047     8253     8259     8101 
    7950     7920     7921     7875     7894     7983     7966     7877 
    7927     8079     8132     8070     7931     7720     7673     7924 
    8182     8176     7969     7834     8004     8236     8136     7879 
    7801     7817     7820     7946     8116     8109     8079     8118 
    8094     8064     7983     7792     7692     7724     7766     7835 
    7947     8025     8162     8382     8328     7919     7592     7581 
    7859     8278     8448     8189     7846     7734     7726     7753 
    7967     8203     8166     7996     7973     7985     7873     7782 
    7838     8010     8214     8280     8133     7865     7609     7581 
    7924     8293     8230     7935     7788     7796     7925     8075 
    8059     7990     8068     8168     8158     8097     7977     7800 
    7693     7701     7801     7979     8135     8143     8098     8087 
    8010     7869     7761     7740     7830     7969     8100     8185 
    8160     8055     7978     7927     7786     7662     7842     8217 
    8374     8257     8048     7866     7828     7884     7821     7680 
    7754     7992     8125     8243     8259     7971     7696     7735 
    7912     7985     8046     8135     8016     7881     7970     7981 
    7854     7823     7925     8108     8149     7946     7878     8144 
    8306     8114     7902     7827     7739     7765     7971     8067 
    7983     7959     7989     7958     7963     8037     8094     8094 
    7990     7867     7892     7959     7940     7942     8014     8019 
    7878     7761     7774     7855     7974     8093     8193     8226 
    8087     7850     7734     7773     7850     8039     8305     8344 
    8185     8051     7906     7754     7712     7803     7938     7973 
    7925     7960     8055     8074     8037     8021     7987     7971 
    8028     7951     7686     7643     7966     8249     8221     8056 
    7965     7902     7830     7881     8024     8105     8195     8218 
    7967     7685     7746     7952     7939     7927     8055     7977 
    7758     7739     7850     7940     8056     8160     8132     8050 
    7946     7792     7871     8118     8040     7865     7959     8000 
    7955     8214     8496     8307     7978     7882     7797     7723 
    7803     7808     7720     7785     8064     8368     8345     7963 
    7605     7512     7638     7890     8145     8280     8333     8330 
    8151     7911     7879     7902     7755     7646     7777     8013 
    8141     7997     7676     7631     7973     8272     8355     8321 
    8112     7851     7877     8037     8023     8089     8306     8262 
    8064     7989     7690     7121     6813     6986     7585     8432 
    8996     8968     8523     7843     7140     6704     6606     7192 
    9011    11530    13219    13076    11168     8028     4531     1900 
    1008     2204     5364     9208    11780    12048    10166     7164 
    4945     4734     5965     7916    10300    12172    12522    11138 
    8233     4618     2258     3048     6820    11407    14165    13695 
   10709     6697     3113     1949     4110     7842    10991    12532 
   11734     8943     6280     5476     6180     7518     9271    10551 
   10197     8656     7268     6444     5863     5632     5958     6616 
    7554     8725     9525     9327     8424     7765     7641     7847 
    8230     8325     8021     7780     7707     7740     7975     8305 
    8540     8500     7950     7001     6388     6933     8576    10141 
   10455     9441     7890     6650     6201     6632     7630     8515 
    8887     9081     9265     8806     7479     6327     6403     7472 
    8727     9671     9733     8629     7194     6334     6053     6451 
    7788     9406    10270     9832     7943     5393     4128     5290 
    7686     9486    10187    10089     9378     8297     7323     7009 
    7443     8087     8486     8411     7859     7358     7480     8124 
    8664     8710     8221     7348     6652     6613     7373     8811 
   10044    10154     9189     7888     6968     6651     6907     7569 
    8152     8413     8546     8533     8054     7149     6548     6936 
    8021     8873     8914     8220     7412     7030     7148     7734 
    8449     8662     8401     8225     8176     7952     7732     7751 
    7893     8010     8006     8031     8318     8548     8197     7396 
    6829     6782     7138     7935     8789     8935     8487     8031 
    7666     7677     8392     9271     9524     8928     7900     7226 
    7384     8037     8360     7967     7333     7152     7472     7672 
    7612     7823     8183     8082     7804     8079     8669     8818 
    8571     8179     7512     6951     7005     7398     7681     7776 
    7852     8060     8361     8635     8703     8468     8031     7643 
    7568     7623     7431     7279     7784     8718     9232     8901 
    8019     7335     7371     7909     8499     8888     8797     8033 
    7072     6677     6945     7461     8010     8572     8954     8997 
    8783     8347     7728     7195     7103     7530     8131     8403 
    8158     7628     7102     6794     6868     7322     8118     9031 
    9544     9350     8629     7932     7611     7372     7009     6918 
    7252     7587     7699     7900     8505     9140     9186     8793 
    8338     7743     7210     7227     7592     7825     8148     8833 
    9460     9513     9074     8540     7904     7146     6706     6862 
    7403     7794     7707     7561     7722     7839     7653     7542 
    7847     8271     8380     8100     7678     7522     7699     7921 
    8055     8151     8297     8503     8610     8517     8303     8001 
    7582     7161     6968     7200     7842     8580     9045     8980 
    8338     7457     6867     6966     7643     8289     8575     8683 
    8877     9192     9221     8544     7443     6808     6982     7321 
    7349     7281     7541     8205     8657     8463     8090     7944 
    7905     7963     8040     7798     7484     7618     7835     7739 
    7797     8243     8573     8579     8567     8565     8212     7492 
    7049     7272     7769     8154     8305     8144     8047     8298 
    8345     7824     7302     7452     8183     8726     8533     7831 
    7219     7067     7358     7867     8283     8461     8495     8437 
    8241     7913     7557     7366     7485     7782     8008     8182 
    8411     8527     8415     8345     8376     8136     7657     7491 
    7743     7906     7821     7796     7850     7820     7794     7882 
    8050     8230     8311     8271     8156     7975     7839     7867 
    7990     8021     7861     7655     7628     7711     7732     7762 
    7924     8144     8260     8159     7847     7543     7655     8299 
    8920     8889     8191     7501     7520     8004     8129     7778 
    7507     7641     8087     8511     8463     8079     8075     8432 
    8310     7516     6891     7157     8068     8715     8461     7704 
    7319     7489     7742     7886     8198     8596     8561     8101 
    7716     7608     7669     7749     7700     7528     7608     8224 
    8907     8962     8429     7892     7720     7824     7873     7628 
    7257     7337     7994     8532     8522     8262     8032     7915 
    7857     7793     7916     8314     8692     8741     8379     7848 
    7489     7318     7101     6836     6887     7491     8316     8839 
    9001     8937     8541     7920     7545     7533     7545     7518 
    7626     7758     7782     7844     8068     8294     8437     8723 
    9101     9049     8235     7069     6434     6777     7673     8394 
    8730     8951     9123     8930     8205     7250     6571     6517 
    6964     7533     8089     8619     8904     8734     8243     7731 
    7449     7492     7677     7784     7987     8498     8927     8698 
    7842     6979     6752     7364     8390     9035     8846     8116 
    7496     7362     7592     7788     7766     7835     8245     8630 
    8573     8182     7850     7794     7852     7811     7682     7612 
    7734     8108     8538     8650     8368     7871     7329     6971 
    7007     7442     8089     8757     9251     9261     8719     7983 
    7406     7157     7269     7555     7893     8303     8580     8553 
    8337     7959     7503     7426     7901     8351     8268     7889 
    7639     7580     7519     7317     7157     7273     7547     7869 
    8313     8831     9201     9159     8683     8121     7773     7614 
    7518     7431     7426     7696     8216     8629     8734     8661 
    8402     7811     7180     6994     7214     7596     8124     8707 
    9058     8897     8228     7446     6966     6898     7219     7848 
