Origin Time       2021/08/14 22:38:00
Lat.              37.5
Long.             137.2
Depth. (km)       10
Mag.              4.1
Station Code      ISK007
Station Lat.      37.0427
Station Long.     136.9681
Station Height(m) 3
Record Time       2021/08/14 22:38:27
Sampling Freq(Hz) 100Hz
Duration Time(s)  60
Dir.              U-D
Scale Factor      7845(gal)/8223790
Max. Acc. (gal)   0.906
Last Correction   2021/08/14 22:38:28
Memo.             
[...]
   -1463    -1453    -1444    -1444    -1452    -1456    -1449    -1441 
   -1441    -1447    -1449    -1445    -1437    -1436    -1441    -1445 
   -1443    -1437    -1435    -1447    -1456    -1443    -1429    -1432 
   -1444    -1455    -1455    -1443    -1437    -1447    -1459    -1462 
   -1451    -1441    -1445    -1458    -1462    -1456    -1448    -1445 
   -1451    -1456    -1449    -1439    -1440    -1448    -1449    -1444 
   -1439    -1440    -1444    -1444    -1443    -1439    -1436    -1443 
   -1449    -1445    -1437    -1436    -1445    -1455    -1455    -1445 
   -1440    -1448    -1460    -1462    -1449    -1440    -1444    -1460 
   -1466    -1453    -1439    -1440    -1452    -1455    -1448    -1444 
   -1447    -1453    -1456    -1447    -1440    -1444    -1449    -1448 
   -1443    -1440    -1440    -1441    -1444    -1440    -1429    -1428 
   -1440    -1449    -1451    -1447    -1447    -1456    -1464    -1455 
   -1436    -1435    -1452    -1467    -1467    -1455    -1444    -1445 
   -1456    -1456    -1449    -1444    -1444    -1447    -1448    -1445 
   -1441    -1440    -1441    -1441    -1444    -1443    -1437    -1440 
   -1443    -1439    -1435    -1433    -1440    -1449    -1449    -1439 
   -1439    -1453    -1464    -1459    -1443    -1439    -1453    -1467 
   -1467    -1458    -1448    -1451    -1462    -1463    -1452    -1447 
   -1452    -1456    -1449    -1443    -1440    -1439    -1443    -1444 
   -1439    -1433    -1431    -1437    -1445    -1439    -1429    -1435 
   -1445    -1452    -1449    -1437    -1437    -1453    -1466    -1459 
   -1444    -1441    -1453    -1466    -1464    -1452    -1445    -1451 
   -1459    -1458    -1448    -1443    -1447    -1451    -1445    -1439 
   -1439    -1443    -1449    -1448    -1437    -1432    -1437    -1441 
   -1439    -1436    -1439    -1444    -1449    -1451    -1447    -1441 
   -1447    -1460    -1463    -1452    -1441    -1445    -1460    -1466 
   -1456    -1447    -1445    -1453    -1459    -1452    -1441    -1440 
   -1447    -1451    -1447    -1440    -1440    -1445    -1449    -1449 
   -1441    -1432    -1431    -1437    -1441    -1440    -1440    -1445 
   -1451    -1447    -1443    -1441    -1448    -1459    -1456    -1441 
   -1439    -1452    -1460    -1458    -1452    -1449    -1448    -1453 
   -1456    -1455    -1451    -1449    -1449    -1451    -1449    -1447 
   -1444    -1441    -1443    -1447    -1443    -1439    -1435    -1431 
   -1432    -1437    -1443    -1445    -1443    -1437    -1437    -1449 
   -1463    -1463    -1449    -1443    -1452    -1460    -1451    -1422 
   -1393    -1381    -1390    -1412    -1443    -1506    -1607    -1675 
   -1632    -1501    -1366    -1269    -1229    -1279    -1413    -1560 
   -1648    -1656    -1571    -1416    -1320    -1352    -1382    -1344 
   -1350    -1397    -1402    -1391    -1422    -1483    -1532    -1560 
   -1566    -1521    -1422    -1274    -1194    -1344    -1602    -1714 
   -1660    -1553    -1467    -1383    -1304    -1310    -1364    -1391 
   -1444    -1516    -1540    -1526    -1521    -1528    -1479    -1345 
   -1243    -1248    -1320    -1397    -1480    -1624    -1657    -1463 
   -1368    -1498    -1509    -1397    -1377    -1367    -1355    -1466 
   -1603    -1633    -1603    -1582    -1555    -1509    -1424    -1223 
   -1035    -1112    -1339    -1487    -1588    -1629    -1580    -1599 
   -1733    -1714    -1362     -954     -861    -1085    -1447    -1773 
   -1902    -1834    -1728    -1607    -1360    -1030     -888    -1065 
   -1389    -1715    -1875    -1730    -1552    -1491    -1383    -1239 
   -1193    -1328    -1549    -1641    -1609    -1566    -1475    -1355 
   -1298    -1290    -1309    -1382    -1467    -1559    -1682    -1715 
   -1521    -1219    -1113    -1198    -1305    -1493    -1660    -1640 
   -1576    -1560    -1517    -1475    -1489    -1478    -1399    -1362 
   -1390    -1414    -1416    -1463    -1563    -1525    -1382    -1351 
   -1366    -1329    -1325    -1453    -1628    -1622    -1486    -1431 
   -1494    -1576    -1517    -1344    -1273    -1283    -1285    -1391 
   -1493    -1364    -1263    -1413    -1587    -1611    -1537    -1501 
   -1521    -1552    -1597    -1530    -1347    -1215    -1166    -1291 
   -1601    -1818    -1811    -1680    -1514    -1350    -1210    -1128 
   -1136    -1225    -1362    -1571    -1763    -1717    -1487    -1395 
   -1516    -1509    -1294    -1224    -1318    -1360    -1420    -1599 
   -1806    -1865    -1711    -1471    -1236    -1067    -1100    -1312 
   -1502    -1575    -1572    -1479    -1267    -1096    -1147    -1356 
   -1556    -1672    -1674    -1628    -1617    -1559    -1414    -1273 
   -1242    -1320    -1359    -1404    -1597    -1788    -1831    -1714 
   -1443    -1229    -1217    -1297    -1399    -1517    -1590    -1583 
   -1574    -1549    -1377    -1140    -1092    -1194    -1363    -1659 
   -1799    -1552    -1301    -1386    -1529    -1433    -1294    -1271 
   -1289    -1412    -1636    -1694    -1591    -1567    -1543    -1449 
   -1428    -1398    -1286    -1271    -1379    -1460    -1505    -1529 
   -1507    -1489    -1513    -1549    -1512    -1325    -1074    -1040 
   -1325    -1705    -1898    -1784    -1548    -1389    -1296    -1254 
   -1336    -1543    -1637    -1513    -1386    -1395    -1489    -1549 
   -1486    -1393    -1343    -1250    -1215    -1328    -1410    -1429 
   -1524    -1665    -1661    -1529    -1493    -1456    -1339    -1395 
   -1528    -1458    -1316    -1347    -1518    -1632    -1683    -1632 
   -1375    -1170    -1161    -1242    -1341    -1424    -1632    -1826 
   -1665    -1404    -1354    -1350    -1316    -1347    -1387    -1401 
   -1426    -1490    -1625    -1737    -1649    -1417    -1340    -1390 
   -1327    -1308    -1416    -1406    -1317    -1394    -1634    -1725 
   -1548    -1360    -1318    -1359    -1399    -1421    -1410    -1364 
   -1374    -1476    -1567    -1598    -1618    -1534    -1354    -1302 
   -1302    -1201    -1271    -1598    -1782    -1683    -1570    -1493 
   -1317    -1221    -1337    -1385    -1368    -1566    -1765    -1705 
   -1540    -1429    -1372    -1356    -1310    -1196    -1220    -1495 
   -1655    -1478    -1323    -1449    -1630    -1576    -1410    -1452 
   -1521    -1359    -1324    -1440    -1316    -1201    -1394    -1602 
   -1568    -1506    -1638    -1672    -1466    -1287    -1229    -1340 
   -1455    -1348    -1387    -1665    -1738    -1606    -1441    -1236 
   -1201    -1445    -1653    -1541    -1306    -1263    -1283    -1328 
   -1590    -1760    -1576    -1474    -1603    -1552    -1362    -1348 
   -1372    -1240    -1179    -1401    -1551    -1453    -1536    -1721 
   -1640    -1513    -1443    -1263    -1192    -1313    -1387    -1466 
   -1564    -1544    -1463    -1436    -1474    -1505    -1576    -1633 
   -1436    -1162    -1154    -1370    -1506    -1502    -1618    -1737 
   -1566    -1344    -1341    -1345    -1244    -1327    -1575    -1571 
   -1389    -1451    -1618    -1526    -1372    -1463    -1548    -1431 
   -1325    -1341    -1401    -1432    -1436    -1479    -1505    -1402 
   -1354    -1541    -1652    -1510    -1382    -1379    -1406    -1377 
   -1431    -1595    -1566    -1480    -1587    -1571    -1367    -1239 
   -1139    -1108    -1305    -1510    -1468    -1466    -1718    -1849 
   -1710    -1516    -1316    -1209    -1254    -1318    -1351    -1431 
   -1614    -1723    -1659    -1548    -1425    -1395    -1468    -1405 
   -1274    -1304    -1387    -1420    -1467    -1451    -1435    -1574 
   -1640    -1483    -1375    -1420    -1343    -1221    -1350    -1482 
   -1502    -1622    -1630    -1431    -1394    -1498    -1409    -1278 
   -1333    -1447    -1524    -1480    -1350    -1432    -1645    -1660 
   -1547    -1436    -1294    -1215    -1298    -1377    -1336    -1510 
   -1891    -1883    -1490    -1188    -1085    -1124    -1244    -1428 
   -1701    -1850    -1713    -1544    -1517    -1409    -1169    -1158 
   -1414    -1503    -1501    -1684    -1706    -1456    -1306    -1290 
   -1255    -1223    -1291    -1485    -1676    -1733    -1683    -1582 
   -1391    -1202    -1185    -1331    -1561    -1765    -1768    -1513 
   -1255    -1221    -1252    -1256    -1366    -1451    -1377    -1393 
   -1599    -1665    -1532    -1472    -1482    -1455    -1464    -1460 
   -1356    -1274    -1320    -1491    -1682    -1651    -1402    -1289 
   -1345    -1394    -1537    -1692    -1570    -1312    -1256    -1356 
   -1413    -1483    -1517    -1406    -1413    -1584    -1593    -1472 
   -1429    -1367    -1279    -1336    -1506    -1574    -1436    -1323 
   -1424    -1518    -1436    -1426    -1610    -1651    -1467    -1472 
   -1659    -1636    -1493    -1482    -1475    -1316    -1210    -1374 
   -1532    -1485    -1471    -1493    -1405    -1367    -1426    -1404 
   -1289    -1227    -1213    -1119    -1090    -1293    -1522    -1683 
   -1841    -1865    -1709    -1491    -1366    -1425    -1468    -1468 
   -1676    -1831    -1598    -1270    -1161    -1127    -1080    -1171 
   -1336    -1395    -1428    -1583    -1765    -1713    -1464    -1310 
   -1309    -1362    -1476    -1637    -1649    -1539    -1580    -1597 
   -1352    -1215    -1347    -1375    -1323    -1398    -1340    -1221 
   -1394    -1526    -1459    -1594    -1786    -1691    -1588    -1561 
   -1377    -1227    -1240    -1316    -1526    -1755    -1799    -1657 
   -1476    -1328    -1036     -864    -1163    -1462    -1455    -1501 
   -1649    -1630    -1489    -1510    -1576    -1352    -1129    -1341 
   -1721    -1798    -1641    -1471    -1267    -1266    -1555    -1695 
   -1607    -1458    -1227    -1154    -1366    -1482    -1408    -1482 
   -1587    -1409    -1228    -1343    -1453    -1389    -1356    -1393 
   -1449    -1510    -1561    -1687    -1746    -1560    -1379    -1362 
   -1252    -1117    -1343    -1714    -1786    -1632    -1490    -1439 
   -1343    -1166    -1202    -1479    -1633    -1540    -1478    -1620 
   -1640    -1443    -1385    -1383    -1316    -1331    -1296    -1181 
   -1182    -1213    -1250    -1555    -1946    -1902    -1626    -1502 
   -1374    -1317    -1509    -1584    -1444    -1439    -1443    -1306 
   -1306    -1420    -1406    -1359    -1437    -1459    -1378    -1445 
   -1560    -1539    -1476    -1410    -1449    -1642    -1711    -1514 
   -1297    -1260    -1316    -1404    -1580    -1621    -1336    -1163 
   -1347    -1459    -1368    -1363    -1404    -1333    -1374    -1541 
   -1524    -1503    -1678    -1683    -1449    -1401    -1607    -1675 
   -1602    -1536    -1223     -927    -1206    -1723    -1881    -1675 
   -1327    -1050    -1077    -1355    -1499    -1345    -1182    -1179 
   -1402    -1861    -2038    -1745    -1555    -1509    -1387    -1491 
   -1723    -1714    -1563    -1285     -970    -1057    -1418    -1506 
   -1309    -1181    -1175    -1308    -1613    -1768    -1586    -1360 
   -1348    -1467    -1628    -1730    -1522    -1246    -1274    -1332 
   -1354    -1597    -1723    -1522    -1482    -1687    -1607    -1282 
   -1267    -1483    -1474    -1331    -1289    -1352    -1451    -1458 
   -1436    -1399    -1225    -1131    -1313    -1606    -1750    -1601 
   -1401    -1425    -1483    -1528    -1738    -1823    -1440    -1040 
   -1217    -1553    -1387    -1116    -1273    -1498    -1561    -1749 
   -1826    -1507    -1182    -1204    -1502    -1620    -1325    -1181 
   -1413    -1512    -1397    -1360    -1444    -1575    -1671    -1737 
   -1734    -1505    -1219    -1156    -1293    -1516    -1742    -1867 
   -1750    -1379    -1071    -1036    -1136    -1321    -1472    -1370 
   -1206    -1390    -1845    -2029    -1841    -1617    -1321    -1080 
   -1192    -1375    -1404    -1453    -1493    -1368    -1323    -1509 
   -1561    -1421    -1317    -1269    -1277    -1309    -1459    -1699 
   -1691    -1551    -1580    -1593    -1541    -1576    -1509    -1297 
   -1142    -1013     -990    -1240    -1548    -1690    -1769    -1821 
   -1744    -1578    -1489    -1537    -1524    -1382    -1317    -1360 
   -1443    -1409    -1159    -1051    -1239    -1453    -1644    -1857 
   -1903    -1617    -1236    -1161    -1335    -1332    -1156    -1208 
   -1367    -1371    -1499    -1792    -1794    -1514    -1410    -1482 
   -1443    -1382    -1431    -1459    -1505    -1622    -1671    -1632 
   -1501    -1332    -1289    -1239    -1044    -1003    -1308    -1657 
   -1864    -1942    -1636    -1000     -780    -1247    -1763    -1941 
   -1922    -1698    -1394    -1352    -1507    -1520    -1302    -1090 
   -1096    -1254    -1463    -1652    -1711    -1641    -1490    -1229 
   -1028    -1185    -1547    -1660    -1449    -1287    -1381    -1576 
   -1790    -1784    -1278     -789     -918    -1335    -1637    -1848 
   -1821    -1544    -1458    -1625    -1636    -1475    -1440    -1339 
   -1085    -1251    -1675    -1671    -1653    -2011    -2006    -1312 
    -697     -747    -1174    -1545    -1759    -1761    -1567    -1354 
   -1246    -1320    -1514    -1516    -1248    -1096    -1247    -1502 
   -1707    -1757    -1555    -1308    -1243    -1352    -1665    -1931 
   -1791    -1479    -1259    -1111    -1039    -1005    -1096    -1381 
   -1675    -1806    -1804    -1760    -1566    -1271    -1181    -1306 
   -1464    -1560    -1591    -1524    -1333    -1297    -1516    -1633 
   -1514    -1283     -996     -810     -955    -1462    -2080    -2397 
   -2209    -1745    -1337    -1123    -1077    -1177    -1323    -1351 
   -1459    -1757    -1867    -1679    -1487    -1356    -1162     -943 
    -854    -1015    -1408    -1849    -2185    -2232    -1842    -1340 
   -1162    -1304    -1443    -1368    -1256    -1297    -1409    -1513 
   -1480    -1233    -1030    -1034    -1205    -1524    -1787    -1830 
   -1726    -1522    -1246    -1081    -1267    -1579    -1559    -1480 
   -1696    -1844    -1768    -1683    -1410     -943     -832    -1156 
   -1458    -1647    -1811    -1799    -1571    -1325    -1173    -1094 
   -1127    -1358    -1588    -1563    -1529    -1632    -1607    -1482 
   -1453    -1499    -1526    -1498    -1460    -1377    -1217    -1259 
   -1564    -1733    -1707    -1667    -1458    -1198    -1269    -1521 
   -1524    -1282    -1220    -1370    -1377    -1352    -1513    -1561 
   -1351    -1304    -1602    -1773    -1659    -1571    -1513    -1363 
   -1290    -1355    -1260     -966     -928    -1278    -1641    -1756 
   -1656    -1557    -1656    -1817    -1761    -1590    -1462    -1256 
   -1036    -1070    -1344    -1561    -1595    -1614    -1669    -1578 
   -1313    -1194    -1370    -1495    -1397    -1426    -1645    -1555 
   -1169    -1053    -1165    -1289    -1663    -2073    -2014    -1694 
   -1520    -1360    -1140    -1156    -1363    -1482    -1509    -1439 
   -1344    -1418    -1594    -1668    -1516    -1262    -1225    -1358 
   -1408    -1410    -1395    -1364    -1486    -1615    -1456    -1171 
   -1069    -1236    -1568    -1791    -1718    -1428    -1233    -1341 
   -1586    -1694    -1622    -1557    -1609    -1657    -1571    -1410 
   -1348    -1332    -1277    -1321    -1418    -1386    -1389    -1539 
   -1561    -1372    -1246    -1328    -1445    -1472    -1512    -1607 
   -1609    -1480    -1317    -1193    -1329    -1648    -1664    -1429 
   -1210     -999    -1086    -1582    -1891    -1695    -1428    -1425 
   -1449    -1332    -1345    -1593    -1780    -1831    -1775    -1497 
   -1239    -1212    -1216    -1252    -1413    -1501    -1416    -1405 
   -1552    -1540    -1310    -1206    -1348    -1536    -1586    -1462 
   -1327    -1372    -1514    -1552    -1501    -1404    -1283    -1332 
   -1588    -1800    -1833    -1698    -1426    -1237    -1296    -1360 
   -1310    -1363    -1455    -1348    -1206    -1324    -1598    -1732 
   -1684    -1541    -1343    -1166    -1051    -1065    -1327    -1721 
   -1879    -1690    -1466    -1363    -1314    -1327    -1345    -1370 
   -1462    -1526    -1544    -1626    -1718    -1642    -1370    -1105 
   -1119    -1391    -1613    -1665    -1683    -1633    -1431    -1237 
   -1197    -1209    -1197    -1296    -1529    -1686    -1699    -1618 
   -1436    -1310    -1397    -1547    -1584    -1495    -1324    -1225 
   -1323    -1530    -1672    -1648    -1580    -1615    -1618    -1547 
   -1468    -1289    -1155    -1289    -1468    -1507    -1516    -1440 
   -1228    -1183    -1436    -1614    -1557    -1528    -1570    -1459 
   -1271    -1273    -1360    -1294    -1190    -1263    -1426    -1568 
   -1722    -1783    -1591    -1316    -1250    -1382    -1534    -1594 
   -1509    -1393    -1414    -1491    -1464    -1459    -1553    -1539 
   -1422    -1364    -1360    -1420    -1475    -1371    -1178    -1147 
   -1360    -1578    -1661    -1686    -1584    -1472    -1606    -1748 
   -1637    -1431    -1277    -1255    -1399    -1576    -1597    -1436 
   -1352    -1432    -1425    -1347    -1356    -1351    -1316    -1412 
   -1563    -1534    -1332    -1147    -1132    -1310    -1532    -1669 
   -1628    -1398    -1314    -1444    -1528    -1603    -1647    -1474 
   -1273    -1294    -1426    -1459    -1429    -1506    -1583    -1525 
   -1463    -1355    -1185    -1259    -1588    -1803    -1694    -1436 
   -1323    -1355    -1409    -1552    -1728    -1648    -1339    -1166 
   -1235    -1393    -1522    -1552    -1516    -1534    -1609    -1610 
   -1512    -1406    -1314    -1233    -1246    -1366    -1482    -1561 
   -1614    -1533    -1312    -1146    -1134    -1231    -1444    -1659 
   -1653    -1513    -1509    -1595    -1559    -1489    -1543    -1610 
   -1572    -1468    -1377    -1297    -1179    -1128    -1258    -1421 
   -1467    -1458    -1479    -1549    -1582    -1552    -1540    -1479 
   -1347    -1323    -1432    -1520    -1502    -1456    -1483    -1513 
   -1512    -1555    -1553    -1431    -1343    -1354    -1381    -1418 
   -1452    -1420    -1321    -1291    -1390    -1440    -1379    -1336 
   -1327    -1362    -1491    -1641    -1675    -1541    -1385    -1432 
   -1633    -1728    -1656    -1513    -1339    -1212    -1224    -1341 
   -1428    -1429    -1471    -1607    -1686    -1652    -1584    -1505 
   -1428    -1363    -1316    -1290    -1219    -1194    -1348    -1530 
   -1590    -1598    -1583    -1458    -1291    -1312    -1525    -1688 
   -1672    -1605    -1524    -1371    -1259    -1287    -1370    -1367 
   -1318    -1335    -1317    -1235    -1264    -1404    -1514    -1579 
   -1595    -1471    -1282    -1300    -1517    -1638    -1610    -1588 
   -1611    -1613    -1599    -1586    -1471    -1246    -1139    -1291 
   -1528    -1610    -1513    -1377    -1283    -1221    -1269    -1417 
   -1495    -1539    -1613    -1659    -1717    -1719    -1583    -1444 
   -1341    -1260    -1273    -1345    -1431    -1513    -1485    -1356 
   -1279    -1283    -1363    -1472    -1483    -1420    -1418    -1472 
   -1503    -1536    -1580    -1555    -1437    -1343    -1399    -1536 
   -1568    -1493    -1456    -1441    -1321    -1169    -1193    -1386 
   -1557    -1636    -1628    -1539    -1421    -1323    -1302    -1372 
   -1440    -1506    -1622    -1672    -1597    -1475    -1354    -1281 
