Origin Time       2021/08/14 22:38:00
Lat.              37.5
Long.             137.2
Depth. (km)       10
Mag.              4.1
Station Code      ISK002
Station Lat.      37.4443
Station Long.     137.2877
Station Height(m) 4
Record Time       2021/08/14 22:38:10
Sampling Freq(Hz) 100Hz
Duration Time(s)  60
Dir.              N-S
Scale Factor      7845(gal)/8223790
Max. Acc. (gal)   51.788
Last Correction   2021/08/14 22:38:10
Memo.             
[...]
    8297     8293     8295     8299     8303     8305     8305     8307 
    8307     8305     8299     8297     8302     8302     8297     8297 
    8298     8299     8301     8305     8305     8299     8293     8293 
    8294     8293     8293     8295     8295     8295     8295     8295 
    8297     8297     8295     8297     8297     8297     8290     8284 
    8289     8289     8283     8284     8290     8293     8294     8293 
    8291     8290     8290     8291     8297     8301     8303     8306 
    8301     8298     8299     8301     8307     8316     8313     8307 
    8302     8295     8294     8299     8303     8302     8298     8295 
    8293     8283     8279     8290     8301     8303     8306     8301 
    8293     8290     8289     8290     8298     8302     8301     8299 
    8295     8293     8294     8297     8299     8297     8293     8291 
    8287     8283     8284     8284     8289     8295     8294     8291 
    8295     8293     8290     8298     8305     8307     8309     8305 
    8301     8301     8302     8307     8307     8302     8301     8295 
    8289     8291     8293     8291     8297     8297     8290     8284 
    8278     8279     8286     8289     8293     8299     8294     8289 
    8287     8286     8295     8303     8301     8301     8299     8294 
    8295     8299     8302     8303     8299     8295     8294     8294 
    8297     8301     8301     8297     8293     8290     8289     8287 
    8286     8286     8287     8287     8290     8290     8289     8291 
    8294     8295     8295     8293     8289     8287     8291     8297 
    8297     8290     8289     8291     8293     8298     8306     8307 
    8306     8303     8302     8302     8297     8293     8293     8291 
    8291     8294     8295     8293     8289     8287     8290     8294 
    8297     8295     8295     8298     8299     8297     8295     8295 
    8293     8294     8297     8297     8299     8303     8299     8294 
    8293     8293     8291     8295     8298     8293     8293     8298 
    8301     8303     8302     8298     8294     8295     8299     8303 
    8306     8306     8301     8297     8293     8293     8299     8302 
    8303     8302     8297     8297     8298     8291     8289     8291 
    8297     8299     8295     8287     8287     8291     8295     8298 
    8295     8291     8291     8291     8290     8289     8289     8294 
    8298     8297     8299     8303     8301     8299     8298     8295 
    8298     8301     8298     8298     8299     8297     8299     8299 
    8295     8293     8293     8295     8299     8297     8297     8297 
    8291     8287     8290     8289     8286     8287     8290     8293 
    8291     8291     8298     8295     8291     8298     8299     8295 
    8297     8298     8298     8294     8291     8301     8305     8299 
    8301     8301     8295     8294     8295     8297     8299     8299 
    8299     8297     8291     8290     8297     8301     8303     8301 
    8291     8287     8290     8291     8293     8298     8301     8299 
    8295     8291     8291     8293     8298     8305     8303     8297 
    8295     8294     8293     8295     8298     8303     8310     8306 
    8297     8291     8290     8291     8293     8295     8298     8295 
    8287     8282     8286     8291     8294     8294     8294     8294 
    8290     8290     8297     8297     8294     8295     8294     8290 
    8291     8295     8302     8302     8298     8298     8302     8298 
    8295     8298     8294     8295     8301     8299     8297     8297 
    8301     8299     8294     8294     8294     8291     8293     8295 
    8295     8293     8286     8282     8280     8286     8294     8301 
    8301     8295     8290     8290     8295     8299     8302     8299 
    8295     8295     8297     8295     8297     8299     8297     8295 
    8295     8294     8293     8294     8295     8295     8297     8294 
    8289     8283     8287     8295     8297     8295     8298     8295 
    8293     8291     8294     8302     8306     8302     8301     8298 
    8291     8290     8293     8293     8294     8297     8301     8302 
    8299     8297     8298     8297     8294     8294     8298     8302 
    8299     8294     8297     8299     8295     8298     8305     8306 
    8303     8301     8295     8295     8297     8295     8297     8294 
    8291     8294     8293     8291     8295     8295     8297     8299 
    8294     8291     8291     8291     8295     8299     8297     8297 
    8295     8295     8301     8301     8298     8305     8305     8299 
    8301     8295     8291     8294     8295     8297     8298     8291 
    8287     8289     8293     8297     8298     8295     8291     8290 
    8290     8293     8293     8290     8293     8293     8291     8295 
    8298     8299     8301     8295     8291     8294     8295     8298 
    8298     8295     8295     8297     8297     8298     8301     8301 
    8301     8298     8293     8291     8294     8295     8297     8298 
    8299     8297     8294     8294     8294     8295     8297     8293 
    8290     8291     8294     8301     8302     8290     8286     8291 
    8295     8293     8293     8298     8303     8301     8290     8289 
    8295     8301     8301     8297     8297     8303     8303     8297 
    8293     8294     8295     8291     8291     8295     8299     8302 
    8301     8297     8290     8284     8290     8297     8299     8302 
    8303     8294     8283     8287     8294     8297     8301     8301 
    8297     8297     8301     8299     8295     8295     8294     8293 
    8297     8301     8302     8298     8295     8293     8290     8297 
    8305     8303     8299     8297     8295     8295     8294     8298 
    8306     8303     8299     8295     8289     8287     8293     8297 
    8299     8302     8295     8290     8289     8289     8295     8301 
    8303     8306     8301     8294     8299     8303     8299     8299 
    8299     8297     8294     8291     8297     8302     8299     8294 
    8290     8286     8287     8290     8293     8299     8299     8294 
    8291     8289     8289     8295     8298     8298     8301     8298 
    8294     8297     8294     8290     8293     8295     8301     8306 
    8298     8293     8295     8291     8291     8298     8298     8295 
    8298     8298     8297     8293     8287     8287     8289     8289 
    8290     8293     8290     8283     8279     8287     8293     8290 
    8289     8293     8293     8295     8298     8295     8297     8298 
    8298     8301     8299     8297     8298     8298     8293     8291 
    8290     8291     8297     8298     8295     8294     8294     8291 
    8291     8294     8294     8291     8293     8299     8299     8298 
    8298     8297     8298     8303     8306     8305     8302     8303 
    8303     8303     8301     8299     8299     8295     8293     8297 
    8295     8291     8290     8289     8289     8291     8293     8294 
    8291     8286     8282     8282     8287     8294     8298     8301 
    8302     8302     8302     8299     8298     8299     8301     8301 
    8301     8299     8298     8295     8295     8298     8298     8297 
    8298     8297     8294     8294     8294     8294     8294     8295 
    8294     8287     8284     8290     8290     8289     8294     8295 
    8297     8299     8298     8295     8295     8295     8294     8293 
    8289     8287     8290     8295     8301     8301     8297     8298 
    8298     8293     8294     8301     8295     8290     8291     8291 
    8291     8290     8290     8295     8299     8299     8297     8294 
    8293     8293     8297     8301     8298     8295     8301     8302 
    8298     8299     8302     8299     8301     8299     8295     8297 
    8301     8301     8297     8291     8294     8295     8290     8290 
    8290     8286     8289     8293     8289     8290     8293     8289 
    8287     8290     8294     8299     8302     8299     8297     8293 
    8294     8303     8305     8302     8301     8294     8291     8298 
    8301     8301     8302     8299     8297     8295     8291     8295 
    8301     8299     8298     8297     8289     8287     8290     8293 
    8297     8297     8293     8294     8294     8293     8294     8291 
    8290     8294     8297     8298     8301     8295     8291     8291 
    8291     8291     8290     8286     8289     8287     8284     8287 
    8291     8289     8289     8290     8294     8298     8297     8295 
    8294     8293     8294     8298     8298     8299     8299     8297 
    8298     8298     8297     8301     8303     8303     8305     8305 
    8301     8294     8290     8294     8299     8294     8287     8289 
    8291     8289     8287     8289     8294     8295     8294     8290 
    8287     8293     8301     8302     8298     8298     8298     8297 
    8298     8302     8305     8303     8301     8298     8295     8298 
    8301     8297     8294     8299     8298     8294     8294     8293 
    8290     8293     8293     8290     8290     8294     8294     8295 
    8298     8294     8293     8293     8294     8295     8297     8297 
    8294     8293     8294     8295     8294     8291     8297     8303 
    8299     8295     8298     8294     8293     8297     8298     8298 
    8297     8294     8295     8299     8299     8302     8305     8302 
    8302     8301     8298     8299     8297     8294     8299     8303 
    8301     8293     8286     8289     8294     8293     8290     8290 
    8289     8286     8282     8282     8291     8293     8287     8289 
    8287     8284     8291     8299     8303     8306     8307     8305 
    8305     8303     8305     8307     8307     8305     8301     8295 
    8293     8291     8293     8295     8294     8290     8290     8287 
    8284     8290     8289     8286     8287     8284     8282     8284 
    8287     8291     8294     8295     8299     8301     8293     8290 
    8294     8298     8302     8298     8293     8295     8295     8295 
    8301     8301     8298     8301     8294     8290     8297     8299 
    8298     8298     8299     8298     8295     8295     8297     8297 
    8294     8294     8295     8297     8298     8294     8290     8294 
    8299     8299     8298     8297     8293     8289     8291     8297 
    8299     8299     8297     8293     8291     8297     8302     8302 
    8301     8297     8290     8290     8294     8301     8307     8305 
    8301     8295     8290     8293     8299     8301     8305     8301 
    8286     8279     8283     8289     8297     8302     8298     8291 
    8286     8280     8282     8289     8297     8302     8302     8295 
    8289     8289     8294     8297     8301     8301     8298     8297 
    8294     8295     8299     8298     8299     8301     8297     8291 
    8293     8295     8299     8302     8297     8294     8293     8287 
    8289     8294     8293     8291     8291     8289     8289     8290 
    8291     8293     8294     8294     8293     8293     8295     8297 
    8298     8299     8302     8301     8299     8298     8299     8302 
    8302     8301     8301     8294     8275     8224     8110     8067 
    8349     8893     9000     8082     7082     7805     9640     9412 
    6832     6320     9656    11229     7439     5017     8905    11708 
    8158     5427     7854     9837     9100     7348     5849     8168 
   10771     8457     7939    10513     8950     5964     7227     8939 
    7358     7790    11160     9504     5614     7615    10280     8413 
    6075     6393     9910    12044     6963     2953     8881    13682 
    8954     5065     7979    10949     9513     6586     6467     8646 
    9324     8305     7704     7395     8818    11917    10141     4476 
    4390     9151    10696     6262     1836     7129    16999    15984 
    7075     4311     7641     8689     5524     3420     7107    12699 
   12773     9428     9412     9502     4004     -953     3499    13941 
   18099    11742     5073     6080     9456     8495     5340     7090 
   13649    13575     4561     1738     9040    12183     6775     2897 
    5728    11196    13572     9918     4175     3993     9633    13815 
   11989     7310     4553     4209     5821     9016    11578    11711 
    9890     8056     6872     6278     7465     8915     8311     7879 
    8572     9135     9985     9404     7533     7719     8131     7572 
    7852     6966     6331     9243    11352     9894     7986     7472 
    8020     8181     8152     9065     9054     7213     5958     6485 
    7893     9965    11043     8253     4548     4968     8847    12317 
   11180     7165     7726    10274     7909     5609     6876     8552 
   11776    12857     7333     4726     7516     6043     4801     8780 
    9040     6997     9629    11701     9868     7827     7619    10143 
   12906    11038     6934     6382     7267     3825     -209     3689 
   10403    10531     9865    12992    12685     9863     9972     7965 
    4218     6293     8926     6755     6994     8132     4174     6065 
   16837    17940     7331     1683     2749     5194     9890    13212 
   13501    13610    10640     5035     3361     6079     7447     5192 
    4780     7855     7480     4473     7904    18084    23087    14123 
    2532     2727     5421       -8    -3281     2932    12159    18011 
   18131    14445     9305     2451    -1054     4310    12105    15051 
   15678    14640    11769    14600    22400    25864    30276    40412 
   40597    23330      643   -20032   -37135   -45994   -41338   -22023 
    2363    14104     1529   -24544   -34026   -13968    17887    43887 
   57094    50604    25941     -141    -9648       40    17440    33764 
   45018    42796    23942    -2108   -25606   -38238   -29897    -2906 
   25292    40309    37308    19920     1671    -4197     4860    20170 
   29007    27002    14959    -6235   -23589   -20371    -1421    13969 
   15608     5200    -7631   -10099     1225    16468    22748    19203 
   16360    16826    15102    11346     6681      928    -1084     3273 
   10269    16205    17103    11001     2763    -1422     1377     9977 
   19604    27587    32175    28378    15417     1066    -5157       44 
    8619     9223     1347    -7847   -12066    -7971      371     5957 
    9225    13770    18400    19237    15411    11232     9896     9135 
    9275    13203    15627    11780     6704     1304    -6160    -8453 
   -2062     6824    12831    13300     8823     5648     8267    11965 
   10700     6146     3415     5173     9973    13822    15188    15639 
   16912    20039    22033    17123     6675    -1671    -4414    -3847 
   -3252    -1887     4328    13927    18441    14165     6833     2535 
    2218     4047     6987    11878    16108    13925     7452     4549 
    6405     9774    12690    13751    13894    14026    12837    11211 
   10490     8885     5331     3708     8749    17682    22977    21485 
   15561     9910     7472     5972     1557    -5609   -12567   -16152 
  -14142    -7599      372     6867     8947     7271     6484     7169 
    5752     2988     3268     7279    11442    13188    13710    15526 
   19581    24445    26387    22769    15388     7981     4473     7956 
   15724    20406    17203     7589    -1732    -5661    -5236    -2636 
    2427     9686    16272    19272    18806    16690    13054     7838 
    4099     5049     9844    13716    11053     2670    -4241    -6559 
   -5036      206     4932     4591     2628     4164     9081    15469 
   20911    21045    14740     7566     5298     8773    14677    17027 
   12583     5471     1971     4376    10584    15350    14787    10629 
    7055     5559     5988     8673    11497    10700     6995     3599 
     498    -3052    -5995    -7537    -6308     -573     6903    10683 
   11338    13760    18075    21331    22582    21112    17359    14080 
   11776     9042     6866     5825     3493     -175    -1480      770 
    4340     7331     9100    10779    13929    17000    18058    18565 
   19511    18810    14966     9792     6723     6918     7732     5454 
    -729    -7308    -9305    -4928     3075    10941    16294    17378 
   14580    11437    10582    11456    12475    12264    10230     6879 
    2485    -1884    -2767     1263     6319     8905     9990    10852 
   10859    10139     9397     7912     5949     5776     7136     7797 
    7817     7696     7302     7497     8475     9177     9165     8151 
    5417     2038      607      677     -479    -1594      832     5182 
    7461     8344     9984    12168    15059    18235    19975    20542 
   20302    18384    15759    13776    12110    10700     9828     8850 
    7361     6436     6662     6928     6918     7132     7385     7932 
    8240     7053     5877     6451     8094    10396    12989    14835 
   14856    11828     6980     3615     2563     2478     2246     1553 
    1290     1699     1556     1339     3306     7516    11376    13000 
   12552    11029     9803     9906    10632    10871    10517     9277 
    7753     8168    10237    11114    10521    10100     9718     8897 
    8284     7469     5219     1679    -2176    -5394    -6392    -3090 
    4873    14115    20252    21909    20160    17204    15352    14841 
   14613    14019    11912     7740     3865     2802     3353     3096 
    2104     1362     1640     4230     8684    12191    13406    12941 
   11434    10983    13486    16741    17788    16522    13589    10006 
    7684     7090     6859     5721     3218       37    -2095    -1786 
     726     3327     4336     4453     4291     3755     4531     7842 
   12239    16082    18496    18952    17452    14496    11441     9042 
    6583     4066     2265     1555     2604     5695     9117    10713 
   10656    10594    10935    10937    10266     8834     6507     3753 
    1517     1194     3612     7088     9580    11464    13603    15156 
   14832    12946    10413     7418     5046     4843     5984     6813 
    7724     9251    10177     9641     8402     7335     6848     7460 
    9034    10489    11232    10886     8576     4774     1663      371 
     657     2959     7244    11377    13591    14187    13381    10929 
    8550     8591    10224    11422    12569    14008    14285    12806 
    9967     6100     2646     1135     1387     2880     5023     6285 
    6319     6320     6015     4707     3711     4060     5240     6966 
    9061    10793    11541    10997     9489     8338     8584     9814 
   10939    11840    12943    13315    12177    10924    10463     9936 
    9113     8772     9509    11346    13409    14334    13537    11466 
    8347     4317      892     -306      461     2281     4432     6178 
    7657     8992     9513     9643    10478    11407    11064     9277 
    6670     4178     3154     4333     6928     9602    11334    11232 
    9397     7543     7176     8348    10262    11672    11894    11653 
   11460    10671     9451     9020     9107     8364     6808     5486 
    4997     5163     5841     7442     9605    10728     9937     8166 
    7080     7325     7731     7136     6008     4793     3350     2428 
    2558     3491     5325     7346     8753    10277    11704    11886 
   11365    10957    10451     9745     8802     7443     6030     5240 
    5571     6822     7790     7827     7663     7588     7186     6752 
