Origin Time       2021/08/14 22:38:00
Lat.              37.5
Long.             137.2
Depth. (km)       10
Mag.              4.1
Station Code      ISKH04
Station Lat.      37.1902
Station Long.     136.7176
Station Height(m) 56
Record Time       2021/08/14 22:38:24
Sampling Freq(Hz) 100Hz
Duration Time(s)  120
Dir.              5
Scale Factor      7845(gal)/8223790
Max. Acc. (gal)   0.918
Last Correction   2021/08/14 22:38:24
Memo.             
[...]
     900      896      899      900      899      897      900      901 
     897      897      899      899      900      900      899      896 
     893      897      900      899      899      897      897      899 
     900      901      899      895      899      900      897      899 
     901      897      892      895      903      900      896      900 
     899      896      900      901      900      897      896      896 
     899      903      901      897      900      900      896      896 
     899      901      899      896      897      899      897      900 
     903      896      893      897      896      896      901      900 
     896      899      897      895      900      900      893      896 
     903      900      896      900      899      896      900      900 
     896      897      901      895      895      904      905      895 
     891      899      900      896      900      901      895      896 
     900      896      896      904      900      892      897      901 
     893      896      904      899      892      896      901      900 
     899      900      895      891      901      905      895      897 
     904      896      892      901      904      899      899      897 
     892      896      903      900      896      899      901      897 
     895      900      901      896      899      899      895      897 
     903      899      892      896      903      900      897      903 
     900      895      899      899      893      901      901      891 
     893      903      901      896      900      901      896      897 
     903      897      895      903      901      893      899      903 
     896      893      900      901      895      896      903      896 
     892      900      901      896      901      903      895      896 
     901      899      899      901      896      893      896      897 
     896      899      901      896      893      900      901      895 
     895      899      899      895      899      904      903      897 
     897      897      899      901      903      897      896      904 
     899      895      904      903      895      900      903      896 
     899      903      897      892      901      905      896      897 
     905      896      895      903      900      897      904      903 
     896      897      904      900      896      901      900      892 
     895      905      900      891      897      901      893      900 
     909      900      896      903      901      896      903      905 
     895      896      907      900      892      903      905      896 
     896      903      901      900      901      897      893      900 
     907      900      897      903      896      889      903      909 
     896      893      900      900      901      903      900      897 
     897      899      897      897      904      905      897      897 
     904      900      897      904      904      896      893      897 
     901      901      901      897      897      903      901      896 
     901      904      895      895      903      900      896      900 
     901      897      896      901      901      897      901      904 
     897      900      905      900      896      901      901      899 
     900      901      899      899      900      901      901      900 
     900      899      897      896      899      901      901      896 
     892      903      908      897      895      900      897      899 
     903      904      901      897      897      897      897      900 
     901      897      899      900      897      899      900      900 
     903      900      897      900      897      900      903      897 
     899      903      900      899      897      895      899      901 
     897      896      901      900      895      896      903      903 
     897      897      901      900      897      899      900      903 
     903      896      895      903      901      895      899      901 
     897      896      900      900      897      899      901      899 
     899      900      899      897      899      896      896      903 
     901      896      900      901      897      899      901      897 
     895      897      901      900      900      900      895      893 
     900      903      899      900      901      896      892      900 
     907      899      893      897      899      899      901      896 
     896      900      899      897      900      901      901      899 
     899      901      899      895      899      901      897      899 
     900      893      899      907      896      889      900      904 
     896      897      903      899      895      900      899      895 
     904      905      893      897      904      897      895      903 
     899      893      901      903      895      896      901      897 
     896      900      897      896      900      900      897      899 
     900      901      897      893      897      903      900      900 
     900      895      897      904      897      895      908      905 
     892      896      900      897      901      901      896      897 
     900      900      897      899      901      897      896      901 
     903      896      897      903      897      893      903      904 
     895      897      900      896      897      904      897      892 
     901      903      895      900      904      893      895      903 
     899      897      903      899      892      896      904      901 
     895      900      901      893      896      907      900      889 
     897      904      896      899      905      895      889      903 
     904      893      899      904      895      896      905      899 
     897      905      900      888      897      907      901      893 
     897      900      895      895      901      901      900      899 
     892      892      904      905      895      895      900      899 
     896      901      904      896      895      900      897      895 
     901      901      892      896      901      893      897      907 
     899      891      900      904      899      896      901      900 
     896      900      903      899      901      901      893      897 
     908      901      892      897      904      899      895      900 
     901      896      899      901      895      896      903      899 
     895      901      903      899      901      904      896      895 
     901      900      895      900      907      904      901      912 
     918      907      901      897      891      899      907      888 
     869      876      896      911      913      904      891      880 
     878      888      903      916      915      889      873      926 
    1001      985      892      828      853      939      982      913 
     830      835      897      938      962      958      864      791 
     823      828      834      939      989      891      770      781 
     939     1059      994      855      789      807      868      922 
     931      939      980      950      854      880      978      940 
     866      877      880      892      959      984      962      945 
     916      908      915      884      830      822      882      915 
     857      846      892      865      862      935      936      903 
     908      892      886      916      908      868      842      846 
     861      888      963     1021     1001      986      973      889 
     805      793      824      876      931      935      895      873 
     857      843      878      918      922      951      962      889 
     839      857      853      831      834      861      928     1016 
    1062     1044      988      939      918      882      870      919 
     930      872      824      800      810      886      945      913 
     874      857      843      874      904      886      895      911 
     885      880      923      969      959      891      839      850 
     885      936      977      924      841      850      870      837 
     868      935      936      957      981      919      874      905 
     895      854      892      957      969      951      907      866 
     889      918      911      911      889      841      824      824 
     797      791      851      935      962      930      901      899 
     886      841      812      859      961      997      940      909 
     946      957      945      978      986      927      893      909 
     934      943      927      889      835      830      920      959 
     869      824      861      854      847      909      946      911 
     876      820      765      837      957      949      891      882 
     859      842      877      905      928      977      980      920 
     901      943      962      922      855      822      877      984 
    1024      981      913      855      843      828      719      681 
     843      972      969     1000      977      842      858      985 
     967      962     1028      932      826      904      922      850 
     911      993      962      913      889      908      942      859 
     731      768      868      830      810      920      934      849 
     845      857      870      953      988      926      881      873 
     876      916      965      984      953      866      820      874 
     926      936      967      984      943      897      862      828 
     854      932      935      876      857      831      807      880 
     967      962      920      880      858      896      959      978 
     954      924      868      791      781      851      913      940 
     920      857      851      915      951      951      951      946 
     908      859      881      962      967      874      830      872 
     877      868      932     1011     1008      928      838      816 
     853      889      916      936      924      885      861      865 
     885      918      919      851      814      870      946      981 
     988      996      989      893      773      760      811      866 
     913      904      880      893      886      881      908      903 
     877      834      764      820      970      986      936      957 
     976      957      916      886      918      959      985     1011 
     986      913      869      868      877      855      820      823 
     854      888      908      895      877      880      868      861 
     903      942      920      854      815      854      909      931 
     949      943      947      999      976      884      823      773 
     795      942     1032      932      827      855      855      803 
     907     1039      945      831      850      858      913     1034 
    1013      900      872      901      905      891      880      816 
     751      810      896      967     1094     1108      924      777 
     765      862     1017     1036      946      969      990      864 
     783      811      800      804      888      958      978      963 
     915      830      737      730      832      938      992      993 
     924      827      791      827      901      957      945      915 
     924      961      990      972      946      951      923      904 
     940      938      905      888      846      816      818      832 
     858      851      832      870      943     1003     1007      916 
     799      751      760      784      845      919      949      935 
     923      942      959      980     1036     1054     1007     1007 
     992      903      861      797      649      665      895     1071 
    1069      953      828      758      778      899      985      940 
     892      886      882      946     1009      904      743      758 
     880      932     1015     1189     1188      949      753      700 
     716      803      931      992      958      951      962      857 
     768      788      766      788      922      951      892      912 
     905      808      820      955      974      926      962      959 
     896      908      895      827      878      992     1001      949 
     951      959      880      824      841      795      797      959 
    1036      957      904      897      909      947      927      857 
     837      853      899      961      909      770      747      808 
     859      982     1089     1055      997      946      807      718 
     812      927      946      911      803      712      787      918 
     974     1019     1042      966      882      873      870      864 
     923      978      904      793      808      927     1058     1121 
    1046      865      729      745      857      943      996     1030 
    1009      959      905      876      897      893      808      737 
     746      816      928      959      869      868      928      861 
     839      945      949      907      939      870      741      788 
     903      918      928      965      969      981      986      924 
     886      936      980      958      918      865      789      793 
     920      986      920      880      870      778      720      857 
    1071     1198     1248     1216     1080      967      936      864 
     758      714      664      602      600      626      662      708 
     716      749      881     1092     1362     1594     1586     1259 
     765      395      414      746      967      924      799      610 
     491      739     1169     1448     1614     1513      961      415 
     328      594     1081     1520     1371      692       99      -64 
     313     1107     1705     1680     1185      552      160      232 
     592      980     1183     1044      735      595      662      815 
    1024     1255     1395     1308     1016      754      677      797 
    1065     1358     1495     1291      895      673      577      486 
     615      924     1097     1111     1032      838      680      653 
     696      842     1024     1062     1011      969      896      832 
     832      847      885      976     1008      911      799      797 
     878      926      872      853      999     1148     1223     1328 
    1324     1070      820      769      824      924      999      936 
     803      687      606      642      774      901     1005      978 
     780      585      507      611      901     1131     1136      980 
     699      413      325      453      720     1043     1266     1258 
    1086      989     1012     1034     1081     1063      857      747 
     835      854      869      919      818      762      949     1173 
    1302     1302     1136      945      841      785      820      908 
     838      656      618      777     1017     1183     1212     1161 
     993      735      580      619      818     1030     1102     1061 
     943      793      757      807      830      903     1003      994 
     935      903      895      936      965      873      743      696 
     692      719      854     1059     1182     1139      992      895 
     901      950     1035     1090     1005      842      669      561 
     652      861     1050     1131      973      677      515      583 
     797      915      828      770      803      780      799      949 
    1119     1224     1134      800      533      573      793     1061 
    1287     1285     1065      855      769      797      920     1053 
    1073      997      957      938      876      854      857      787 
     720      745      855     1008     1085     1016      900      853 
     803      710      762      972     1092     1173     1343     1375 
    1206     1062      945      800      738      747      724      638 
     500      410      513      753     1009     1248     1354     1250 
    1057      932      954      990      900      808      762      650 
     603      772      994     1088     1078     1019      874      720 
     739      827      758      615      513      490      657      900 
    1004     1034     1073     1070     1015      973     1034     1173 
    1251     1178      939      604      380      468      773      969 
     951      876      797      800      999     1204     1255     1235 
    1150     1048     1017     1008     1062     1166     1112      970 
     923      880      801      770      787      858      942      915 
     772      556      307      162      253      531      826      992 
     994      916      891      982     1178     1387     1516     1524 
    1336      961      612      492      656      984     1167     1003 
     631      387      469      756     1054     1270     1321     1232 
    1047      760      511      500      739     1073     1285     1192 
     787      345      198      376      761     1248     1624     1661 
    1350      939      741      776      892     1031     1081      939 
     770      804      992     1152     1209     1113      878      669 
     583      606      699      776      789      710      504      286 
     218      361      692     1046     1297     1448     1409     1228 
    1129     1082      982      969     1047     1067     1074     1094 
    1036     1028     1179     1250     1125      967      754      526 
     544      727      830      896      918      796      645      616 
     718      882     1001     1001      895      730      614      614 
     677      765      810      723      564      410      303      382 
     693     1086     1414     1610     1641     1463     1090      743 
     677      918     1297     1580     1629     1453     1121      747 
     442      288      372      652      909     1038     1147     1278 
    1359     1371     1259      946      514      160       70      360 
     920     1421     1633     1506     1074      556      298      395 
     638      888     1148     1240     1000      676      531      490 
     456      479      591      799     1104     1456     1738     1802 
    1602     1259      859      429      141      172      461      859 
    1173     1181      884      479      151       91      334      702 
    1067     1343     1439     1448     1441     1351     1227     1182 
    1179     1189     1201     1107      927      872      951     1015 
    1001      884      666      468      386      441      604      753 
     801      814      862      943     1039     1093      986      753 
     584      535      615      857     1047     1043     1019      980 
     855      853     1007     1146     1242     1219     1059      947 
     900      838      805      754      657      718      996     1294 
    1448     1354      994      595      411      405      418      480 
     580      646      774     1000     1175     1248     1216     1031 
     762      558      495      618      880     1125     1290     1386 
    1412     1389     1314     1197     1115     1065      999      935 
     872      814      803      784      684      533      400      330 
     344      473      702      903      965      923      885      919 
    1024     1175     1320     1355     1254     1109      966      828 
     803      896      926      842      746      681      658      696 
     772      834      869      876      845      842      908      970 
    1044     1169     1246     1240     1193     1065      846      615 
     506      604      805      919      880      739      591      557 
