Origin Time       2021/08/14 22:38:00
Lat.              37.5
Long.             137.2
Depth. (km)       10
Mag.              4.1
Station Code      ISKH01
Station Lat.      37.5266
Station Long.     137.2844
Station Height(m) -152.5
Record Time       2021/08/14 22:38:09
Sampling Freq(Hz) 100Hz
Duration Time(s)  120
Dir.              2
Scale Factor      2942(gal)/8224139
Max. Acc. (gal)   21.364
Last Correction   2021/08/14 22:38:09
Memo.             
[...]
 -116182  -116181  -116179  -116179  -116185  -116186  -116176  -116178 
 -116187  -116185  -116175  -116179  -116179  -116174  -116181  -116186 
 -116178  -116172  -116183  -116186  -116175  -116181  -116178  -116168 
 -116182  -116182  -116174  -116183  -116185  -116178  -116182  -116182 
 -116179  -116189  -116185  -116172  -116175  -116185  -116186  -116181 
 -116178  -116178  -116175  -116179  -116181  -116178  -116182  -116182 
 -116178  -116183  -116182  -116175  -116181  -116186  -116176  -116170 
 -116175  -116176  -116183  -116191  -116179  -116168  -116176  -116182 
 -116182  -116185  -116182  -116175  -116175  -116179  -116178  -116178 
 -116178  -116175  -116178  -116182  -116179  -116179  -116176  -116174 
 -116182  -116182  -116181  -116190  -116189  -116176  -116175  -116181 
 -116181  -116176  -116181  -116185  -116174  -116167  -116178  -116183 
 -116178  -116182  -116182  -116174  -116181  -116183  -116175  -116176 
 -116182  -116183  -116179  -116172  -116172  -116179  -116182  -116182 
 -116179  -116174  -116175  -116179  -116189  -116183  -116171  -116179 
 -116183  -116178  -116181  -116175  -116175  -116179  -116174  -116183 
 -116187  -116174  -116175  -116181  -116179  -116186  -116186  -116172 
 -116175  -116189  -116178  -116171  -116185  -116182  -116174  -116179 
 -116181  -116183  -116185  -116171  -116170  -116183  -116185  -116182 
 -116179  -116174  -116176  -116176  -116181  -116189  -116182  -116176 
 -116178  -116170  -116168  -116185  -116187  -116174  -116174  -116183 
 -116186  -116181  -116167  -116170  -116186  -116183  -116181  -116186 
 -116181  -116172  -116178  -116183  -116178  -116178  -116178  -116168 
 -116170  -116187  -116190  -116179  -116175  -116179  -116186  -116186 
 -116172  -116172  -116179  -116178  -116181  -116182  -116178  -116178 
 -116179  -116181  -116179  -116176  -116179  -116176  -116172  -116182 
 -116185  -116175  -116175  -116182  -116182  -116175  -116174  -116179 
 -116179  -116175  -116181  -116186  -116179  -116172  -116175  -116178 
 -116178  -116181  -116181  -116181  -116181  -116175  -116175  -116181 
 -116178  -116181  -116185  -116178  -116181  -116181  -116168  -116178 
 -116189  -116174  -116167  -116179  -116183  -116181  -116182  -116179 
 -116178  -116179  -116176  -116179  -116186  -116185  -116181  -116181 
 -116182  -116182  -116179  -116182  -116178  -116174  -116183  -116181 
 -116168  -116170  -116181  -116187  -116182  -116174  -116181  -116183 
 -116179  -116179  -116179  -116185  -116187  -116178  -116172  -116178 
 -116182  -116178  -116175  -116175  -116178  -116185  -116183  -116179 
 -116185  -116182  -116175  -116176  -116174  -116178  -116186  -116179 
 -116178  -116183  -116178  -116172  -116179  -116183  -116175  -116176 
 -116187  -116178  -116172  -116185  -116179  -116174  -116183  -116182 
 -116176  -116179  -116181  -116176  -116174  -116179  -116185  -116186 
 -116181  -116176  -116179  -116171  -116176  -116187  -116175  -116175 
 -116186  -116174  -116172  -116187  -116186  -116174  -116175  -116190 
 -116189  -116176  -116182  -116183  -116175  -116178  -116183  -116185 
 -116186  -116181  -116175  -116178  -116182  -116183  -116178  -116181 
 -116183  -116179  -116183  -116182  -116179  -116183  -116186  -116185 
 -116179  -116176  -116179  -116178  -116183  -116186  -116181  -116182 
 -116182  -116181  -116179  -116178  -116183  -116182  -116175  -116185 
 -116193  -116179  -116171  -116179  -116179  -116174  -116179  -116185 
 -116182  -116178  -116178  -116182  -116182  -116179  -116174  -116170 
 -116182  -116186  -116175  -116179  -116186  -116179  -116178  -116182 
 -116178  -116175  -116178  -116178  -116176  -116178  -116182  -116183 
 -116176  -116178  -116179  -116174  -116176  -116176  -116178  -116178 
 -116172  -116179  -116182  -116172  -116176  -116181  -116181  -116183 
 -116181  -116172  -116175  -116183  -116183  -116181  -116179  -116175 
 -116183  -116178  -116167  -116179  -116179  -116170  -116181  -116182 
 -116176  -116182  -116182  -116176  -116178  -116185  -116189  -116178 
 -116168  -116172  -116178  -116179  -116183  -116185  -116182  -116178 
 -116170  -116174  -116186  -116181  -116170  -116181  -116183  -116174 
 -116175  -116175  -116178  -116194  -116190  -116172  -116172  -116183 
 -116185  -116181  -116178  -116178  -116176  -116179  -116183  -116178 
 -116178  -116186  -116181  -116174  -116182  -116181  -116172  -116182 
 -116187  -116179  -116182  -116185  -116172  -116174  -116186  -116186 
 -116175  -116178  -116183  -116179  -116182  -116186  -116178  -116174 
 -116183  -116189  -116178  -116172  -116183  -116186  -116174  -116175 
 -116182  -116183  -116185  -116179  -116178  -116185  -116182  -116181 
 -116185  -116179  -116178  -116183  -116181  -116179  -116181  -116181 
 -116183  -116185  -116176  -116172  -116175  -116176  -116179  -116183 
 -116183  -116181  -116178  -116176  -116182  -116185  -116179  -116175 
 -116175  -116174  -116179  -116186  -116187  -116181  -116181  -116181 
 -116175  -116175  -116181  -116178  -116178  -116181  -116181  -116182 
 -116181  -116176  -116179  -116182  -116185  -116189  -116183  -116176 
 -116176  -116181  -116186  -116187  -116183  -116179  -116178  -116179 
 -116182  -116185  -116182  -116178  -116179  -116182  -116178  -116172 
 -116178  -116186  -116178  -116172  -116182  -116183  -116178  -116181 
 -116181  -116179  -116183  -116181  -116178  -116178  -116172  -116174 
 -116182  -116181  -116178  -116183  -116183  -116182  -116179  -116179 
 -116179  -116172  -116172  -116185  -116186  -116185  -116187  -116182 
 -116174  -116172  -116181  -116185  -116176  -116176  -116181  -116176 
 -116181  -116181  -116174  -116178  -116179  -116179  -116183  -116181 
 -116178  -116175  -116172  -116178  -116178  -116174  -116181  -116181 
 -116176  -116185  -116186  -116179  -116181  -116179  -116175  -116179 
 -116183  -116175  -116172  -116175  -116179  -116186  -116185  -116175 
 -116174  -116183  -116187  -116181  -116178  -116181  -116181  -116175 
 -116172  -116182  -116178  -116167  -116181  -116189  -116182  -116185 
 -116187  -116182  -116181  -116179  -116179  -116182  -116182  -116186 
 -116190  -116179  -116174  -116181  -116181  -116182  -116182  -116176 
 -116185  -116183  -116170  -116179  -116189  -116182  -116179  -116179 
 -116183  -116185  -116182  -116183  -116185  -116182  -116172  -116174 
 -116187  -116186  -116183  -116190  -116182  -116176  -116183  -116186 
 -116186  -116183  -116171  -116174  -116194  -116189  -116172  -116181 
 -116185  -116176  -116171  -116171  -116176  -116182  -116186  -116187 
 -116179  -116178  -116190  -116186  -116178  -116178  -116181  -116186 
 -116178  -116171  -116186  -116182  -116167  -116182  -116185  -116168 
 -116178  -116186  -116176  -116181  -116175  -116167  -116187  -116193 
 -116175  -116174  -116176  -116181  -116187  -116176  -116176  -116190 
 -116181  -116170  -116175  -116182  -116190  -116182  -116168  -116175 
 -116178  -116172  -116181  -116186  -116179  -116183  -116182  -116175 
 -116181  -116183  -116182  -116186  -116183  -116175  -116176  -116182 
 -116181  -116175  -116181  -116187  -116185  -116179  -116176  -116176 
 -116181  -116179  -116176  -116185  -116183  -116175  -116182  -116182 
 -116178  -116181  -116175  -116178  -116189  -116181  -116176  -116181 
 -116186  -116187  -116178  -116181  -116185  -116166  -116172  -116199 
 -116183  -116164  -116179  -116189  -116178  -116178  -116186  -116174 
 -116172  -116185  -116181  -116178  -116183  -116176  -116178  -116187 
 -116186  -116182  -116181  -116183  -116174  -116163  -116178  -116194 
 -116181  -116168  -116182  -116190  -116174  -116168  -116182  -116182 
 -116183  -116187  -116182  -116183  -116185  -116179  -116179  -116181 
 -116181  -116181  -116185  -116190  -116190  -116178  -116176  -116186 
 -116181  -116172  -116170  -116176  -116195  -116199  -116186  -116175 
 -116167  -116172  -116182  -116182  -116181  -116181  -116179  -116181 
 -116179  -116178  -116185  -116182  -116171  -116174  -116181  -116178 
 -116172  -116181  -116189  -116181  -116179  -116187  -116179  -116174 
 -116186  -116183  -116179  -116190  -116187  -116179  -116176  -116179 
 -116190  -116187  -116175  -116181  -116185  -116179  -116175  -116176 
 -116176  -116168  -116170  -116186  -116194  -116185  -116176  -116183 
 -116186  -116176  -116174  -116185  -116189  -116183  -116183  -116181 
 -116178  -116182  -116182  -116178  -116172  -116176  -116187  -116178 
 -116171  -116191  -116190  -116167  -116172  -116183  -116181  -116182 
 -116181  -116179  -116185  -116178  -116175  -116182  -116181  -116171 
 -116171  -116181  -116181  -116174  -116172  -116182  -116187  -116178 
 -116172  -116181  -116181  -116174  -116179  -116186  -116178  -116179 
 -116182  -116174  -116183  -116191  -116178  -116172  -116182  -116185 
 -116182  -116181  -116179  -116179  -116182  -116182  -116183  -116183 
 -116179  -116176  -116181  -116187  -116186  -116179  -116179  -116183 
 -116179  -116175  -116176  -116178  -116182  -116185  -116181  -116179 
 -116183  -116185  -116186  -116185  -116178  -116186  -116193  -116183 
 -116179  -116185  -116186  -116181  -116178  -116182  -116181  -116181 
 -116182  -116183  -116186  -116183  -116176  -116174  -116178  -116181 
 -116181  -116182  -116186  -116183  -116181  -116181  -116181  -116183 
 -116175  -116168  -116182  -116190  -116185  -116185  -116183  -116179 
 -116178  -116179  -116181  -116179  -116178  -116182  -116178  -116178 
 -116189  -116181  -116174  -116189  -116182  -116174  -116185  -116179 
 -116172  -116183  -116181  -116176  -116182  -116186  -116186  -116187 
 -116186  -116179  -116171  -116176  -116185  -116178  -116172  -116182 
 -116186  -116175  -116168  -116181  -116189  -116185  -116183  -116179 
 -116179  -116189  -116181  -116179  -116185  -116172  -116178  -116194 
 -116179  -116167  -116176  -116178  -116181  -116185  -116175  -116171 
 -116181  -116181  -116174  -116175  -116182  -116183  -116176  -116175 
 -116186  -116185  -116182  -116183  -116179  -116179  -116183  -116183 
 -116181  -116176  -116179  -116182  -116175  -116176  -116185  -116187 
 -116187  -116183  -116175  -116172  -116178  -116182  -116182  -116179 
 -116182  -116189  -116183  -116176  -116178  -116182  -116183  -116182 
 -116181  -116179  -116178  -116183  -116187  -116175  -116174  -116182 
 -116176  -116176  -116187  -116183  -116182  -116185  -116176  -116179 
 -116187  -116183  -116182  -116175  -116174  -116182  -116171  -116172 
 -116185  -116178  -116174  -116176  -116179  -116183  -116182  -116181 
 -116181  -116175  -116172  -116178  -116181  -116179  -116182  -116183 
 -116176  -116175  -116181  -116181  -116179  -116176  -116178  -116186 
 -116181  -116178  -116186  -116185  -116179  -116179  -116179  -116182 
 -116181  -116178  -116181  -116181  -116179  -116179  -116175  -116175 
 -116179  -116182  -116179  -116183  -116190  -116183  -116170  -116172 
 -116186  -116190  -116178  -116172  -116178  -116179  -116183  -116185 
 -116186  -116187  -116179  -116176  -116178  -116179  -116187  -116186 
 -116178  -116183  -116187  -116179  -116174  -116183  -116189  -116179 
 -116174  -116185  -116186  -116175  -116175  -116187  -116186  -116175 
 -116176  -116183  -116178  -116174  -116181  -116179  -116175  -116186 
 -116191  -116183  -116179  -116181  -116183  -116185  -116174  -116171 
 -116182  -116181  -116183  -116187  -116174  -116175  -116189  -116179 
 -116178  -116190  -116178  -116167  -116179  -116182  -116183  -116183 
 -116175  -116176  -116181  -116185  -116187  -116181  -116176  -116178 
 -116175  -116179  -116185  -116179  -116175  -116185  -116190  -116182 
 -116172  -116176  -116187  -116182  -116175  -116179  -116186  -116187 
 -116185  -116183  -116179  -116176  -116183  -116181  -116175  -116182 
 -116179  -116175  -116179  -116145  -115981  -115322  -113385  -110481 
 -110408  -116914  -125086  -124911  -116532  -112704  -120725  -125508 
 -112114  -100777  -112054  -125001  -121464  -113553  -112452  -119954 
 -124399  -110926   -99428  -114193  -131758  -127026  -114944  -110374 
 -114914  -122683  -116787  -106309  -112749  -118242  -107325  -102014 
 -113186  -123358  -122067  -119117  -122435  -124668  -120498  -117123 
 -117117  -113699  -106733  -106351  -115785  -120255  -115767  -116646 
 -120083  -118134  -115581  -113956  -115717  -119329  -117279  -115352 
 -118133  -119010  -118667  -120438  -119728  -115240  -112303  -111377 
 -111157  -113107  -113622  -111690  -113506  -118538  -121490  -119161 
 -113547  -114237  -119923  -119295  -116133  -117818  -118563  -116689 
 -116853  -116752  -116532  -117722  -114577  -109408  -109749  -114183 
 -118775  -118887  -115707  -116706  -117814  -115433  -116279  -118959 
 -118544  -115713  -113340  -115074  -117607  -116615  -116148  -117749 
 -118440  -117634  -116343  -115033  -113826  -114694  -116581  -115767 
 -114373  -115061  -116494  -117313  -116201  -114712  -115977  -117343 
 -115932  -114727  -116950  -120837  -120468  -116264  -114754  -115554 
 -115190  -114247  -113998  -114232  -114025  -113822  -114902  -116745 
 -117992  -117873  -116656  -116444  -117028  -116025  -115948  -117776 
 -117309  -116619  -118451  -119111  -117309  -114547  -115415  -119442 
 -116600  -110459  -110999  -115411  -118274  -116403  -114102  -115674 
 -115906  -114301  -113906  -116523  -122864  -125070  -120571  -121898 
 -132290  -137424  -132418  -132012  -142020  -144612  -124819   -91740 
  -73843   -82237   -83813   -62776   -56461   -83232  -119622  -145494 
 -152263  -136505  -111437  -104529  -118656  -130990  -132981  -123935 
 -117983  -134754  -147117  -131217  -107550   -90459   -90867  -110691 
 -117616  -103913  -100735  -114297  -131954  -150525  -160899  -151748 
 -128402  -109278  -100529   -94297   -93009   -97711   -99455  -100630 
 -106817  -113690  -116355  -112121  -104722  -101679  -102521  -108726 
 -124437  -140086  -146253  -146681  -142442  -132799  -122764  -112472 
 -101821   -98629  -103685  -108145  -110454  -116114  -124954  -131317 
 -129605  -119670  -112941  -115144  -114736  -109185  -104996   -99218 
  -93123   -94618  -104588  -115593  -120569  -125235  -136571  -144208 
 -138284  -126111  -114245  -102280   -95523   -97438  -102357  -106407 
 -109702  -112426  -116549  -122463  -126220  -126681  -127646  -129621 
 -128268  -123076  -118980  -117817  -116876  -115088  -113597  -113143 
 -113286  -112256  -109378  -107840  -110342  -114200  -116226  -116970 
 -118354  -121346  -124237  -124143  -120803  -116802  -114648  -113240 
 -111199  -111478  -114052  -115029  -114995  -115749  -117639  -119576 
 -116533  -109401  -106023  -107192  -110652  -116244  -119600  -119250 
 -119902  -122516  -124686  -125143  -123635  -121101  -119055  -117880 
 -116591  -115531  -116152  -116455  -114507  -113130  -112108  -109499 
 -109576  -112499  -113298  -113888  -115954  -116984  -118821  -122330 
 -123261  -121243  -119934  -119539  -118284  -116649  -115047  -113111 
 -111927  -111294  -110142  -110034  -111996  -115125  -118497  -120799 
 -121014  -119438  -116738  -113730  -112024  -111667  -111792  -112878 
 -113606  -113105  -112973  -113132  -114442  -117400  -118299  -117232 
 -117610  -117760  -116850  -117838  -119619  -119947  -120906  -123032 
 -123041  -120474  -118453  -117806  -117934  -118783  -117921  -114367 
 -110894  -108741  -108583  -111069  -113715  -114675  -115331  -116347 
 -116575  -116014  -116050  -116920  -117921  -119553  -121666  -122033 
 -120650  -119074  -116922  -115366  -115663  -115204  -112753  -110322 
 -109154  -109472  -111110  -113437  -116218  -118532  -118289  -116719 
 -117121  -118366  -119219  -120546  -120324  -118397  -117229  -115831 
 -113836  -113300  -114320  -116251  -117755  -116862  -115607  -116322 
 -116600  -115793  -116185  -117123  -117425  -117937  -118108  -117046 
 -116891  -118558  -119055  -117196  -115083  -114741  -115885  -116275 
 -115549  -114868  -114551  -114316  -113262  -112085  -112313  -113356 
 -114192  -114143  -113525  -113628  -114070  -114320  -115040  -115938 
 -116464  -117242  -117979  -117684  -117879  -119414  -120052  -119484 
 -118790  -117914  -117458  -117495  -117769  -117900  -116446  -115132 
 -116382  -117624  -117178  -116923  -117090  -116968  -116658  -115800 
 -114621  -113948  -113825  -113977  -113719  -112899  -112716  -113659 
 -115088  -116311  -117309  -118497  -119041  -118777  -119034  -119573 
 -119897  -120089  -119242  -117848  -117389  -116849  -114974  -112781 
 -111495  -111600  -112641  -113197  -113209  -113771  -114802  -115555 
 -115620  -115522  -116338  -117645  -118127  -117728  -117062  -116361 
 -115677  -115114  -114895  -115192  -115615  -115527  -115283  -115681 
 -116483  -116633  -115707  -115133  -116241  -117778  -118531  -119026 
 -119107  -118434  -117568  -116546  -115354  -114971  -115873  -116985 
 -117433  -117416  -116872  -115836  -115196  -115389  -115851  -116203 
 -116642  -116907  -116505  -116249  -117050  -117644  -117053  -116437 
 -116424  -116789  -117312  -117169  -116225  -115149  -114095  -113792 
 -114786  -115591  -115445  -115457  -115682  -115816  -116309  -116491 
 -116222  -117067  -118511  -118133  -116137  -115088  -115651  -116249 
 -116167  -115894  -115805  -115754  -115156  -114289  -114232  -115037 
 -116135  -117119  -117594  -117587  -117244  -116617  -115983  -115690 
 -115917  -116371  -116708  -117212  -117645  -117171  -116091  -115252 
 -114871  -114933  -115199  -115376  -115376  -114840  -113971  -113814 
 -114137  -114174  -114521  -115102  -115568  -117186  -119300  -119454 
 -118230  -117433  -116865  -116318  -116527  -117292  -117602  -117171 
 -116386  -116012  -116297  -116538  -116808  -117386  -117607  -117320 
 -117178  -117209  -116642  -115846  -115669  -115677  -115407  -114516 
 -113655  -114304  -115275  -114999  -114825  -115456  -115821  -115897 
 -116162  -116538  -116870  -116992  -117247  -117639  -117351  -116594 
 -116089  -115619  -115346  -115669  -115886  -116029  -116756  -117231 
 -117070  -116972  -116677  -116135  -116167  -116522  -116417  -116279 
 -116482  -116568  -116436  -116237  -115966  -115391  -114705  -114940 
 -115909  -116170  -115912  -116471  -117220  -116519  -115461  -116036 
 -117043  -116969  -116741  -116791  -116638  -116541  -116525  -116316 
 -116120  -115839  -115249  -114700  -114332  -114204  -114547  -114848 
 -114859  -115250  -115825  -116182  -116897  -117597  -117340  -117000 
 -117270  -117239  -116888  -116764  -116459  -115963  -115804  -115965 
 -116388  -116831  -116554  -115882  -115982  -116587  -116573  -116167 
 -116222  -116491  -116375  -115902  -115611  -116068  -116645  -116210 
 -115414  -115408  -115614  -115152  -114615  -114882  -115581  -115913 
 -115790  -115524  -115383  -115445  -115636  -115954  -116372  -116777 
 -117197  -117479  -117332  -116945  -116521  -116106  -116194  -116910 
 -117416  -117477  -117571  -117347  -116695  -116387  -116266  -115867 
 -115919  -116476  -116444  -116156  -116406  -116660  -116606  -116432 
 -116428  -116768  -116941  -116812  -116573  -115977  -115423  -115616 
 -116240  -116397  -115774  -115198  -115215  -115226  -115118  -115295 
 -115353  -115060  -115298  -116144  -116274  -115836  -115911  -116063 
 -116055  -116283  -116464  -116453  -116440  -116417  -116449  -116699 
