Origin Time       2021/08/14 22:38:00
Lat.              37.5
Long.             137.2
Depth. (km)       10
Mag.              4.1
Station Code      ISKH01
Station Lat.      37.5266
Station Long.     137.2844
Station Height(m) 48
Record Time       2021/08/14 22:38:09
Sampling Freq(Hz) 100Hz
Duration Time(s)  120
Dir.              5
Scale Factor      7845(gal)/8223790
Max. Acc. (gal)   42.133
Last Correction   2021/08/14 22:38:09
Memo.             
[...]
    2523     2508     2505     2515     2516     2515     2515     2515 
    2512     2504     2506     2519     2521     2517     2513     2509 
    2509     2516     2520     2513     2509     2513     2515     2511 
    2513     2520     2519     2513     2512     2511     2509     2512 
    2515     2513     2515     2513     2508     2513     2520     2515 
    2506     2511     2521     2517     2508     2511     2517     2512 
    2506     2516     2523     2511     2502     2511     2520     2519 
    2513     2512     2511     2511     2511     2517     2521     2515 
    2506     2509     2513     2516     2517     2513     2511     2509 
    2509     2513     2519     2517     2512     2509     2509     2509 
    2511     2513     2512     2509     2508     2512     2515     2515 
    2513     2511     2512     2515     2513     2512     2512     2515 
    2515     2512     2511     2516     2516     2512     2508     2511 
    2513     2513     2511     2513     2515     2508     2508     2517 
    2517     2509     2506     2512     2517     2515     2511     2511 
    2511     2508     2512     2519     2516     2508     2509     2513 
    2512     2513     2515     2512     2509     2512     2513     2511 
    2511     2515     2516     2512     2508     2509     2513     2517 
    2515     2513     2515     2513     2508     2509     2515     2519 
    2515     2509     2513     2519     2516     2511     2511     2515 
    2513     2509     2511     2515     2513     2512     2515     2517 
    2516     2511     2508     2513     2515     2512     2513     2513 
    2508     2509     2516     2519     2516     2515     2515     2513 
    2513     2515     2517     2516     2511     2511     2513     2513 
    2515     2516     2509     2506     2513     2517     2512     2513 
    2517     2512     2511     2512     2513     2516     2517     2516 
    2512     2508     2509     2515     2513     2511     2511     2512 
    2511     2511     2515     2516     2512     2515     2516     2511 
    2508     2512     2517     2519     2513     2509     2511     2512 
    2513     2515     2517     2515     2509     2509     2515     2519 
    2515     2513     2516     2513     2506     2511     2520     2520 
    2512     2511     2517     2515     2504     2512     2524     2516 
    2508     2513     2516     2512     2509     2517     2521     2511 
    2506     2517     2519     2511     2512     2520     2520     2512 
    2508     2513     2516     2509     2511     2519     2516     2509 
    2513     2520     2513     2509     2516     2519     2509     2506 
    2516     2519     2509     2509     2515     2516     2512     2508 
    2511     2516     2515     2513     2509     2511     2516     2512 
    2513     2517     2512     2508     2509     2513     2515     2511 
    2509     2513     2515     2515     2511     2508     2513     2516 
    2512     2512     2512     2509     2508     2511     2517     2519 
    2511     2509     2515     2513     2509     2512     2520     2516 
    2504     2506     2516     2515     2515     2516     2512     2506 
    2509     2519     2520     2515     2513     2512     2505     2509 
    2520     2521     2512     2512     2515     2515     2515     2517 
    2515     2506     2509     2521     2519     2509     2511     2516 
    2511     2512     2520     2515     2506     2513     2519     2512 
    2512     2517     2515     2509     2512     2517     2519     2519 
    2513     2509     2513     2516     2515     2512     2513     2516 
    2513     2511     2513     2516     2515     2515     2517     2516 
    2512     2511     2515     2517     2517     2519     2517     2512 
    2511     2512     2516     2516     2511     2511     2513     2516 
    2517     2515     2515     2515     2515     2515     2512     2509 
    2513     2516     2515     2513     2512     2512     2512     2516 
    2519     2513     2511     2513     2516     2512     2506     2513 
    2520     2515     2508     2511     2516     2512     2511     2517 
    2520     2512     2505     2512     2523     2516     2505     2512 
    2516     2509     2511     2516     2516     2512     2512     2517 
    2516     2511     2513     2515     2511     2511     2513     2513 
    2512     2515     2517     2515     2511     2513     2517     2515 
    2508     2509     2516     2517     2512     2512     2515     2508 
    2505     2517     2521     2509     2504     2511     2515     2511 
    2512     2519     2516     2505     2506     2513     2513     2515 
    2517     2515     2509     2511     2516     2519     2513     2509 
    2515     2513     2509     2516     2520     2513     2508     2509 
    2512     2512     2512     2512     2509     2512     2517     2513 
    2511     2517     2517     2508     2511     2519     2520     2512 
    2502     2511     2519     2512     2509     2516     2516     2511 
    2511     2517     2516     2508     2509     2517     2516     2509 
    2509     2515     2511     2509     2515     2516     2513     2512 
    2509     2511     2515     2517     2516     2509     2508     2512 
    2516     2519     2519     2513     2509     2509     2515     2520 
    2517     2508     2502     2509     2519     2520     2515     2512 
    2511     2508     2512     2523     2523     2511     2508     2512 
    2509     2512     2524     2521     2506     2504     2511     2517 
    2519     2517     2517     2512     2504     2505     2517     2525 
    2520     2509     2505     2509     2511     2516     2521     2515 
    2506     2509     2509     2508     2513     2521     2519     2506 
    2501     2512     2521     2519     2513     2511     2508     2505 
    2512     2517     2515     2512     2512     2506     2508     2519 
    2519     2512     2512     2513     2511     2513     2516     2513 
    2509     2509     2516     2515     2511     2512     2511     2506 
    2512     2517     2515     2506     2506     2513     2513     2512 
    2517     2515     2508     2509     2515     2517     2515     2511 
    2512     2512     2511     2511     2511     2511     2513     2513 
    2509     2512     2515     2516     2515     2509     2511     2517 
    2515     2509     2513     2517     2511     2509     2519     2520 
    2511     2508     2512     2516     2515     2512     2513     2512 
    2509     2509     2513     2519     2517     2512     2513     2512 
    2512     2516     2513     2513     2517     2515     2508     2506 
    2516     2521     2515     2513     2519     2516     2515     2519 
    2519     2516     2513     2512     2513     2513     2515     2517 
    2515     2513     2512     2509     2512     2517     2517     2513 
    2511     2512     2517     2516     2506     2509     2521     2519 
    2508     2512     2517     2509     2511     2521     2517     2506 
    2506     2513     2516     2513     2513     2515     2508     2505 
    2511     2519     2516     2512     2515     2516     2512     2512 
    2513     2517     2516     2508     2504     2509     2517     2519 
    2512     2512     2515     2508     2508     2513     2513     2512 
    2513     2512     2508     2513     2523     2516     2508     2512 
    2513     2508     2509     2515     2516     2511     2509     2513 
    2512     2512     2516     2515     2509     2509     2516     2519 
    2516     2509     2508     2515     2516     2513     2515     2513 
    2512     2512     2513     2516     2516     2515     2512     2515 
    2516     2513     2512     2515     2516     2512     2508     2506 
    2513     2517     2515     2512     2513     2516     2519     2513 
    2509     2511     2509     2508     2513     2516     2515     2512 
    2509     2513     2516     2513     2513     2513     2509     2511 
    2517     2517     2512     2512     2517     2513     2509     2515 
    2515     2506     2509     2516     2516     2509     2509     2516 
    2517     2511     2512     2517     2515     2509     2512     2520 
    2513     2500     2506     2519     2516     2516     2517     2511 
    2505     2511     2517     2519     2515     2509     2506     2509 
    2515     2519     2516     2508     2509     2519     2519     2512 
    2509     2509     2513     2517     2513     2509     2512     2513 
    2513     2516     2519     2516     2511     2509     2512     2513 
    2513     2517     2516     2505     2502     2512     2521     2520 
    2516     2516     2512     2506     2506     2515     2524     2523 
    2511     2506     2508     2515     2520     2519     2513     2509 
    2508     2512     2515     2512     2515     2519     2512     2502 
    2506     2517     2517     2511     2512     2515     2511     2506 
    2511     2521     2520     2511     2509     2515     2513     2511 
    2513     2517     2515     2508     2511     2517     2516     2509 
    2509     2515     2513     2508     2509     2515     2513     2511 
    2515     2512     2511     2512     2513     2517     2517     2511 
    2508     2511     2515     2517     2516     2511     2511     2516 
    2517     2512     2511     2513     2515     2515     2516     2517 
    2511     2508     2517     2519     2513     2511     2515     2516 
    2511     2512     2519     2516     2509     2511     2513     2513 
    2515     2520     2516     2504     2504     2516     2521     2512 
    2511     2512     2508     2506     2513     2521     2517     2506 
    2508     2512     2511     2513     2517     2516     2508     2504 
    2509     2515     2520     2519     2508     2505     2512     2513 
    2512     2516     2521     2513     2505     2513     2519     2513 
    2511     2516     2515     2508     2512     2521     2520     2511 
    2505     2516     2524     2515     2508     2513     2513     2512 
    2516     2517     2513     2508     2508     2513     2515     2512 
    2513     2513     2509     2511     2515     2519     2521     2513 
    2508     2515     2516     2515     2516     2513     2509     2509 
    2513     2517     2515     2509     2509     2512     2516     2516 
    2511     2508     2509     2512     2513     2517     2519     2509 
    2501     2511     2519     2516     2512     2511     2511     2508 
    2508     2516     2521     2515     2506     2508     2517     2521 
    2517     2515     2515     2512     2509     2509     2516     2520 
    2517     2509     2506     2512     2515     2513     2515     2515 
    2513     2512     2511     2516     2519     2513     2513     2517 
    2509     2509     2516     2519     2512     2506     2511     2515 
    2513     2516     2516     2509     2508     2512     2516     2516 
    2512     2511     2511     2512     2513     2513     2516     2513 
    2509     2511     2512     2517     2519     2511     2506     2511 
    2515     2513     2513     2517     2515     2504     2506     2521 
    2521     2512     2508     2512     2513     2512     2515     2521 
    2516     2505     2508     2521     2520     2513     2515     2512 
    2506     2512     2520     2520     2511     2504     2512     2517 
    2515     2515     2513     2512     2513     2509     2512     2519 
    2517     2513     2511     2509     2511     2513     2519     2520 
    2512     2506     2512     2517     2516     2513     2513     2512 
    2509     2515     2515     2506     2511     2516     2512     2511 
    2515     2516     2515     2511     2512     2515     2513     2513 
    2512     2508     2506     2516     2523     2520     2509     2509 
    2532     2604     2820     3217     3570     3640     3693     3913 
    2988     -685    -5070    -5055      228     4939     5895     8365 
   13967    13077     2691    -4228    -2485    -4548   -10763    -5042 
    8233    10866     7659     9747     8626      672     -592     4180 
    1908    -2091     -615    -1799    -4438     -344     4509     4953 
    5968     6559     3663     1555     2155     4091     7404     8942 
    5757     2095     1574      853    -1502    -1359     2866     6588 
    4887    -1422    -7585    -9431    -5888      -86     4352     7512 
   10837    12591    10108     5805     3586     2273      565     1306 
    4519     5356     2673      523      410      -97    -1979    -3342 
   -2641     -697      810     2116     4529     7684    10233    11115 
    9261     4600     -544    -3252    -3505    -3011    -1449     1711 
    4621     5489     4151     2047     1416     2203     2840     2953 
    2575     2554     3804     5008     5447     5497     3639      140 
   -1976    -2619    -2389      818     5987     8587     7886     6481 
    5005     3233     1648     -190    -2276    -3840    -4791    -3966 
     272     6613    10863    10335     7385     5694     5464     5148 
    3983     1894    -1534    -5636    -7261    -5044    -1048     2756 
    5463     6917     7349     6855     6443     6928     6277     2916 
    -421    -1617    -2357    -2505       24     3491     4866     4375 
    3786     4203     5059     4861     3402     1545      -87    -1198 
   -1266      444     3393     5063     3056     -861    -1347     2049 
    4129     4526     6837     9282     8785     7356     6037     2160 
   -3896    -7928    -8868    -8425    -4390     5420    15790    19390 
   14299     5362     -243    -2739    -7084   -10203    -6821    -2012 
   -2619    -5445    -5714    -6698   -10951   -14554   -15430   -14202 
   -8402     4318    20549    33867    42059    46680    46253    38002 
   24987    14050     8384     5455     1617    -3021    -7690   -14372 
  -21995   -26204   -26495   -22828   -13558    -2099     6874    13358 
   17072    16316    13031    10567     7330     -121    -9381   -14871 
  -15777   -13575    -6458     4243    10746    10251     8374     7508 
    3813    -2705    -5655    -1088     7676    14928    18798    19510 
   16140    10520     6898     5640     4662     3759     2610    -1073 
   -7723   -14087   -18376   -20937   -19896   -13603    -4509     3285 
    8013    10308    10245     7793     5435     6208    10274    15665 
   20407    23028    22208    16104     4430    -8959   -19584   -24995 
  -23535   -16054    -5787     5179    15719    24641    30647    32069 
   28525    20143     6937    -6812   -15032   -17190   -15541   -10623 
   -3735     2195     4595     2176    -3883   -10741   -16278   -18432 
  -15647    -8910       48     9717    17396    21143    21995    21829 
   20947    18581    14588    10265     6205      963    -5526   -11356 
  -16227   -19961   -20081   -15028    -6204     3261    10619    15716 
   18738    18378    15786    13325    10196     6065     2916      959 
    -538    -1148    -1263    -2042    -3863    -6319    -8141    -8286 
   -6791    -3967     -569     2558     5462     8413    11805    15916 
   19386    20274    18320    14094     8610     3850      171    -3856 
   -7712    -9828   -10829   -11600   -10628    -6885    -2583      114 
    1517     1890     1274     1042     1782     2685     3935     5686 
    6821     7450     9034    11329    12857    13323    12802    10997 
    8649     6948     5705     3862     1256    -1020    -2238    -3014 
   -3987    -5094    -6373    -7591    -8020    -7704    -6910    -5008 
   -1944      746     1841     2096     2708     3739     5076     6667 
    7993     8892     9693    10057     9436     8596     8762     9801 
   10747    10918     9934     7770     4715     1023    -2940    -6655 
   -9624   -11106   -10600    -8453    -5255    -1865      153      -28 
   -1179    -1297      430     3264     5799     7381     8357     8981 
    9576    10681    11924    12127    10459     7144     3283      -66 
   -2138    -2370    -1301     -263      438     1105     1432     1517 
    2007     2936     4129     5402     6061     5714     4735     3449 
    1961      868     1127     2654     4116     4482     3577     2107 
    1617     2808     4807     6301     5809     2816    -1005    -3937 
   -5640    -5819    -4638    -3492    -3172    -3086    -2797    -2160 
    -591     1865     3904     4592     4599     4824     5192     5702 
    6717     7700     7811     7349     6876     6376     5915     5535 
    5001     4329     3877     3925     4329     4711     4885     4567 
    3348     1551       82     -803    -1186     -822      132     1020 
    1344      839     -373    -1586    -2158    -2138    -1607     -554 
     414      884     1529     2849     4298     5354     5854     5630 
    4857     3936     3276     3389     4064     4394     4415     4753 
    4869     4054     3040     2774     3238     4287     5709     6655 
    6393     5162     3852     2924     2200     1718     1561     1331 
     769      305      475     1089     1329      908      448      217 
    -112     -284      103      621      808      935     1246     1529 
    1719     1956     2004     1611     1081      599      -33     -704 
   -1073    -1102     -804      162     1958     4005     5643     6912 
    7977     8515     8403     8086     7920     7700     6871     5256 
    3204     1115     -565    -1493    -1717    -1439    -1015     -830 
    -654       35     1262     2857     4737     6505     7565     7661 
    7009     5968     4961     4418     4405     4749     5071     4603 
    3192     1787     1108     1090     1659     2484     2651     1853 
     695     -280     -758     -604     -164       48      -54     -221 
    -164      338     1065     1310      807      288      623     1622 
    2579     3377     3915     3743     3010     2485     2539     3087 
    3975     4749     4922     4779     4986     5521     5930     6116 
    5849     4743     3268     2196     1506      993      861     1113 
    1285     1113      892      847      831      837     1036     1197 
     943      484      151     -184     -380       28      993     2192 
    3342     4048     4237     4229     4232     4214     4156     4133 
    4302     4934     5856     6249     5697     4617     3380     1856 
     216     -637     -372      205      600     1165     2000     2772 
    3635     4688     5115     4468     3407     2338     1275      776 
    1152     1775     2250     2643     2643     2212     1953     2054 
    2286     2732     3360     3759     3694     3330     3048     3037 
    3331     3985     4572     4448     3658     2714     1960     1526 
    1348     1066      523      139      197      650     1591     2686 
    3055     2681     2431     2467     2567     2953     3252     2770 
    1919     1385     1210     1544     2492     3249     3146     2928 
    3149     3018     2479     2519     2848     2523     1926     1655 
    1404     1248     1827     2990     4014     4579     4537     3832 
    2851     2074     1842     2251     2667     2517     2265     2272 
    2300     2575     3261     3589     3049     2177     1478      931 
     645      797     1146     1420     1691     2016     2317     2493 
    2604     2968     3574     3975     4101     4075     3669     3036 
    2766     2803     2592     2023     1495     1237     1097     1065 
    1399     2103     2818     3300     3568     3667     3634     3449 
    3123     3026     3433     3908     4017     3974     3770     3048 
    2199     1809     1584     1317     1337     1536     1618     1811 
