Origin Time       2021/08/14 22:38:00
Lat.              37.5
Long.             137.2
Depth. (km)       10
Mag.              4.1
Station Code      ISKH01
Station Lat.      37.5266
Station Long.     137.2844
Station Height(m) -152.5
Record Time       2021/08/14 22:38:09
Sampling Freq(Hz) 100Hz
Duration Time(s)  120
Dir.              1
Scale Factor      2942(gal)/8224139
Max. Acc. (gal)   17.327
Last Correction   2021/08/14 22:38:09
Memo.             
[...]
  111572   111570   111572   111570   111568   111568   111568   111569 
  111569   111566   111568   111570   111570   111570   111570   111569 
  111568   111568   111568   111569   111569   111568   111568   111568 
  111568   111569   111570   111566   111566   111569   111569   111566 
  111568   111569   111569   111569   111569   111569   111569   111569 
  111568   111569   111569   111569   111569   111569   111568   111565 
  111564   111569   111570   111565   111568   111569   111566   111566 
  111569   111569   111568   111568   111569   111569   111568   111568 
  111569   111570   111569   111568   111569   111569   111566   111568 
  111572   111569   111568   111570   111570   111568   111569   111568 
  111566   111569   111569   111566   111566   111568   111568   111568 
  111568   111569   111569   111566   111566   111569   111568   111568 
  111570   111569   111568   111570   111570   111568   111569   111570 
  111569   111570   111568   111566   111572   111570   111566   111568 
  111569   111569   111572   111572   111569   111570   111570   111570 
  111570   111570   111569   111569   111569   111570   111570   111566 
  111568   111570   111568   111566   111570   111570   111570   111572 
  111569   111566   111568   111568   111568   111568   111568   111569 
  111570   111569   111570   111573   111570   111569   111572   111572 
  111569   111569   111570   111570   111570   111572   111570   111569 
  111569   111568   111566   111569   111568   111566   111568   111569 
  111566   111566   111568   111569   111570   111569   111570   111570 
  111569   111570   111570   111570   111568   111568   111570   111570 
  111570   111570   111569   111568   111569   111572   111570   111569 
  111570   111570   111569   111569   111568   111568   111569   111569 
  111570   111570   111568   111569   111569   111568   111566   111566 
  111570   111569   111566   111570   111573   111572   111569   111569 
  111570   111569   111569   111570   111569   111568   111568   111568 
  111570   111570   111569   111568   111570   111572   111570   111569 
  111570   111570   111572   111572   111570   111568   111569   111572 
  111570   111568   111572   111573   111572   111574   111573   111570 
  111572   111570   111570   111570   111569   111570   111572   111569 
  111569   111572   111569   111568   111570   111572   111570   111570 
  111573   111572   111570   111570   111569   111568   111570   111573 
  111572   111570   111570   111569   111570   111573   111572   111570 
  111573   111572   111568   111568   111569   111572   111572   111569 
  111568   111568   111566   111568   111572   111572   111572   111574 
  111573   111570   111569   111569   111570   111572   111568   111566 
  111570   111569   111569   111572   111569   111566   111569   111570 
  111570   111570   111570   111568   111566   111568   111572   111570 
  111568   111570   111573   111569   111569   111570   111569   111568 
  111572   111573   111569   111569   111573   111573   111572   111570 
  111568   111566   111569   111572   111570   111569   111570   111569 
  111569   111570   111570   111569   111569   111570   111570   111569 
  111569   111570   111569   111569   111569   111568   111568   111569 
  111569   111569   111570   111570   111570   111572   111572   111572 
  111569   111570   111573   111570   111569   111572   111573   111572 
  111570   111568   111566   111570   111572   111568   111566   111569 
  111569   111569   111570   111570   111569   111568   111569   111570 
  111570   111569   111570   111573   111572   111570   111572   111573 
  111572   111572   111570   111569   111568   111569   111570   111572 
  111572   111570   111572   111573   111572   111572   111572   111572 
  111572   111572   111572   111572   111572   111570   111569   111570 
  111570   111570   111570   111573   111573   111570   111572   111573 
  111570   111568   111569   111572   111572   111569   111572   111574 
  111570   111570   111573   111573   111572   111570   111570   111569 
  111568   111569   111570   111568   111568   111570   111572   111572 
  111573   111572   111569   111569   111572   111572   111572   111573 
  111572   111570   111572   111572   111570   111570   111572   111574 
  111573   111572   111573   111572   111569   111572   111573   111570 
  111570   111572   111570   111570   111570   111570   111572   111572 
  111573   111573   111572   111570   111572   111573   111572   111572 
  111573   111572   111568   111568   111570   111570   111569   111570 
  111569   111569   111570   111569   111568   111569   111570   111570 
  111572   111572   111572   111573   111570   111568   111570   111572 
  111570   111570   111570   111572   111573   111573   111574   111574 
  111572   111570   111572   111573   111569   111568   111570   111573 
  111570   111572   111573   111572   111572   111573   111570   111569 
  111570   111572   111570   111570   111572   111573   111572   111570 
  111570   111570   111574   111577   111574   111574   111576   111573 
  111572   111572   111572   111572   111570   111569   111570   111572 
  111572   111570   111572   111572   111573   111573   111570   111570 
  111569   111569   111570   111572   111573   111572   111572   111573 
  111572   111570   111569   111569   111570   111572   111569   111570 
  111573   111573   111573   111572   111572   111573   111573   111569 
  111568   111566   111569   111572   111570   111568   111569   111569 
  111568   111569   111570   111570   111572   111573   111572   111572 
  111573   111572   111568   111568   111572   111574   111570   111569 
  111572   111574   111572   111572   111573   111569   111570   111574 
  111572   111570   111572   111573   111573   111573   111574   111573 
  111570   111572   111573   111574   111574   111572   111569   111570 
  111572   111572   111573   111574   111576   111574   111572   111570 
  111572   111572   111572   111570   111573   111574   111572   111570 
  111572   111572   111570   111572   111572   111572   111572   111572 
  111572   111570   111570   111573   111574   111572   111570   111572 
  111572   111570   111570   111573   111574   111572   111573   111572 
  111569   111568   111570   111572   111572   111570   111573   111574 
  111574   111573   111572   111573   111573   111570   111572   111574 
  111574   111574   111573   111572   111569   111570   111570   111570 
  111570   111570   111569   111570   111570   111572   111573   111574 
  111573   111572   111569   111570   111570   111570   111572   111573 
  111572   111570   111572   111572   111573   111570   111570   111574 
  111573   111570   111570   111570   111570   111570   111573   111572 
  111570   111572   111572   111572   111570   111570   111572   111572 
  111573   111573   111572   111570   111572   111570   111566   111569 
  111573   111570   111570   111573   111572   111569   111569   111568 
  111568   111569   111568   111570   111573   111572   111572   111572 
  111570   111570   111569   111568   111569   111569   111569   111569 
  111569   111570   111570   111572   111573   111572   111570   111570 
  111570   111570   111569   111569   111569   111570   111570   111570 
  111570   111573   111570   111568   111570   111569   111568   111569 
  111568   111569   111572   111572   111572   111572   111569   111566 
  111568   111570   111569   111569   111569   111569   111569   111572 
  111572   111572   111570   111570   111570   111570   111569   111569 
  111570   111570   111569   111569   111570   111570   111569   111569 
  111570   111570   111572   111570   111572   111572   111570   111570 
  111570   111569   111572   111573   111572   111569   111569   111572 
  111573   111572   111570   111570   111572   111572   111572   111572 
  111572   111570   111570   111570   111570   111569   111570   111572 
  111572   111572   111572   111569   111568   111570   111573   111573 
  111573   111572   111569   111568   111570   111572   111570   111569 
  111570   111569   111569   111570   111572   111573   111572   111570 
  111570   111569   111568   111568   111569   111570   111570   111569 
  111569   111569   111570   111570   111570   111569   111569   111569 
  111570   111572   111570   111568   111568   111569   111572   111573 
  111570   111568   111573   111574   111569   111569   111570   111568 
  111569   111573   111572   111569   111569   111570   111569   111568 
  111570   111572   111568   111566   111569   111568   111568   111570 
  111570   111569   111568   111568   111569   111568   111568   111570 
  111573   111572   111569   111569   111570   111572   111572   111568 
  111569   111573   111573   111572   111569   111568   111570   111570 
  111569   111572   111570   111568   111569   111572   111570   111569 
  111569   111570   111570   111570   111570   111569   111570   111570 
  111570   111572   111569   111566   111570   111574   111573   111572 
  111572   111572   111572   111570   111572   111572   111569   111570 
  111572   111570   111570   111569   111569   111572   111570   111565 
  111569   111573   111572   111572   111572   111572   111572   111570 
  111570   111572   111572   111570   111570   111569   111568   111569 
  111570   111572   111572   111568   111568   111569   111568   111566 
  111569   111569   111570   111572   111569   111568   111568   111568 
  111569   111572   111570   111569   111570   111570   111569   111570 
  111570   111570   111570   111569   111568   111569   111572   111570 
  111570   111570   111569   111572   111570   111568   111570   111570 
  111570   111569   111569   111569   111570   111569   111568   111568 
  111569   111570   111569   111568   111569   111570   111570   111568 
  111568   111569   111570   111570   111569   111566   111568   111570 
  111569   111568   111569   111568   111568   111569   111569   111568 
  111569   111569   111568   111566   111569   111569   111568   111569 
  111569   111566   111566   111568   111569   111570   111572   111569 
  111569   111570   111568   111569   111573   111570   111568   111570 
  111570   111570   111570   111569   111569   111572   111573   111570 
  111569   111569   111569   111570   111573   111572   111570   111570 
  111570   111570   111569   111570   111572   111572   111570   111569 
  111569   111570   111572   111572   111572   111572   111570   111569 
  111570   111573   111570   111569   111570   111570   111569   111569 
  111569   111569   111569   111570   111570   111569   111570   111570 
  111569   111570   111570   111570   111569   111568   111570   111572 
  111570   111572   111572   111570   111569   111570   111572   111568 
  111566   111568   111568   111568   111570   111570   111570   111569 
  111566   111568   111569   111569   111568   111566   111568   111568 
  111568   111568   111568   111566   111568   111569   111568   111568 
  111569   111566   111566   111569   111570   111570   111569   111568 
  111568   111568   111566   111566   111569   111569   111566   111565 
  111566   111569   111569   111570   111572   111568   111565   111569 
  111570   111568   111568   111568   111566   111570   111570   111566 
  111566   111568   111568   111569   111570   111570   111569   111568 
  111569   111570   111568   111568   111570   111569   111568   111569 
  111572   111570   111566   111568   111570   111572   111572   111570 
  111569   111569   111569   111568   111568   111569   111569   111569 
  111569   111569   111570   111570   111569   111570   111572   111569 
  111568   111570   111569   111566   111568   111568   111568   111570 
  111569   111568   111570   111572   111569   111568   111569   111570 
  111566   111565   111570   111572   111568   111566   111569   111572 
  111569   111565   111564   111558   111524   111389   110974   110315 
  110300   111897   113651   112833   110874   111977   115585   116024 
  110535   107176   112648   115318   109566   108041   109603   108699 
  112988   115778   107163   102319   112716   122239   115109   105590 
  110660   116430   113915   112490   108882   104317   108349   113981 
  114309   110786   107217   111969   118100   111905   104845   110053 
  116025   115087   112045   108483   111655   116999   110677   107966 
  114974   112401   107137   112128   115827   111778   108009   109881 
  113661   113375   109675   107767   111041   116965   118103   111024 
  104635   109244   116094   113213   108658   110754   113815   113067 
  110656   109663   110268   109987   108542   109163   111678   112654 
  112417   112981   114297   115231   114107   111704   110285   110748 
  113764   114673   110679   109632   111757   110054   106748   105968 
  108361   111177   111127   111661   113441   112978   112919   114107 
  113869   113132   112226   110559   110201   112738   114679   112151 
  109264   110701   112556   111299   109881   110656   111388   110613 
  111150   112900   113532   113726   112558   110782   110890   111179 
  110789   109991   108950   110006   112977   114447   112515   109364 
  109506   112033   112307   111977   113343   112623   109833   109935 
  112085   112429   111585   111032   110169   109664   111842   114196 
  112834   111306   111515   110897   109977   110176   113082   115398 
  112032   107970   107289   108148   110853   112471   111218   113413 
  119381   121333   119773   122920   131745   137608   131843   114073 
   97016    94753    98521    86058    63132    63836    98077   130769 
  132622   119325   113796   115790   120105   117960   102838    90826 
  100456   122473   132518   125987   117069   112116   112359   116148 
  116025   114944   115965   113805   109671   104364   102231   111825 
  123250   123630   117301   112387   109368   105048   103739   106658 
  104931   100642   100757   102481   105717   110909   113494   116251 
  120360   118536   116756   123492   127056   118110   105258    97904 
   96934   101444   107979   109104   106432   107516   112020   117555 
  122963   125955   126771   125238   120650   116870   114066   107840 
  102685   102440   101853   102598   106636   106011   101582   102485 
  108527   114783   119979   123754   124324   121230   117738   114322 
  108060   104153   106999   108573   107098   108765   110278   108426 
  107381   107595   106605   105075   104172   104242   105850   109308 
  114650   119484   120409   119898   122210   124592   123283   119458 
  114501   110324   109749   110438   108958   107836   108660   108710 
  107977   108500   110274   112202   112599   110301   107187   106871 
  109082   109505   107229   104738   104535   109881   117134   117930 
  114905   113902   113202   112676   112946   111511   109819   110806 
  112170   112473   114936   118692   119572   118693   117167   113907 
  112016   112877   112272   109183   106994   106748   106988   106728 
  105447   104728   107411   111582   112897   111674   110647   111095 
  113328   114887   112715   109503   108743   109243   110463   112465 
  113302   112752   112444   112054   110177   107798   106875   108064 
  110890   113374   114507   115569   116715   116542   114585   112372 
  111754   112202   112359   111848   110659   110066   110727   110664 
  109277   109390   112477   114767   113179   110748   110007   110045 
  110162   109649   109362   110851   112611   113852   115052   114760 
  113143   112627   114299   116748   116878   114351   112405   111771 
  111298   111815   112444   111057   109536   109958   110577   110199 
  109626   108923   107731   106863   107530   108531   107643   105949 
  105210   105614   108506   113201   115487   114783   115036   116989 
  117462   116149   115219   114959   114902   114187   111873   109641 
  109491   109929   109436   109676   110567   110135   110073   111643 
  112746   113202   113826   113661   112957   113167   113148   111692 
  110821   110920   110263   109528   110127   111661   112546   112167 
  111496   110998   110905   111501   111673   110872   110353   110342 
  110509   111863   113710   114226   113869   112727   110516   108615 
  107323   106764   107851   109998   112599   114423   113528   111771 
  111935   112745   112418   111700   111842   112530   112340   111257 
  110776   111285   112239   113252   113547   112882   111775   110448 
  109950   110932   111412   110222   109100   109345   110388   111003 
  110759   110552   110582   110466   111375   113584   114818   113597 
  110932   108893   108541   109032   109572   110793   112692   113744 
  113741   113938   114037   113281   112594   112109   110694   109467 
  110296   112180   113297   113324   112938   113070   113582   113395 
  112453   111735   111740   112012   111809   110835   109483   108700 
  109140   110311   110806   110133   109530   110030   111183   111932 
  111842   111537   111724   112349   113216   113702   112762   111423 
  111565   112388   112487   112260   112251   112091   111584   111511 
  112189   112494   112230   112513   112742   111627   110296   110192 
  111098   112679   114089   114012   112945   112126   111280   110016 
  109275   110165   112012   112795   112405   112091   111869   111836 
  111758   110685   109638   109875   110490   110748   110737   110220 
  109636   109945   110918   111501   111157   110560   110512   110512 
  110585   111632   112684   112533   112066   111948   111969   112153 
  111994   110918   109688   109381   109777   110220   110944   111997 
  112467   112077   111784   112202   113182   114350   114673   113630 
  112387   111596   111154   111550   112112   111835   111634   111851 
  111685   111549   111846   112058   111825   111248   111234   112160 
  112822   112695   112596   112899   112834   112082   111484   111110 
  110907   111499   112147   111678   110700   110346   110602   110947 
  111281   111655   111744   111221   110625   110606   110551   109836 
  109428   110007   110812   111508   112012   111802   111240   111333 
  112268   113136   113131   112592   112106   111784   111744   111825 
  111474   110659   110043   110219   110956   111338   111289   111414 
  111402   111172   111592   112706   113416   113001   112243   112137 
  112021   111215   110452   110407   110976   111192   110550   110351 
  110862   110749   110496   110901   110999   110751   110959   111429 
  112083   112725   112673   112241   111763   110926   110532   111156 
  111694   111967   112785   113833   114712   115218   114548   113004 
  112144   112207   112125   111618   111254   111307   111504   111717 
  112183   112465   111750   110519   109780   109520   109440   109563 
  109687   109733   110142   110920   111246   111003   111258   112261 
  112733   112101   111426   111288   111419   111893   112414   112402 
  112140   111982   111685   111218   110960   110933   110994   111453 
  112291   112874   112843   112213   111325   110740   110511   110489 
  110852   111203   110920   110616   111010   111778   112534   112943 
  112947   112854   112556   112210   112016   111569   110988   110663 
  110616   110897   111227   111489   111894   112315   112788   113185 
  113243   113081   112465   111618   111400   111785   111881   111119 
  110250   110300   110710   110813   111149   111539   111234   110516 
