Origin Time       2021/08/14 22:38:00
Lat.              37.5
Long.             137.2
Depth. (km)       10
Mag.              4.1
Station Code      ISKH06
Station Lat.      37.0533
Station Long.     136.8206
Station Height(m) -180.45
Record Time       2021/08/14 22:38:25
Sampling Freq(Hz) 100Hz
Duration Time(s)  120
Dir.              1
Scale Factor      3923(gal)/8224838
Max. Acc. (gal)   0.402
Last Correction   2021/08/14 22:38:25
Memo.             
[...]
   -5425    -5422    -5429    -5431    -5428    -5425    -5425    -5425 
   -5425    -5425    -5427    -5428    -5425    -5425    -5425    -5425 
   -5427    -5425    -5425    -5428    -5428    -5428    -5427    -5425 
   -5425    -5425    -5425    -5427    -5428    -5431    -5431    -5425 
   -5425    -5428    -5427    -5425    -5427    -5429    -5428    -5427 
   -5428    -5425    -5422    -5427    -5428    -5425    -5427    -5427 
   -5425    -5425    -5427    -5425    -5425    -5425    -5427    -5424 
   -5425    -5428    -5427    -5425    -5425    -5425    -5425    -5425 
   -5424    -5425    -5425    -5425    -5424    -5425    -5428    -5428 
   -5427    -5427    -5425    -5425    -5429    -5428    -5424    -5424 
   -5425    -5425    -5427    -5428    -5428    -5427    -5428    -5428 
   -5428    -5425    -5424    -5425    -5428    -5427    -5427    -5427 
   -5425    -5427    -5427    -5425    -5424    -5424    -5428    -5429 
   -5427    -5427    -5429    -5428    -5428    -5425    -5424    -5425 
   -5427    -5427    -5427    -5428    -5424    -5424    -5428    -5431 
   -5427    -5427    -5427    -5424    -5425    -5425    -5425    -5428 
   -5429    -5427    -5425    -5425    -5425    -5425    -5427    -5427 
   -5427    -5427    -5422    -5425    -5429    -5424    -5421    -5425 
   -5425    -5425    -5428    -5427    -5427    -5428    -5429    -5427 
   -5422    -5424    -5427    -5427    -5427    -5427    -5424    -5425 
   -5428    -5427    -5427    -5427    -5427    -5424    -5422    -5425 
   -5425    -5427    -5429    -5427    -5424    -5427    -5429    -5424 
   -5421    -5425    -5427    -5422    -5424    -5427    -5424    -5424 
   -5427    -5425    -5425    -5428    -5427    -5427    -5429    -5427 
   -5425    -5428    -5427    -5425    -5427    -5427    -5424    -5425 
   -5425    -5422    -5425    -5428    -5425    -5427    -5425    -5422 
   -5425    -5425    -5424    -5427    -5427    -5424    -5428    -5431 
   -5427    -5425    -5424    -5424    -5425    -5425    -5425    -5425 
   -5425    -5425    -5425    -5425    -5428    -5429    -5427    -5425 
   -5425    -5425    -5427    -5428    -5427    -5428    -5428    -5425 
   -5427    -5427    -5425    -5425    -5425    -5425    -5427    -5427 
   -5428    -5427    -5424    -5427    -5427    -5427    -5428    -5427 
   -5427    -5429    -5429    -5428    -5428    -5429    -5429    -5427 
   -5428    -5428    -5427    -5427    -5425    -5424    -5428    -5428 
   -5425    -5425    -5424    -5421    -5420    -5421    -5421    -5425 
   -5429    -5431    -5428    -5428    -5432    -5437    -5437    -5436 
   -5435    -5431    -5429    -5425    -5416    -5416    -5418    -5414 
   -5418    -5432    -5436    -5437    -5439    -5428    -5416    -5418 
   -5428    -5431    -5425    -5422    -5416    -5405    -5404    -5398 
   -5394    -5421    -5471    -5478    -5447    -5439    -5436    -5420 
   -5427    -5431    -5410    -5409    -5420    -5432    -5470    -5474 
   -5418    -5377    -5386    -5431    -5490    -5489    -5417    -5371 
   -5394    -5435    -5437    -5413    -5410    -5395    -5367    -5409 
   -5447    -5421    -5443    -5502    -5505    -5456    -5379    -5363 
   -5440    -5470    -5444    -5454    -5435    -5367    -5347    -5432 
   -5541    -5491    -5333    -5305    -5370    -5404    -5451    -5481 
   -5451    -5425    -5382    -5362    -5451    -5486    -5414    -5428 
   -5509    -5483    -5387    -5378    -5456    -5509    -5470    -5364 
   -5352    -5455    -5472    -5395    -5381    -5437    -5471    -5455 
   -5464    -5481    -5400    -5312    -5337    -5391    -5412    -5436 
   -5464    -5452    -5385    -5348    -5395    -5448    -5463    -5456 
   -5425    -5404    -5462    -5499    -5406    -5333    -5391    -5495 
   -5545    -5475    -5391    -5424    -5429    -5340    -5351    -5448 
   -5495    -5552    -5567    -5448    -5344    -5340    -5375    -5406 
   -5420    -5455    -5475    -5437    -5408    -5331    -5254    -5337 
   -5429    -5460    -5529    -5455    -5298    -5386    -5584    -5625 
   -5517    -5359    -5304    -5391    -5498    -5545    -5463    -5306 
   -5267    -5346    -5464    -5557    -5486    -5386    -5437    -5445 
   -5405    -5471    -5489    -5440    -5454    -5378    -5262    -5328 
   -5406    -5377    -5470    -5567    -5435    -5356    -5470    -5512 
   -5441    -5378    -5402    -5471    -5443    -5397    -5439    -5459 
   -5420    -5383    -5381    -5378    -5356    -5452    -5572    -5456 
   -5323    -5381    -5398    -5390    -5485    -5498    -5443    -5489 
   -5495    -5391    -5367    -5452    -5481    -5414    -5383    -5391 
   -5377    -5404    -5451    -5425    -5402    -5443    -5422    -5362 
   -5445    -5545    -5487    -5422    -5385    -5363    -5424    -5451 
   -5459    -5503    -5449    -5405    -5454    -5428    -5377    -5383 
   -5337    -5293    -5394    -5555    -5598    -5472    -5294    -5305 
   -5502    -5597    -5494    -5328    -5252    -5340    -5436    -5437 
   -5449    -5470    -5463    -5501    -5551    -5524    -5443    -5416 
   -5408    -5306    -5252    -5348    -5456    -5510    -5459    -5351 
   -5356    -5409    -5451    -5543    -5535    -5414    -5440    -5526 
   -5400    -5298    -5447    -5499    -5374    -5347    -5377    -5378 
   -5420    -5464    -5483    -5489    -5441    -5400    -5435    -5456 
   -5441    -5431    -5394    -5371    -5368    -5366    -5445    -5540 
   -5464    -5328    -5329    -5429    -5510    -5476    -5386    -5389 
   -5404    -5386    -5479    -5517    -5377    -5381    -5526    -5471 
   -5343    -5410    -5539    -5518    -5374    -5304    -5408    -5501 
   -5451    -5367    -5362    -5439    -5497    -5448    -5391    -5437 
   -5499    -5485    -5427    -5383    -5344    -5341    -5433    -5490 
   -5425    -5373    -5375    -5401    -5454    -5445    -5389    -5398 
   -5398    -5389    -5466    -5485    -5441    -5468    -5441    -5379 
   -5463    -5553    -5483    -5343    -5260    -5312    -5449    -5495 
   -5451    -5501    -5566    -5452    -5343    -5439    -5563    -5536 
   -5398    -5292    -5341    -5462    -5463    -5350    -5289    -5375 
   -5472    -5466    -5448    -5440    -5382    -5336    -5356    -5421 
   -5493    -5487    -5417    -5373    -5377    -5428    -5505    -5562 
   -5583    -5517    -5381    -5333    -5432    -5520    -5460    -5350 
   -5321    -5329    -5370    -5464    -5476    -5394    -5390    -5436 
   -5425    -5449    -5512    -5462    -5378    -5391    -5401    -5389 
   -5433    -5458    -5435    -5409    -5332    -5252    -5297    -5448 
   -5611    -5691    -5630    -5485    -5356    -5341    -5414    -5433 
   -5394    -5363    -5360    -5437    -5475    -5398    -5417    -5470 
   -5387    -5406    -5536    -5464    -5329    -5371    -5366    -5287 
   -5382    -5481    -5433    -5444    -5476    -5425    -5421    -5452 
   -5437    -5410    -5395    -5401    -5410    -5451    -5548    -5552 
   -5427    -5344    -5378    -5489    -5556    -5471    -5409    -5471 
   -5451    -5356    -5346    -5362    -5360    -5364    -5335    -5312 
   -5378    -5478    -5505    -5470    -5467    -5491    -5467    -5424 
   -5422    -5420    -5405    -5467    -5526    -5445    -5358    -5389 
   -5444    -5459    -5467    -5443    -5355    -5313    -5418    -5524 
   -5499    -5432    -5375    -5329    -5373    -5435    -5408    -5424 
   -5510    -5486    -5404    -5389    -5368    -5352    -5394    -5440 
   -5470    -5459    -5413    -5394    -5386    -5425    -5505    -5498 
   -5501    -5522    -5390    -5277    -5374    -5510    -5513    -5418 
   -5424    -5520    -5455    -5331    -5370    -5420    -5401    -5401 
   -5348    -5290    -5355    -5448    -5520    -5583    -5524    -5412 
   -5398    -5382    -5362    -5448    -5486    -5356    -5244    -5310 
   -5485    -5579    -5541    -5514    -5495    -5435    -5455    -5483 
   -5379    -5298    -5340    -5440    -5508    -5451    -5420    -5513 
   -5499    -5355    -5270    -5278    -5347    -5420    -5452    -5506 
   -5525    -5425    -5383    -5443    -5395    -5343    -5440    -5508 
   -5481    -5463    -5418    -5339    -5379    -5548    -5607    -5495 
   -5417    -5371    -5286    -5273    -5325    -5383    -5470    -5455 
   -5335    -5320    -5387    -5412    -5509    -5625    -5510    -5391 
   -5533    -5584    -5414    -5389    -5468    -5404    -5328    -5386 
   -5466    -5452    -5394    -5408    -5454    -5440    -5440    -5422 
   -5360    -5449    -5578    -5468    -5320    -5308    -5306    -5337 
   -5420    -5482    -5559    -5574    -5471    -5377    -5328    -5332 
   -5395    -5404    -5385    -5428    -5475    -5506    -5467    -5370 
   -5368    -5418    -5414    -5400    -5386    -5389    -5421    -5458 
   -5512    -5537    -5462    -5381    -5433    -5516    -5462    -5346 
   -5282    -5305    -5437    -5574    -5555    -5432    -5416    -5441 
   -5336    -5274    -5351    -5401    -5471    -5545    -5490    -5468 
   -5539    -5471    -5324    -5371    -5498    -5425    -5298    -5339 
   -5378    -5379    -5491    -5537    -5435    -5373    -5325    -5332 
   -5476    -5543    -5479    -5404    -5346    -5409    -5549    -5552 
   -5436    -5314    -5279    -5429    -5613    -5609    -5495    -5397 
   -5329    -5327    -5358    -5377    -5390    -5433    -5539    -5529 
   -5339    -5301    -5440    -5503    -5570    -5603    -5429    -5310 
   -5445    -5489    -5340    -5343    -5479    -5614    -5733    -5668 
   -5517    -5499    -5509    -5494    -5435    -5282    -5208    -5254 
   -5286    -5300    -5269    -5209    -5221    -5227    -5233    -5410 
   -5537    -5439    -5428    -5475    -5360    -5343    -5486    -5533 
   -5529    -5512    -5440    -5437    -5471    -5432    -5362    -5279 
   -5306    -5497    -5541    -5428    -5476    -5495    -5250    -5076 
   -5208    -5494    -5710    -5724    -5746    -5898    -5815    -5427 
   -5103    -5036    -5193    -5400    -5404    -5247    -5186    -5292 
   -5471    -5544    -5363    -5221    -5444    -5722    -5792    -5756 
   -5575    -5410    -5467    -5460    -5323    -5332    -5436    -5475 
   -5472    -5494    -5513    -5441    -5368    -5405    -5429    -5360 
   -5383    -5476    -5371    -5242    -5340    -5394    -5401    -5593 
   -5675    -5508    -5387    -5270    -5061    -5040    -5211    -5278 
   -5313    -5522    -5710    -5674    -5593    -5448    -5174    -5179 
   -5447    -5508    -5522    -5613    -5404    -5169    -5429    -5710 
   -5516    -5301    -5429    -5540    -5458    -5466    -5435    -5236 
   -5298    -5502    -5435    -5394    -5501    -5580    -5725    -5741 
   -5412    -5094    -5184    -5567    -5740    -5451    -5121    -5150 
   -5296    -5309    -5445    -5736    -5755    -5535    -5506    -5582 
   -5464    -5286    -5223    -5267    -5437    -5614    -5616    -5413 
   -5213    -5304    -5445    -5370    -5454    -5686    -5590    -5360 
   -5385    -5428    -5238    -5086    -5239    -5530    -5593    -5304 
   -5022    -5089    -5437    -5796    -5791    -5418    -5247    -5440 
   -5601    -5621    -5541    -5344    -5297    -5421    -5346    -5260 
   -5490    -5676    -5620    -5521    -5356    -5296    -5567    -5686 
   -5325    -5076    -5259    -5427    -5394    -5397    -5512    -5633 
   -5705    -5680    -5463    -5232    -5287    -5360    -5283    -5412 
   -5597    -5491    -5220    -4996    -5175    -5715    -5953    -5880 
   -5757    -5390    -5090    -5189    -5301    -5309    -5314    -5250 
   -5328    -5557    -5512    -5266    -5205    -5246    -5356    -5622 
   -5734    -5622    -5539    -5416    -5294    -5346    -5405    -5435 
   -5470    -5370    -5255    -5250    -5143    -5015    -5258    -5749 
   -5876    -5563    -5366    -5455    -5499    -5454    -5490    -5571 
   -5587    -5613    -5757    -5871    -5672    -5167    -4726    -4711 
   -5186    -5784    -5962    -5728    -5497    -5293    -5123    -5244 
   -5421    -5314    -5238    -5428    -5536    -5418    -5335    -5278 
   -5220    -5378    -5597    -5620    -5641    -5780    -5760    -5444 
   -5209    -5404    -5767    -5823    -5537    -5270    -5190    -5147 
   -5097    -5074    -5042    -5107    -5386    -5652    -5701    -5701 
   -5705    -5576    -5416    -5336    -5282    -5262    -5416    -5705 
   -5688    -5175    -4801    -5039    -5373    -5420    -5499    -5630 
   -5644    -5645    -5582    -5413    -5327    -5364    -5458    -5564 
   -5637    -5706    -5738    -5552    -5192    -5058    -5256    -5413 
   -5447    -5555    -5520    -5229    -5139    -5416    -5707    -5773 
   -5729    -5755    -5630    -5158    -4865    -5073    -5305    -5313 
   -5286    -5355    -5563    -5684    -5501    -5341    -5456    -5487 
   -5317    -5285    -5383    -5445    -5664    -6022    -6010    -5563 
   -5170    -4853    -4625    -5013    -5663    -5682    -5336    -5178 
   -5206    -5537    -5988    -5995    -5576    -5185    -5073    -5228 
   -5437    -5537    -5516    -5463    -5463    -5424    -5383    -5493 
   -5517    -5348    -5356    -5535    -5520    -5362    -5324    -5319 
   -5229    -5313    -5622    -5717    -5431    -5103    -5082    -5401 
   -5744    -5853    -5782    -5586    -5366    -5320    -5383    -5414 
   -5501    -5568    -5381    -5085    -5005    -5105    -5194    -5259 
   -5347    -5421    -5373    -5205    -5162    -5373    -5652    -5782 
   -5753    -5703    -5729    -5822    -5841    -5663    -5471    -5437 
   -5416    -5360    -5429    -5497    -5346    -5090    -4831    -4583 
   -4652    -5107    -5502    -5776    -6004    -5854    -5552    -5583 
   -5606    -5377    -5304    -5474    -5552    -5468    -5537    -5837 
   -5957    -5736    -5468    -5305    -5213    -5162    -5007    -4793 
   -4897    -5404    -5829    -5765    -5449    -5305    -5281    -5255 
   -5417    -5726    -5782    -5524    -5374    -5433    -5386    -5355 
   -5555    -5614    -5408    -5340    -5435    -5358    -5143    -5081 
   -5175    -5282    -5397    -5510    -5525    -5404    -5329    -5466 
   -5614    -5613    -5611    -5618    -5497    -5410    -5571    -5783 
   -5760    -5506    -5148    -4899    -4968    -5167    -5227    -5329 
   -5667    -5960    -5832    -5425    -5259    -5418    -5598    -5728 
   -5779    -5648    -5440    -5258    -5088    -5038    -5209    -5435 
   -5439    -5211    -5013    -5089    -5393    -5679    -5832    -5840 
   -5647    -5270    -4995    -5100    -5420    -5590    -5540    -5436 
   -5447    -5580    -5622    -5449    -5292    -5331    -5363    -5274 
   -5274    -5386    -5432    -5483    -5641    -5749    -5741    -5659 
   -5463    -5225    -5077    -5040    -5148    -5348    -5514    -5563 
   -5440    -5300    -5286    -5283    -5327    -5487    -5574    -5562 
   -5580    -5572    -5471    -5425    -5566    -5707    -5618    -5447 
   -5409    -5458    -5493    -5502    -5502    -5371    -5047    -4849 
   -4968    -5204    -5436    -5602    -5713    -5825    -5752    -5517 
   -5462    -5543    -5553    -5525    -5459    -5394    -5394    -5337 
   -5236    -5279    -5424    -5474    -5435    -5377    -5248    -5135 
   -5219    -5437    -5621    -5648    -5475    -5250    -5146    -5171 
   -5258    -5383    -5606    -5838    -5933    -5931    -5822    -5524 
   -5259    -5231    -5285    -5306    -5337    -5325    -5227    -5151 
   -5098    -4986    -5012    -5305    -5582    -5663    -5568    -5416 
   -5448    -5583    -5564    -5525    -5622    -5697    -5686    -5718 
   -5733    -5594    -5406    -5306    -5279    -5302    -5409    -5597 
   -5659    -5428    -5123    -4984    -4995    -5127    -5346    -5576 
   -5744    -5778    -5672    -5475    -5346    -5351    -5331    -5290 
   -5332    -5362    -5329    -5327    -5358    -5397    -5481    -5584 
   -5641    -5628    -5493    -5273    -5105    -5007    -5043    -5287 
   -5580    -5730    -5679    -5568    -5566    -5566    -5502    -5498 
   -5478    -5379    -5362    -5420    -5370    -5273    -5293    -5362 
   -5436    -5582    -5643    -5520    -5439    -5513    -5651    -5713 
   -5563    -5277    -5103    -5154    -5323    -5441    -5418    -5297 
   -5279    -5414    -5481    -5466    -5539    -5684    -5769    -5667 
   -5402    -5197    -5188    -5287    -5393    -5428    -5331    -5233 
   -5343    -5529    -5551    -5444    -5313    -5248    -5359    -5506 
   -5518    -5530    -5571    -5462    -5281    -5198    -5227    -5337 
   -5435    -5448    -5462    -5512    -5524    -5502    -5539    -5629 
   -5652    -5586    -5486    -5389    -5374    -5405    -5356    -5242 
   -5148    -5175    -5360    -5529    -5516    -5455    -5474    -5445 
   -5323    -5273    -5373    -5575    -5721    -5664    -5545    -5471 
   -5364    -5292    -5327    -5417    -5498    -5462    -5347    -5347 
   -5449    -5509    -5505    -5478    -5463    -5489    -5495    -5395 
   -5279    -5248    -5244    -5269    -5340    -5347    -5281    -5317 
   -5475    -5541    -5436    -5363    -5449    -5562    -5620    -5640 
   -5599    -5557    -5578    -5562    -5452    -5367    -5351    -5340 
   -5350    -5416    -5452    -5360    -5238    -5231    -5277    -5327 
   -5466    -5599    -5618    -5606    -5544    -5420    -5363    -5386 
   -5400    -5354    -5251    -5224    -5316    -5386    -5402    -5417 
   -5458    -5559    -5622    -5605    -5629    -5606    -5436    -5290 
   -5247    -5256    -5346    -5432    -5425    -5448    -5579    -5680 
   -5611    -5418    -5251    -5184    -5181    -5200    -5263    -5366 
   -5451    -5522    -5597    -5587    -5485    -5398    -5393    -5474 
   -5553    -5539    -5437    -5297    -5240    -5343    -5486    -5536 
   -5489    -5429    -5410    -5398    -5402    -5417    -5397    -5401 
   -5462    -5512    -5525    -5497    -5498    -5564    -5552    -5433 
   -5324    -5258    -5274    -5386    -5412    -5329    -5324    -5368 
   -5354    -5387    -5524    -5620    -5606    -5545    -5458    -5368 
   -5339    -5329    -5283    -5260    -5328    -5467    -5584    -5586 
   -5447    -5263    -5205    -5300    -5435    -5552    -5571    -5468 
   -5433    -5530    -5580    -5508    -5391    -5348    -5437    -5553 
   -5582    -5518    -5395    -5306    -5329    -5393    -5435    -5460 
   -5443    -5414    -5422    -5377    -5273    -5266    -5344    -5363 
   -5339    -5366    -5389    -5347    -5348    -5440    -5535    -5593 
   -5613    -5584    -5518    -5433    -5418    -5509    -5590    -5649 
   -5667    -5524    -5355    -5309    -5278    -5229    -5228    -5256 
   -5287    -5325    -5394    -5436    -5386    -5360    -5387    -5358 
   -5347    -5425    -5513    -5584    -5601    -5521    -5439    -5414 
   -5416    -5463    -5564    -5582    -5495    -5489    -5521    -5454 
   -5436    -5489    -5412    -5281    -5243    -5236    -5229    -5271 
   -5355    -5412    -5413    -5436    -5526    -5614    -5644    -5616 
   -5533    -5456    -5439    -5427    -5350    -5247    -5202    -5227 
   -5301    -5413    -5503    -5540    -5563    -5533    -5437    -5375 
   -5350    -5352    -5456    -5599    -5640    -5567    -5471    -5408 
   -5358    -5302    -5255    -5235    -5278    -5377    -5458    -5493 
   -5494    -5462    -5414    -5383    -5383    -5378    -5355    -5393 
   -5486    -5516    -5497    -5486    -5435    -5371    -5391    -5451 
