Origin Time       2021/08/14 22:38:00
Lat.              37.5
Long.             137.2
Depth. (km)       10
Mag.              4.1
Station Code      ISKH06
Station Lat.      37.0533
Station Long.     136.8206
Station Height(m) 20
Record Time       2021/08/14 22:38:25
Sampling Freq(Hz) 100Hz
Duration Time(s)  120
Dir.              5
Scale Factor      7845(gal)/8223790
Max. Acc. (gal)   1.193
Last Correction   2021/08/14 22:38:25
Memo.             
[...]
   -1371    -1371    -1370    -1370    -1370    -1370    -1371    -1370 
   -1368    -1370    -1371    -1368    -1368    -1368    -1368    -1370 
   -1370    -1370    -1368    -1370    -1370    -1371    -1371    -1370 
   -1368    -1371    -1371    -1371    -1372    -1370    -1370    -1372 
   -1371    -1370    -1371    -1372    -1372    -1374    -1371    -1367 
   -1368    -1372    -1374    -1370    -1368    -1370    -1371    -1370 
   -1370    -1370    -1370    -1370    -1370    -1371    -1370    -1370 
   -1370    -1371    -1370    -1368    -1368    -1368    -1370    -1371 
   -1370    -1370    -1374    -1371    -1371    -1372    -1371    -1368 
   -1370    -1371    -1368    -1370    -1370    -1370    -1370    -1368 
   -1368    -1370    -1370    -1370    -1372    -1372    -1372    -1371 
   -1368    -1368    -1371    -1371    -1370    -1368    -1370    -1370 
   -1368    -1368    -1370    -1368    -1370    -1370    -1368    -1370 
   -1370    -1368    -1368    -1370    -1368    -1367    -1367    -1367 
   -1370    -1371    -1371    -1372    -1371    -1368    -1370    -1370 
   -1368    -1368    -1368    -1368    -1370    -1368    -1367    -1368 
   -1371    -1372    -1371    -1368    -1368    -1370    -1370    -1368 
   -1371    -1370    -1368    -1371    -1372    -1371    -1371    -1370 
   -1370    -1368    -1368    -1370    -1370    -1368    -1371    -1370 
   -1368    -1372    -1371    -1370    -1372    -1372    -1368    -1368 
   -1370    -1371    -1371    -1372    -1372    -1370    -1371    -1375 
   -1374    -1371    -1371    -1370    -1368    -1370    -1371    -1372 
   -1374    -1372    -1370    -1370    -1370    -1370    -1370    -1371 
   -1371    -1372    -1371    -1370    -1370    -1371    -1370    -1371 
   -1374    -1372    -1370    -1370    -1368    -1368    -1371    -1371 
   -1370    -1370    -1368    -1371    -1371    -1367    -1367    -1370 
   -1370    -1368    -1368    -1371    -1370    -1370    -1370    -1368 
   -1368    -1368    -1368    -1370    -1370    -1371    -1368    -1367 
   -1370    -1370    -1370    -1370    -1371    -1370    -1368    -1370 
   -1372    -1368    -1370    -1372    -1371    -1368    -1371    -1372 
   -1368    -1367    -1371    -1372    -1367    -1367    -1371    -1371 
   -1370    -1368    -1368    -1370    -1370    -1370    -1371    -1371 
   -1371    -1370    -1368    -1370    -1371    -1368    -1368    -1372 
   -1370    -1368    -1368    -1368    -1370    -1368    -1368    -1371 
   -1368    -1368    -1372    -1367    -1367    -1374    -1372    -1370 
   -1371    -1368    -1368    -1370    -1371    -1372    -1368    -1368 
   -1370    -1367    -1367    -1368    -1368    -1370    -1368    -1368 
   -1370    -1370    -1370    -1371    -1370    -1368    -1371    -1370 
   -1368    -1372    -1375    -1370    -1367    -1371    -1371    -1370 
   -1370    -1371    -1370    -1371    -1370    -1367    -1366    -1366 
   -1367    -1370    -1372    -1377    -1378    -1375    -1370    -1370 
   -1374    -1372    -1372    -1372    -1368    -1367    -1368    -1370 
   -1371    -1368    -1364    -1366    -1374    -1377    -1377    -1379 
   -1372    -1356    -1352    -1367    -1378    -1375    -1370    -1363 
   -1358    -1360    -1374    -1387    -1391    -1385    -1382    -1383 
   -1379    -1366    -1350    -1347    -1364    -1385    -1389    -1370 
   -1354    -1362    -1371    -1366    -1362    -1371    -1393    -1391 
   -1354    -1335    -1370    -1404    -1382    -1347    -1359    -1378 
   -1360    -1348    -1379    -1426    -1416    -1355    -1333    -1363 
   -1375    -1355    -1339    -1359    -1399    -1398    -1387    -1414 
   -1402    -1310    -1256    -1314    -1401    -1422    -1395    -1368 
   -1344    -1337    -1385    -1451    -1449    -1352    -1271    -1323 
   -1425    -1439    -1383    -1337    -1316    -1310    -1328    -1363 
   -1404    -1452    -1453    -1360    -1281    -1314    -1397    -1426 
   -1393    -1370    -1394    -1399    -1333    -1248    -1244    -1332 
   -1421    -1479    -1487    -1402    -1308    -1301    -1354    -1394 
   -1377    -1347    -1389    -1437    -1399    -1324    -1313    -1360 
   -1375    -1332    -1317    -1389    -1466    -1452    -1355    -1267 
   -1301    -1425    -1483    -1449    -1414    -1350    -1259    -1277 
   -1379    -1408    -1386    -1409    -1372    -1236    -1200    -1341 
   -1501    -1525    -1422    -1337    -1344    -1383    -1405    -1385 
   -1358    -1378    -1383    -1336    -1325    -1348    -1329    -1302 
   -1341    -1422    -1472    -1451    -1391    -1387    -1424    -1355 
   -1252    -1298    -1391    -1405    -1426    -1433    -1309    -1205 
   -1275    -1367    -1386    -1440    -1498    -1463    -1386    -1356 
   -1368    -1389    -1404    -1394    -1370    -1378    -1393    -1356 
   -1274    -1166    -1140    -1313    -1522    -1528    -1402    -1329 
   -1348    -1428    -1494    -1480    -1443    -1426    -1371    -1296 
   -1271    -1259    -1255    -1333    -1410    -1391    -1371    -1383 
   -1358    -1329    -1367    -1425    -1431    -1406    -1425    -1447 
   -1394    -1339    -1364    -1366    -1264    -1209    -1283    -1360 
   -1401    -1443    -1440    -1401    -1389    -1358    -1286    -1297 
   -1422    -1521    -1528    -1486    -1389    -1264    -1229    -1283 
   -1325    -1366    -1398    -1355    -1285    -1278    -1329    -1386 
   -1432    -1470    -1468    -1402    -1314    -1281    -1314    -1383 
   -1489    -1574    -1494    -1291    -1186    -1228    -1289    -1336 
   -1381    -1382    -1402    -1489    -1498    -1402    -1354    -1367 
   -1364    -1359    -1344    -1248    -1205    -1394    -1594    -1540 
   -1367    -1256    -1208    -1227    -1304    -1375    -1435    -1479 
   -1475    -1456    -1432    -1351    -1267    -1293    -1395    -1448 
   -1412    -1351    -1345    -1405    -1397    -1279    -1251    -1355 
   -1421    -1402    -1358    -1347    -1385    -1399    -1356    -1323 
   -1352    -1414    -1439    -1406    -1375    -1387    -1387    -1356 
   -1352    -1356    -1350    -1352    -1343    -1343    -1399    -1443 
   -1405    -1362    -1352    -1339    -1333    -1324    -1301    -1333 
   -1420    -1456    -1406    -1321    -1277    -1278    -1297    -1341 
   -1410    -1464    -1472    -1421    -1379    -1418    -1449    -1385 
   -1305    -1291    -1306    -1331    -1387    -1436    -1421    -1390 
   -1390    -1367    -1302    -1306    -1416    -1486    -1431    -1355 
   -1328    -1325    -1366    -1397    -1351    -1313    -1329    -1317 
   -1281    -1309    -1382    -1410    -1391    -1378    -1371    -1381 
   -1443    -1490    -1435    -1344    -1339    -1391    -1362    -1246 
   -1221    -1332    -1451    -1502    -1456    -1362    -1301    -1274 
   -1282    -1350    -1444    -1489    -1467    -1413    -1347    -1277 
   -1237    -1274    -1355    -1406    -1405    -1377    -1368    -1405 
   -1444    -1441    -1381    -1313    -1337    -1408    -1402    -1359 
   -1359    -1377    -1375    -1374    -1371    -1343    -1328    -1367 
   -1410    -1428    -1399    -1313    -1277    -1339    -1370    -1341 
   -1356    -1408    -1428    -1412    -1368    -1305    -1273    -1314 
   -1394    -1445    -1462    -1459    -1432    -1344    -1229    -1200 
   -1287    -1422    -1502    -1439    -1313    -1308    -1431    -1522 
   -1507    -1426    -1327    -1223    -1190    -1283    -1424    -1516 
   -1490    -1340    -1225    -1278    -1416    -1510    -1497    -1372 
   -1219    -1165    -1248    -1375    -1462    -1490    -1449    -1378 
   -1341    -1325    -1305    -1348    -1429    -1437    -1410    -1424 
   -1408    -1351    -1358    -1412    -1393    -1321    -1316    -1355 
   -1381    -1406    -1410    -1390    -1370    -1308    -1205    -1174 
   -1270    -1401    -1472    -1485    -1451    -1402    -1390    -1391 
   -1374    -1345    -1285    -1246    -1341    -1495    -1545    -1476 
   -1370    -1329    -1344    -1312    -1274    -1325    -1412    -1426 
   -1374    -1354    -1368    -1381    -1378    -1332    -1304    -1367 
   -1408    -1385    -1422    -1491    -1439    -1313    -1229    -1219 
   -1301    -1385    -1368    -1385    -1467    -1456    -1378    -1372 
   -1439    -1498    -1471    -1339    -1224    -1255    -1354    -1363 
   -1300    -1286    -1321    -1341    -1374    -1401    -1413    -1474 
   -1532    -1462    -1325    -1242    -1224    -1260    -1308    -1328 
   -1378    -1490    -1576    -1557    -1455    -1337    -1236    -1197 
   -1281    -1421    -1479    -1425    -1344    -1310    -1302    -1309 
   -1372    -1447    -1459    -1387    -1277    -1251    -1354    -1470 
   -1499    -1432    -1370    -1393    -1413    -1395    -1399    -1409 
   -1379    -1287    -1194    -1209    -1317    -1417    -1448    -1401 
   -1337    -1348    -1424    -1445    -1395    -1395    -1478    -1512 
   -1441    -1308    -1158    -1115    -1220    -1339    -1386    -1381 
   -1355    -1347    -1391    -1479    -1537    -1510    -1413    -1293 
   -1209    -1217    -1332    -1490    -1587    -1548    -1363    -1182 
   -1178    -1312    -1424    -1448    -1413    -1398    -1412    -1371 
   -1309    -1323    -1382    -1435    -1476    -1458    -1377    -1328 
   -1331    -1340    -1381    -1418    -1370    -1345    -1414    -1401 
   -1293    -1255    -1287    -1320    -1379    -1464    -1476    -1389 
   -1308    -1286    -1306    -1366    -1382    -1328    -1324    -1368 
   -1368    -1368    -1406    -1381    -1298    -1314    -1431    -1507 
   -1486    -1416    -1381    -1401    -1401    -1339    -1282    -1316 
   -1370    -1362    -1341    -1383    -1466    -1459    -1318    -1204 
   -1244    -1379    -1462    -1429    -1351    -1327    -1374    -1398 
   -1364    -1371    -1420    -1404    -1287    -1183    -1237    -1405 
   -1509    -1493    -1431    -1382    -1320    -1247    -1281    -1447 
   -1598    -1590    -1456    -1337    -1290    -1270    -1252    -1301 
   -1437    -1509    -1451    -1379    -1345    -1325    -1321    -1321 
   -1296    -1239    -1188    -1243    -1424    -1540    -1494    -1425 
   -1406    -1390    -1321    -1215    -1192    -1278    -1360    -1428 
   -1507    -1547    -1495    -1352    -1186    -1108    -1135    -1225 
   -1394    -1611    -1719    -1602    -1406    -1329    -1341    -1323 
   -1289    -1347    -1426    -1362    -1285    -1420    -1567    -1456 
   -1285    -1274    -1341    -1474    -1652    -1661    -1479    -1317 
   -1220    -1152    -1190    -1325    -1443    -1474    -1421    -1409 
   -1510    -1501    -1309    -1212    -1244    -1242    -1246    -1316 
   -1421    -1517    -1518    -1443    -1381    -1306    -1229    -1233 
   -1323    -1422    -1445    -1398    -1354    -1287    -1220    -1224 
   -1267    -1409    -1709    -1918    -1750    -1267     -857     -815 
   -1001    -1186    -1391    -1632    -1755    -1664    -1474    -1379 
   -1391    -1393    -1420    -1576    -1730    -1621    -1254     -904 
    -769     -828    -1039    -1432    -1834    -1917    -1626    -1281 
   -1166    -1220    -1275    -1328    -1413    -1453    -1406    -1398 
   -1471    -1404    -1173    -1108    -1329    -1602    -1713    -1588 
   -1313    -1100    -1046    -1086    -1167    -1224    -1290    -1534 
   -1800    -1777    -1609    -1463    -1242    -1093    -1174    -1247 
   -1193    -1213    -1344    -1505    -1649    -1599    -1341    -1197 
   -1286    -1413    -1397    -1267    -1208    -1243    -1269    -1398 
   -1640    -1675    -1483    -1364    -1355    -1347    -1398    -1464 
   -1398    -1277    -1208    -1167    -1205    -1328    -1417    -1436 
   -1445    -1502    -1571    -1587    -1580    -1614    -1642    -1584 
   -1467    -1351    -1232    -1123    -1097    -1221    -1456    -1624 
   -1628    -1571    -1528    -1432    -1251    -1059    -1008    -1161 
   -1310    -1332    -1364    -1336    -1092     -912    -1104    -1435 
   -1526    -1404    -1287    -1264    -1362    -1513    -1567    -1510 
   -1412    -1317    -1231    -1096    -1016    -1128    -1358    -1625 
   -1783    -1653    -1421    -1335    -1313    -1239    -1161    -1204 
   -1437    -1682    -1796    -1877    -1899    -1736    -1440    -1188 
   -1128    -1194    -1256    -1329    -1391    -1424    -1401    -1290 
   -1235    -1271    -1269    -1242    -1200    -1182    -1275    -1329 
   -1235    -1182    -1327    -1601    -1768    -1611    -1208     -892 
    -931    -1302    -1791    -2042    -1802    -1340    -1102    -1088 
   -1161    -1378    -1628    -1676    -1547    -1443    -1463    -1495 
   -1409    -1297    -1274    -1327    -1431    -1518    -1518    -1431 
   -1220     -949     -835     -993    -1290    -1486    -1516    -1460 
   -1362    -1277    -1212    -1154    -1293    -1672    -1965    -1944 
   -1636    -1220     -947     -904    -1038    -1305    -1566    -1660 
   -1586    -1417    -1212    -1055    -1001    -1026    -1216    -1594 
   -1813    -1634    -1300    -1120    -1189    -1386    -1507    -1485 
   -1413    -1393    -1412    -1399    -1347    -1283    -1309    -1509 
   -1694    -1645    -1499    -1445    -1397    -1227     -984     -912 
   -1212    -1625    -1692    -1413    -1142    -1105    -1310    -1605 
   -1830    -1917    -1728    -1223     -792     -784    -1023    -1293 
   -1628    -1907    -1798    -1243     -735     -872    -1570    -2096 
   -1993    -1513    -1147    -1140    -1336    -1440    -1409    -1379 
   -1389    -1323    -1081     -753     -567     -716    -1183    -1782 
   -2326    -2621    -2469    -1887    -1139     -581     -503     -885 
   -1395    -1714    -1786    -1737    -1599    -1337    -1074     -972 
   -1017    -1077    -1088    -1179    -1412    -1539    -1471    -1472 
   -1579    -1470    -1128    -1004    -1310    -1672    -1699    -1471 
   -1301    -1343    -1463    -1447    -1317    -1296    -1425    -1510 
   -1433    -1339    -1409    -1601    -1622    -1354    -1058     -958 
    -974    -1012    -1148    -1485    -1907    -2039    -1687    -1189 
    -976    -1066    -1246    -1412    -1563    -1621    -1451    -1078 
    -742     -689     -930    -1236    -1444    -1598    -1773    -1948 
   -2025    -1894    -1521    -1053     -820    -1084    -1667    -2089 
   -2050    -1663    -1229    -1009    -1092    -1321    -1436    -1335 
   -1117     -967     -946     -943     -927    -1044    -1374    -1736 
   -1861    -1701    -1445    -1324    -1417    -1653    -1883    -1922 
   -1676    -1277     -974     -907    -1016    -1171    -1266    -1273 
   -1282    -1332    -1313    -1291    -1533    -2018    -2323    -2127 
   -1570    -1040     -777     -765     -932    -1248    -1609    -1861 
   -1868    -1580    -1173     -913     -868     -922    -1021    -1138 
   -1192    -1217    -1332    -1540    -1734    -1791    -1649    -1404 
   -1269    -1305    -1332    -1287    -1289    -1331    -1289    -1175 
   -1138    -1291    -1574    -1749    -1665    -1448    -1317    -1286 
   -1271    -1306    -1409    -1470    -1443    -1429    -1478    -1518 
   -1584    -1760    -1885    -1680    -1144     -689     -718    -1156 
   -1587    -1664    -1410    -1171    -1131    -1116     -978     -823 
    -864    -1210    -1733    -2130    -2184    -1938    -1553    -1173 
    -939     -919    -1035    -1204    -1408    -1615    -1760    -1768 
   -1615    -1360    -1115     -966     -927     -957    -1027    -1175 
   -1422    -1684    -1871    -1939    -1918    -1865    -1726    -1517 
   -1389    -1278    -1030     -795     -877    -1281    -1629    -1611 
   -1364    -1205    -1193    -1252    -1447    -1737    -1827    -1561 
   -1185    -1013    -1047    -1131    -1217    -1302    -1364    -1429 
   -1510    -1578    -1582    -1437    -1166    -1026    -1125    -1279 
   -1375    -1397    -1320    -1246    -1254    -1285    -1302    -1340 
   -1417    -1521    -1607    -1571    -1406    -1285    -1320    -1448 
   -1587    -1706    -1759    -1669    -1478    -1355    -1378    -1435 
   -1421    -1340    -1216    -1088    -1036    -1059    -1035     -966 
   -1039    -1314    -1582    -1682    -1676    -1582    -1363    -1171 
   -1147    -1215    -1305    -1375    -1372    -1381    -1502    -1672 
   -1745    -1659    -1485    -1366    -1370    -1408    -1352    -1260 
   -1260    -1345    -1455    -1517    -1463    -1368    -1381    -1501 
   -1602    -1594    -1455    -1244    -1098    -1121    -1242    -1320 
   -1395    -1551    -1634    -1494    -1198     -940     -907    -1093 
   -1251    -1233    -1146    -1101    -1120    -1188    -1314    -1486 
   -1576    -1541    -1539    -1634    -1696    -1642    -1486    -1278 
   -1128    -1131    -1266    -1383    -1368    -1316    -1404    -1602 
   -1749    -1788    -1745    -1621    -1475    -1429    -1480    -1545 
   -1617    -1647    -1480    -1150     -907     -864     -908     -981 
   -1093    -1173    -1208    -1305    -1429    -1452    -1424    -1429 
   -1417    -1377    -1362    -1335    -1279    -1273    -1310    -1306 
   -1275    -1298    -1360    -1408    -1435    -1466    -1498    -1518 
   -1528    -1514    -1448    -1347    -1296    -1329    -1367    -1324 
   -1192    -1069    -1069    -1188    -1328    -1414    -1429    -1417 
   -1433    -1487    -1586    -1709    -1771    -1734    -1660    -1588 
   -1529    -1517    -1549    -1548    -1428    -1247    -1189    -1269 
   -1308    -1250    -1182    -1134    -1074    -1034    -1062    -1113 
   -1123    -1167    -1343    -1595    -1763    -1748    -1610    -1471 
   -1394    -1387    -1425    -1487    -1572    -1637    -1584    -1371 
   -1085     -878     -877    -1077    -1318    -1464    -1525    -1551 
   -1512    -1389    -1290    -1302    -1333    -1304    -1283    -1314 
   -1356    -1402    -1468    -1522    -1510    -1445    -1362    -1274 
   -1228    -1252    -1310    -1377    -1424    -1429    -1391    -1321 
   -1259    -1206    -1154    -1202    -1393    -1570    -1602    -1507 
   -1401    -1368    -1372    -1344    -1289    -1254    -1275    -1352 
   -1451    -1540    -1582    -1510    -1366    -1312    -1377    -1432 
   -1432    -1402    -1328    -1237    -1224    -1293    -1394    -1478 
   -1501    -1499    -1510    -1452    -1309    -1177    -1097    -1089 
   -1174    -1305    -1431    -1512    -1471    -1321    -1231    -1320 
   -1505    -1630    -1638    -1541    -1408    -1341    -1336    -1294 
   -1224    -1224    -1305    -1368    -1382    -1409    -1435    -1385 
   -1302    -1285    -1317    -1332    -1345    -1406    -1503    -1584 
   -1572    -1452    -1339    -1316    -1339    -1359    -1393    -1435 
   -1466    -1466    -1428    -1377    -1355    -1360    -1332    -1250 
   -1194    -1231    -1321    -1397    -1417    -1397    -1360    -1298 
   -1212    -1158    -1205    -1327    -1433    -1486    -1487    -1432 
   -1370    -1386    -1460    -1472    -1381    -1266    -1198    -1163 
   -1167    -1262    -1420    -1571    -1663    -1648    -1560    -1472 
   -1378    -1282    -1258    -1297    -1327    -1328    -1355    -1462 
   -1584    -1606    -1522    -1424    -1348    -1278    -1212    -1167 
   -1170    -1237    -1329    -1359    -1320    -1298    -1339    -1422 
   -1509    -1505    -1374    -1237    -1190    -1189    -1213    -1305 
   -1417    -1449    -1408    -1379    -1385    -1424    -1521    -1615 
   -1613    -1502    -1363    -1300    -1336    -1429    -1485    -1385 
