Origin Time       2021/08/14 22:38:00
Lat.              37.5
Long.             137.2
Depth. (km)       10
Mag.              4.1
Station Code      ISKH03
Station Lat.      37.3458
Station Long.     137.2436
Station Height(m) -188
Record Time       2021/08/14 22:38:11
Sampling Freq(Hz) 100Hz
Duration Time(s)  120
Dir.              3
Scale Factor      2940(gal)/6170270
Max. Acc. (gal)   2.203
Last Correction   2021/08/14 22:37:56
Memo.             
[...]
  -69647   -69648   -69647   -69645   -69646   -69647   -69647   -69646 
  -69645   -69647   -69648   -69647   -69646   -69648   -69648   -69647 
  -69647   -69648   -69648   -69647   -69647   -69645   -69645   -69647 
  -69647   -69647   -69647   -69647   -69648   -69648   -69646   -69646 
  -69646   -69645   -69645   -69645   -69644   -69645   -69645   -69644 
  -69645   -69646   -69646   -69644   -69644   -69646   -69645   -69645 
  -69645   -69644   -69644   -69646   -69644   -69645   -69646   -69647 
  -69647   -69646   -69645   -69646   -69646   -69645   -69645   -69646 
  -69646   -69647   -69646   -69644   -69644   -69646   -69647   -69646 
  -69645   -69647   -69647   -69645   -69645   -69646   -69647   -69646 
  -69645   -69646   -69644   -69645   -69647   -69647   -69646   -69647 
  -69646   -69644   -69645   -69647   -69647   -69646   -69646   -69647 
  -69648   -69647   -69646   -69647   -69648   -69646   -69646   -69646 
  -69647   -69647   -69647   -69647   -69647   -69646   -69646   -69648 
  -69648   -69647   -69646   -69645   -69647   -69647   -69647   -69648 
  -69647   -69646   -69647   -69648   -69648   -69649   -69649   -69646 
  -69646   -69648   -69647   -69647   -69648   -69648   -69646   -69645 
  -69647   -69649   -69646   -69646   -69647   -69645   -69645   -69648 
  -69649   -69647   -69646   -69647   -69646   -69645   -69646   -69646 
  -69646   -69647   -69649   -69648   -69646   -69646   -69646   -69647 
  -69649   -69647   -69644   -69645   -69647   -69647   -69646   -69645 
  -69645   -69645   -69644   -69648   -69649   -69645   -69644   -69645 
  -69646   -69646   -69647   -69647   -69647   -69647   -69645   -69646 
  -69648   -69647   -69647   -69646   -69643   -69644   -69647   -69646 
  -69645   -69647   -69647   -69647   -69647   -69646   -69644   -69644 
  -69646   -69646   -69645   -69647   -69648   -69646   -69645   -69645 
  -69646   -69646   -69647   -69648   -69647   -69646   -69646   -69647 
  -69647   -69647   -69646   -69645   -69646   -69645   -69646   -69646 
  -69646   -69646   -69646   -69646   -69647   -69647   -69646   -69646 
  -69646   -69647   -69647   -69647   -69647   -69647   -69648   -69647 
  -69647   -69647   -69647   -69646   -69647   -69647   -69648   -69648 
  -69648   -69647   -69644   -69646   -69649   -69648   -69645   -69646 
  -69647   -69646   -69647   -69649   -69646   -69644   -69646   -69648 
  -69647   -69647   -69647   -69648   -69648   -69647   -69646   -69647 
  -69646   -69645   -69646   -69648   -69646   -69644   -69646   -69646 
  -69645   -69646   -69646   -69645   -69646   -69648   -69646   -69645 
  -69644   -69644   -69646   -69645   -69645   -69646   -69645   -69644 
  -69647   -69646   -69643   -69645   -69646   -69645   -69644   -69644 
  -69645   -69645   -69645   -69646   -69646   -69648   -69648   -69646 
  -69647   -69646   -69645   -69648   -69648   -69645   -69646   -69647 
  -69647   -69646   -69646   -69646   -69648   -69647   -69646   -69647 
  -69646   -69647   -69648   -69645   -69644   -69647   -69648   -69647 
  -69646   -69647   -69647   -69647   -69646   -69646   -69647   -69646 
  -69646   -69646   -69647   -69647   -69648   -69647   -69647   -69647 
  -69647   -69648   -69647   -69645   -69645   -69647   -69647   -69647 
  -69647   -69647   -69647   -69647   -69646   -69646   -69647   -69647 
  -69646   -69647   -69646   -69644   -69645   -69647   -69646   -69645 
  -69646   -69647   -69647   -69647   -69646   -69646   -69647   -69647 
  -69646   -69647   -69647   -69646   -69645   -69645   -69646   -69646 
  -69646   -69645   -69644   -69645   -69648   -69648   -69646   -69645 
  -69646   -69646   -69646   -69646   -69646   -69646   -69647   -69647 
  -69645   -69645   -69645   -69645   -69647   -69647   -69647   -69647 
  -69645   -69646   -69649   -69648   -69645   -69644   -69646   -69647 
  -69648   -69648   -69646   -69646   -69647   -69645   -69645   -69647 
  -69646   -69646   -69647   -69647   -69647   -69647   -69647   -69647 
  -69647   -69648   -69647   -69645   -69647   -69647   -69645   -69645 
  -69646   -69645   -69647   -69647   -69643   -69644   -69645   -69646 
  -69647   -69648   -69649   -69649   -69648   -69648   -69648   -69646 
  -69645   -69646   -69647   -69646   -69645   -69646   -69646   -69646 
  -69646   -69647   -69649   -69647   -69644   -69646   -69646   -69645 
  -69646   -69645   -69646   -69646   -69645   -69645   -69645   -69645 
  -69647   -69648   -69646   -69645   -69646   -69646   -69645   -69646 
  -69647   -69648   -69645   -69644   -69646   -69647   -69646   -69646 
  -69646   -69646   -69647   -69646   -69647   -69650   -69647   -69645 
  -69647   -69646   -69646   -69647   -69647   -69648   -69647   -69647 
  -69647   -69646   -69647   -69649   -69648   -69646   -69647   -69648 
  -69647   -69647   -69649   -69648   -69648   -69648   -69648   -69649 
  -69649   -69648   -69648   -69650   -69650   -69649   -69648   -69647 
  -69646   -69646   -69648   -69648   -69649   -69649   -69646   -69647 
  -69649   -69648   -69645   -69646   -69647   -69649   -69648   -69647 
  -69649   -69650   -69649   -69648   -69650   -69649   -69647   -69648 
  -69649   -69648   -69648   -69648   -69648   -69648   -69648   -69648 
  -69647   -69648   -69648   -69648   -69647   -69647   -69649   -69648 
  -69646   -69648   -69649   -69647   -69646   -69648   -69647   -69646 
  -69647   -69647   -69648   -69648   -69647   -69645   -69646   -69646 
  -69647   -69647   -69648   -69647   -69647   -69649   -69647   -69644 
  -69645   -69647   -69647   -69648   -69648   -69648   -69648   -69646 
  -69645   -69647   -69648   -69647   -69646   -69646   -69647   -69646 
  -69647   -69649   -69647   -69647   -69649   -69647   -69645   -69645 
  -69646   -69648   -69649   -69648   -69647   -69647   -69646   -69646 
  -69647   -69647   -69647   -69648   -69648   -69647   -69648   -69649 
  -69649   -69650   -69649   -69646   -69645   -69649   -69650   -69648 
  -69648   -69649   -69649   -69649   -69649   -69649   -69651   -69649 
  -69646   -69647   -69649   -69649   -69649   -69648   -69649   -69651 
  -69651   -69651   -69650   -69648   -69647   -69647   -69648   -69649 
  -69649   -69648   -69648   -69650   -69648   -69647   -69651   -69653 
  -69649   -69648   -69649   -69649   -69648   -69649   -69650   -69650 
  -69649   -69648   -69648   -69651   -69652   -69650   -69650   -69651 
  -69650   -69648   -69650   -69651   -69649   -69648   -69649   -69650 
  -69650   -69649   -69651   -69651   -69649   -69649   -69648   -69648 
  -69649   -69649   -69648   -69649   -69650   -69650   -69649   -69649 
  -69649   -69650   -69651   -69651   -69650   -69650   -69650   -69649 
  -69649   -69650   -69650   -69649   -69649   -69650   -69652   -69651 
  -69650   -69650   -69651   -69651   -69651   -69649   -69648   -69649 
  -69650   -69650   -69649   -69649   -69650   -69651   -69650   -69650 
  -69650   -69649   -69649   -69651   -69649   -69647   -69649   -69651 
  -69649   -69649   -69650   -69649   -69648   -69651   -69651   -69648 
  -69649   -69651   -69649   -69649   -69650   -69651   -69650   -69650 
  -69650   -69651   -69651   -69650   -69650   -69651   -69650   -69649 
  -69648   -69648   -69649   -69651   -69651   -69649   -69648   -69650 
  -69649   -69648   -69650   -69651   -69649   -69648   -69650   -69651 
  -69649   -69649   -69650   -69648   -69649   -69651   -69649   -69648 
  -69649   -69650   -69649   -69648   -69648   -69650   -69650   -69648 
  -69650   -69653   -69651   -69649   -69651   -69650   -69648   -69648 
  -69649   -69648   -69649   -69651   -69650   -69649   -69648   -69648 
  -69650   -69649   -69648   -69650   -69650   -69648   -69648   -69650 
  -69650   -69650   -69649   -69648   -69649   -69649   -69648   -69648 
  -69649   -69649   -69648   -69647   -69649   -69650   -69650   -69648 
  -69646   -69648   -69648   -69645   -69646   -69650   -69650   -69648 
  -69649   -69650   -69649   -69650   -69649   -69648   -69649   -69649 
  -69649   -69650   -69649   -69649   -69650   -69650   -69650   -69649 
  -69648   -69649   -69649   -69650   -69650   -69648   -69649   -69651 
  -69649   -69647   -69647   -69648   -69648   -69648   -69649   -69648 
  -69647   -69648   -69648   -69647   -69648   -69648   -69649   -69648 
  -69648   -69649   -69648   -69648   -69650   -69650   -69646   -69647 
  -69648   -69648   -69651   -69652   -69650   -69647   -69646   -69648 
  -69648   -69648   -69647   -69648   -69649   -69649   -69649   -69650 
  -69649   -69648   -69649   -69648   -69649   -69649   -69649   -69649 
  -69648   -69649   -69653   -69651   -69648   -69649   -69649   -69650 
  -69651   -69650   -69650   -69650   -69649   -69649   -69650   -69650 
  -69649   -69648   -69648   -69649   -69650   -69650   -69650   -69650 
  -69650   -69649   -69650   -69651   -69651   -69651   -69650   -69647 
  -69647   -69650   -69650   -69649   -69649   -69650   -69650   -69649 
  -69649   -69648   -69649   -69650   -69650   -69649   -69649   -69650 
  -69651   -69651   -69650   -69648   -69648   -69649   -69651   -69651 
  -69650   -69650   -69650   -69649   -69649   -69649   -69648   -69648 
  -69649   -69651   -69650   -69649   -69649   -69649   -69650   -69650 
  -69648   -69649   -69651   -69649   -69649   -69649   -69648   -69648 
  -69650   -69650   -69650   -69650   -69650   -69650   -69649   -69648 
  -69650   -69651   -69650   -69649   -69649   -69650   -69651   -69649 
  -69649   -69651   -69650   -69648   -69650   -69651   -69649   -69650 
  -69651   -69649   -69648   -69650   -69650   -69650   -69651   -69655 
  -69670   -69705   -69761   -69828   -69874   -69862   -69788   -69689 
  -69602   -69520   -69442   -69448   -69596   -69762   -69784   -69679 
  -69532   -69366   -69314   -69435   -69503   -69543   -69771   -69917 
  -69785   -69726   -69861   -69913   -69771   -69637   -69587   -69386 
  -69295   -69681   -69814   -69426   -69386   -69524   -69302   -69209 
  -69441   -69786   -70055   -70019   -69977   -69887   -69421   -69228 
  -69572   -69961   -70263   -70277   -70001   -69813   -69564   -69110 
  -68978   -69282   -69587   -69874   -69941   -69708   -69737   -69594 
  -69060   -69355   -70098   -69833   -69197   -69405   -69922   -69824 
  -69651   -70161   -70589   -70038   -69215   -69128   -69381   -69363 
  -69550   -70108   -70123   -69500   -69300   -69490   -69441   -69516 
  -69596   -69348   -69402   -69710   -69734   -69649   -69609   -69633 
  -69787   -70003   -70023   -69660   -69345   -69415   -69633   -69876 
  -69811   -69421   -69589   -70080   -69745   -69183   -69549   -70031 
  -69596   -69137   -69526   -69776   -69356   -69329   -69882   -70394 
  -70542   -70152   -69813   -69529   -68891   -68949   -69832   -70147 
  -69676   -69255   -69431   -69796   -69533   -69060   -69420   -70067 
  -70013   -69713   -69657   -69691   -69725   -69728   -69583   -69319 
  -69586   -70355   -70319   -69539   -69344   -69562   -69565   -69621 
  -69527   -69270   -69405   -69505   -69401   -69648   -69874   -69777 
  -69799   -69834   -69636   -69666   -69983   -69765   -69066   -69104 
  -69933   -70140   -69377   -68862   -69182   -69857   -70293   -70132 
  -69790   -69809   -70056   -70086   -69584   -69197   -69534   -69933 
  -69910   -69618   -69458   -69719   -69729   -69143   -68871   -69344 
  -69799   -69759   -69698   -69904   -70200   -70195   -69526   -69001 
  -69338   -69631   -69400   -69443   -69927   -70158   -70012   -69664 
  -69168   -69070   -69536   -70027   -70316   -70135   -69460   -69414 
  -70116   -69987   -69170   -69016   -69255   -69494   -69818   -69703 
  -69362   -69522   -69725   -69572   -69706   -70130   -70134   -69727 
  -69337   -69145   -69296   -69828   -70206   -69877   -69487   -69693 
  -69788   -69444   -69333   -69707   -70118   -69872   -69195   -69151 
  -69628   -69855   -69767   -69481   -69391   -69756   -69899   -69594 
  -69785   -70443   -70238   -69280   -68799   -68905   -69191   -69578 
  -69937   -70038   -69861   -69621   -69621   -69852   -69725   -69399 
  -69711   -69854   -69153   -69388   -70455   -69930   -68669   -68974 
  -70129   -69922   -68438   -68427   -70187   -71106   -70723   -70307 
  -70645   -71314   -70532   -68592   -68361   -70238   -71434   -70282 
  -68207   -67524   -68114   -68331   -68078   -68186   -69167   -70635 
  -71401   -71432   -70977   -70163   -70222   -70196   -68761   -68776 
  -70480   -70156   -68866   -69113   -69341   -69303   -70229   -70504 
  -69324   -68960   -69847   -70419   -70737   -70736   -69291   -67380 
  -67084   -68231   -69567   -70316   -70298   -70814   -71682   -70592 
  -68915   -69083   -69082   -68067   -68552   -70171   -70634   -70370 
  -70050   -69105   -68479   -69398   -70553   -70042   -69072   -69852 
  -70874   -70216   -69408   -69040   -68359   -68726   -69895   -69900 
  -69748   -70261   -70375   -70330   -69921   -68759   -68356   -68572 
  -68395   -68974   -69911   -69683   -69664   -70831   -71170   -69983 
  -69396   -70083   -70330   -69612   -69375   -70028   -69769   -68438 
  -68646   -70535   -71502   -70955   -70328   -70621   -71008   -69871 
  -68183   -67966   -68564   -69056   -69987   -70959   -70640   -69083 
  -68023   -68381   -69255   -69614   -69387   -69379   -69518   -68582 
  -67352   -68167   -70838   -72695   -72449   -71214   -70160   -69650 
  -69312   -68601   -68208   -68872   -70027   -70942   -71397   -71166 
  -70064   -69156   -69653   -70728   -70899   -69585   -67194   -65210 
  -65025   -67035   -70132   -71827   -71259   -69941   -68824   -68155 
  -68544   -70248   -72627   -73943   -72846   -70542   -69020   -68547 
  -68639   -68760   -68293   -67904   -68543   -69595   -70586   -71216 
  -70681   -69870   -69697   -69438   -69449   -70304   -71016   -70995 
  -70699   -70235   -69213   -68138   -67999   -67997   -67240   -67339 
  -68758   -69661   -70465   -72112   -72721   -71229   -69343   -68667 
  -68938   -69222   -69283   -69508   -70269   -70749   -70248   -69994 
  -70356   -70387   -70042   -69448   -69068   -69300   -69145   -68482 
  -68614   -69161   -68705   -67929   -68093   -68901   -69745   -70293 
  -70343   -69796   -68951   -68805   -69283   -69196   -68949   -69754 
  -70941   -71080   -70508   -70514   -71078   -71400   -71182   -70516 
  -70182   -70906   -71715   -71235   -69607   -67819   -66960   -67604 
  -68803   -69287   -68975   -68408   -68139   -68192   -68252   -68732 
  -69745   -70513   -70724   -70406   -70056   -70492   -71045   -70730 
  -70266   -70287   -69878   -68682   -68227   -69348   -70697   -71166 
  -71039   -70454   -69444   -68842   -69145   -69727   -69595   -68544 
  -68013   -68986   -70020   -70037   -69892   -70041   -69948   -69375 
  -68749   -68498   -68648   -69102   -69585   -69916   -70429   -71190 
  -71526   -70750   -69321   -68619   -68888   -69194   -69171   -69233 
  -69850   -70693   -70944   -70555   -69776   -68846   -68484   -68945 
  -69750   -70263   -69990   -69320   -68938   -69017   -69460   -69675 
  -69519   -69444   -69174   -68744   -68632   -68751   -69295   -70027 
  -70199   -70217   -70275   -70035   -70186   -70874   -71385   -71649 
  -71461   -70649   -69637   -68828   -68691   -68906   -68733   -68755 
  -69034   -68442   -67681   -68356   -69757   -70526   -70731   -70435 
  -69736   -69382   -69455   -69739   -70498   -71298   -71331   -70780 
  -70311   -70281   -70329   -69635   -68378   -67644   -67972   -68970 
  -69672   -69605   -69405   -69446   -69297   -69093   -69440   -69954 
  -69743   -69058   -68834   -69149   -69540   -69804   -69663   -69169 
  -69233   -70170   -71128   -71440   -70930   -69879   -69189   -69345 
  -69852   -70091   -69820   -69133   -68550   -68559   -69095   -69937 
  -70773   -70954   -70199   -69117   -68493   -68576   -69035   -69345 
  -69447   -69666   -69989   -70123   -70016   -69905   -69833   -69665 
  -69575   -69751   -70082   -70420   -70423   -69906   -69276   -68865 
  -68944   -69612   -70076   -69791   -69473   -69665   -69829   -69612 
  -69438   -69514   -69656   -69797   -69859   -69745   -69503   -69189 
  -69077   -69428   -69866   -70090   -70253   -70171   -69557   -68726 
  -68324   -68585   -69171   -69848   -70576   -70960   -70740   -70267 
  -69977   -70082   -70296   -70126   -69728   -69286   -68932   -69327 
  -70099   -70030   -69238   -68585   -68287   -68140   -68264   -68909 
  -69613   -69949   -70128   -70076   -69821   -69971   -70448   -70545 
  -70368   -70370   -70338   -70090   -69808   -69551   -69474   -69707 
  -69798   -69281   -68543   -68343   -68709   -69116   -69386   -69629 
  -69789   -69733   -69619   -69847   -70337   -70499   -70173   -69783 
  -69772   -70022   -69841   -69300   -69244   -69497   -69433   -69362 
  -69607   -69912   -70044   -70007   -69921   -69816   -69686   -69609 
  -69610   -69828   -70109   -69815   -69244   -69211   -69388   -69471 
  -69881   -70372   -70194   -69326   -68705   -69103   -69866   -69978 
  -69671   -69633   -69872   -69923   -69744   -69782   -69955   -69888 
  -69786   -69952   -70185   -70124   -69871   -69802   -69928   -69959 
  -69560   -68772   -68272   -68414   -68830   -69317   -69915   -70359 
  -70210   -69572   -69071   -68976   -69097   -69166   -68980   -68714 
  -68806   -69227   -69376   -69131   -69196   -69790   -70403   -70850 
  -71098   -70882   -70308   -69962   -70179   -70550   -70554   -70280 
  -69948   -69586   -69198   -68804   -68509   -68496   -68926   -69525 
  -69762   -69696   -69572   -69316   -68978   -68856   -69268   -69942 
  -70256   -70282   -70214   -69875   -69538   -69567   -69806   -69994 
  -69974   -69906   -70087   -70240   -70001   -69553   -69291   -69451 
  -69786   -69815   -69651   -69657   -69671   -69540   -69463   -69491 
  -69582   -69687   -69623   -69490   -69596   -69840   -69917   -69789 
  -69526   -69323   -69511   -69883   -69906   -69793   -69956   -70155 
  -70120   -69839   -69386   -68907   -68468   -68320   -68641   -69043 
  -69355   -69761   -70026   -69946   -69804   -69774   -69743   -69696 
  -69651   -69474   -69274   -69473   -70148   -70849   -71167   -71046 
  -70605   -70030   -69399   -68834   -68815   -69482   -70135   -70107 
  -69511   -69014   -69045   -69320   -69427   -69495   -69716   -69784 
  -69487   -69192   -69230   -69499   -69754   -69869   -69909   -69792 
  -69415   -69209   -69322   -69261   -69151   -69429   -69836   -70081 
  -70220   -70276   -70216   -69968   -69657   -69443   -69151   -68924 
  -69186   -69785   -70120   -69891   -69543   -69573   -69710   -69641 
  -69544   -69546   -69644   -69724   -69522   -69208   -69198   -69382 
  -69536   -69749   -69995   -70172   -70332   -70439   -70403   -70281 
  -70181   -70054   -69807   -69582   -69411   -69111   -68938   -69188 
  -69463   -69469   -69472   -69586   -69658   -69542   -69232   -69081 
  -69348   -69707   -69794   -69696   -69680   -69799   -69820   -69595 
  -69384   -69569   -69945   -69968   -69765   -69711   -69670   -69517 
  -69441   -69513   -69543   -69543   -69706   -69833   -69773   -69797 
  -69935   -69908   -69612   -69332   -69439   -69791   -70072   -70199 
  -70013   -69565   -69241   -69152   -69211   -69410   -69617   -69688 
  -69704   -69755   -69813   -69815   -69741   -69720   -69770   -69671 
  -69417   -69246   -69348   -69674   -69892   -69903   -70009   -70214 
