Origin Time       2021/08/14 22:38:00
Lat.              37.5
Long.             137.2
Depth. (km)       10
Mag.              4.1
Station Code      ISKH04
Station Lat.      37.1902
Station Long.     136.7176
Station Height(m) -60.5
Record Time       2021/08/14 22:38:24
Sampling Freq(Hz) 100Hz
Duration Time(s)  120
Dir.              1
Scale Factor      3923(gal)/8224838
Max. Acc. (gal)   0.471
Last Correction   2021/08/14 22:38:24
Memo.             
[...]
   -3485    -3487    -3485    -3485    -3487    -3487    -3484    -3484 
   -3488    -3488    -3485    -3485    -3487    -3485    -3487    -3487 
   -3487    -3487    -3485    -3484    -3485    -3487    -3487    -3485 
   -3485    -3489    -3491    -3485    -3485    -3488    -3485    -3485 
   -3487    -3484    -3485    -3488    -3485    -3484    -3487    -3487 
   -3485    -3485    -3487    -3487    -3487    -3484    -3484    -3487 
   -3487    -3485    -3484    -3485    -3485    -3488    -3488    -3484 
   -3483    -3487    -3485    -3483    -3485    -3485    -3485    -3487 
   -3488    -3487    -3484    -3484    -3485    -3487    -3487    -3484 
   -3484    -3487    -3487    -3487    -3488    -3485    -3483    -3484 
   -3485    -3484    -3484    -3484    -3485    -3487    -3485    -3483 
   -3481    -3484    -3487    -3484    -3484    -3485    -3487    -3487 
   -3487    -3488    -3488    -3487    -3487    -3487    -3485    -3485 
   -3485    -3485    -3487    -3487    -3485    -3484    -3484    -3484 
   -3485    -3489    -3487    -3483    -3487    -3487    -3484    -3484 
   -3483    -3487    -3488    -3484    -3485    -3489    -3487    -3484 
   -3487    -3488    -3487    -3484    -3485    -3489    -3487    -3484 
   -3484    -3487    -3489    -3485    -3483    -3484    -3487    -3484 
   -3483    -3485    -3489    -3487    -3483    -3484    -3484    -3484 
   -3487    -3485    -3483    -3484    -3488    -3485    -3484    -3487 
   -3485    -3485    -3485    -3485    -3485    -3487    -3485    -3483 
   -3480    -3473    -3462    -3450    -3442    -3445    -3458    -3473 
   -3484    -3492    -3503    -3530    -3564    -3572    -3545    -3501 
   -3464    -3462    -3493    -3504    -3488    -3476    -3468    -3492 
   -3547    -3562    -3499    -3402    -3331    -3345    -3427    -3514 
   -3534    -3476    -3434    -3481    -3593    -3723    -3704    -3454 
   -3253    -3288    -3456    -3618    -3585    -3406    -3343    -3385 
   -3470    -3616    -3638    -3480    -3361    -3400    -3541    -3623 
   -3573    -3515    -3505    -3439    -3343    -3406    -3565    -3561 
   -3454    -3408    -3414    -3565    -3713    -3597    -3466    -3473 
   -3420    -3354    -3395    -3476    -3492    -3429    -3416    -3510 
   -3578    -3597    -3585    -3473    -3381    -3457    -3492    -3426 
   -3453    -3487    -3483    -3534    -3520    -3454    -3454    -3476 
   -3472    -3442    -3445    -3535    -3578    -3477    -3380    -3449 
   -3562    -3538    -3478    -3508    -3546    -3526    -3476    -3450 
   -3485    -3537    -3522    -3453    -3435    -3487    -3551    -3570 
   -3491    -3403    -3419    -3453    -3433    -3450    -3501    -3478 
   -3443    -3454    -3438    -3451    -3524    -3523    -3485    -3493 
   -3474    -3469    -3565    -3639    -3573    -3462    -3423    -3418 
   -3415    -3457    -3527    -3581    -3569    -3472    -3396    -3461 
   -3565    -3550    -3480    -3466    -3462    -3439    -3446    -3500 
   -3564    -3516    -3391    -3388    -3470    -3520    -3550    -3477 
   -3375    -3406    -3439    -3446    -3505    -3515    -3515    -3554 
   -3518    -3474    -3504    -3518    -3535    -3550    -3504    -3507 
   -3561    -3504    -3427    -3447    -3446    -3445    -3547    -3631 
   -3608    -3528    -3439    -3387    -3352    -3368    -3472    -3549 
   -3503    -3366    -3343    -3532    -3650    -3558    -3410    -3337 
   -3447    -3581    -3474    -3339    -3430    -3564    -3568    -3481 
   -3422    -3496    -3595    -3597    -3554    -3493    -3487    -3547 
   -3504    -3429    -3466    -3445    -3334    -3369    -3510    -3572 
   -3586    -3580    -3542    -3515    -3481    -3493    -3574    -3576 
   -3457    -3325    -3268    -3321    -3416    -3535    -3616    -3527 
   -3396    -3427    -3542    -3584    -3524    -3472    -3481    -3460 
   -3458    -3561    -3595    -3484    -3410    -3457    -3546    -3605 
   -3559    -3411    -3368    -3473    -3499    -3451    -3477    -3520 
   -3499    -3473    -3462    -3396    -3393    -3526    -3572    -3511 
   -3503    -3484    -3451    -3474    -3457    -3443    -3505    -3530 
   -3547    -3566    -3454    -3365    -3470    -3591    -3581    -3516 
   -3433    -3404    -3518    -3601    -3523    -3438    -3449    -3476 
   -3458    -3434    -3476    -3522    -3453    -3429    -3530    -3512 
   -3414    -3434    -3487    -3535    -3613    -3585    -3499    -3505 
   -3483    -3384    -3376    -3430    -3466    -3504    -3493    -3474 
   -3530    -3562    -3516    -3450    -3402    -3412    -3476    -3562 
   -3607    -3523    -3399    -3381    -3453    -3491    -3462    -3489 
   -3576    -3592    -3546    -3510    -3453    -3407    -3469    -3520 
   -3429    -3362    -3458    -3547    -3483    -3381    -3393    -3491 
   -3603    -3662    -3623    -3526    -3453    -3450    -3441    -3415 
   -3478    -3564    -3549    -3461    -3369    -3389    -3538    -3591 
   -3497    -3472    -3493    -3453    -3491    -3585    -3497    -3393 
   -3511    -3603    -3557    -3507    -3414    -3331    -3380    -3484 
   -3523    -3470    -3466    -3577    -3576    -3445    -3435    -3493 
   -3503    -3510    -3454    -3434    -3555    -3555    -3420    -3402 
   -3429    -3454    -3528    -3507    -3430    -3478    -3555    -3554 
   -3553    -3551    -3492    -3422    -3457    -3545    -3541    -3504 
   -3484    -3449    -3464    -3446    -3375    -3434    -3522    -3519 
   -3578    -3647    -3545    -3406    -3407    -3447    -3451    -3447 
   -3415    -3427    -3516    -3561    -3520    -3450    -3392    -3389 
   -3445    -3474    -3469    -3555    -3688    -3650    -3458    -3373 
   -3493    -3615    -3580    -3472    -3372    -3322    -3449    -3620 
   -3559    -3450    -3480    -3446    -3406    -3555    -3638    -3469 
   -3312    -3349    -3477    -3591    -3612    -3543    -3493    -3443 
   -3375    -3387    -3450    -3501    -3515    -3469    -3431    -3434 
   -3473    -3572    -3586    -3453    -3424    -3543    -3597    -3561 
   -3545    -3569    -3520    -3499    -3574    -3504    -3380    -3373 
   -3348    -3341    -3392    -3439    -3524    -3595    -3599    -3549 
   -3439    -3451    -3558    -3518    -3485    -3554    -3539    -3465 
   -3393    -3392    -3508    -3565    -3497    -3473    -3535    -3554 
   -3512    -3493    -3476    -3480    -3519    -3480    -3391    -3373 
   -3451    -3573    -3546    -3334    -3269    -3439    -3585    -3600 
   -3508    -3423    -3473    -3537    -3532    -3545    -3511    -3429 
   -3397    -3445    -3611    -3717    -3543    -3358    -3366    -3441 
   -3554    -3573    -3443    -3426    -3441    -3356    -3411    -3573 
   -3624    -3593    -3527    -3474    -3465    -3460    -3438    -3376 
   -3315    -3393    -3600    -3708    -3577    -3415    -3462    -3577 
   -3541    -3453    -3443    -3411    -3381    -3481    -3582    -3528 
   -3431    -3465    -3531    -3505    -3524    -3526    -3446    -3510 
   -3568    -3416    -3329    -3416    -3549    -3624    -3547    -3449 
   -3504    -3576    -3520    -3438    -3468    -3522    -3461    -3416 
   -3511    -3576    -3493    -3392    -3380    -3424    -3474    -3495 
   -3470    -3468    -3504    -3542    -3577    -3578    -3507    -3422 
   -3400    -3420    -3465    -3549    -3631    -3634    -3551    -3406 
   -3295    -3396    -3564    -3524    -3462    -3519    -3488    -3395 
   -3414    -3478    -3493    -3480    -3499    -3570    -3600    -3472 
   -3345    -3462    -3611    -3569    -3527    -3504    -3416    -3356 
   -3396    -3519    -3545    -3446    -3461    -3485    -3416    -3462 
   -3524    -3499    -3515    -3457    -3387    -3507    -3623    -3597 
   -3496    -3406    -3468    -3537    -3441    -3370    -3457    -3597 
   -3623    -3532    -3495    -3472    -3418    -3412    -3397    -3423 
   -3558    -3597    -3515    -3497    -3510    -3503    -3530    -3524 
   -3433    -3335    -3358    -3547    -3684    -3639    -3650    -3715 
   -3638    -3639    -3832    -3862    -3678    -3499    -3244    -2992 
   -3003    -3159    -3335    -3495    -3410    -3214    -3241    -3388 
   -3557    -3762    -3852    -3770    -3553    -3296    -3200    -3277 
   -3466    -3755    -3828    -3474    -3076    -3006    -3217    -3518 
   -3692    -3773    -3931    -3769    -3087    -2619    -2845    -3472 
   -4072    -4325    -4059    -3435    -2984    -3017    -3299    -3678 
   -4063    -4183    -3989    -3581    -3188    -3117    -3272    -3380 
   -3400    -3381    -3331    -3229    -3075    -3015    -3303    -3838 
   -4144    -4058    -3731    -3346    -3250    -3466    -3561    -3585 
   -3753    -3726    -3357    -2986    -2943    -3380    -3890    -3802 
   -3277    -3011    -3202    -3568    -3731    -3562    -3385    -3406 
   -3466    -3526    -3505    -3281    -3141    -3384    -3827    -4025 
   -3763    -3462    -3539    -3665    -3574    -3492    -3496    -3573 
   -3753    -3761    -3442    -3218    -3368    -3550    -3453    -3265 
   -3252    -3329    -3410    -3555    -3670    -3677    -3483    -3069 
   -2951    -3384    -3900    -4122    -3888    -3358    -3073    -3173 
   -3476    -3774    -3775    -3573    -3488    -3493    -3395    -3106 
   -2778    -2843    -3406    -3885    -3947    -3879    -3732    -3414 
   -3231    -3381    -3661    -3807    -3712    -3505    -3391    -3447 
   -3596    -3630    -3566    -3622    -3713    -3693    -3654    -3588 
   -3462    -3342    -3207    -3115    -3203    -3335    -3262    -3094 
   -3103    -3375    -3777    -4009    -3861    -3523    -3306    -3277 
   -3350    -3549    -3846    -3862    -3493    -3254    -3277    -3381 
   -3564    -3499    -3227    -3322    -3658    -3827    -3777    -3397 
   -2998    -3125    -3553    -3906    -4126    -3977    -3581    -3331 
   -3206    -3226    -3383    -3435    -3458    -3539    -3537    -3507 
   -3586    -3635    -3450    -3165    -3064    -3103    -3237    -3550 
   -3832    -3821    -3581    -3376    -3427    -3553    -3528    -3639 
   -3847    -3732    -3522    -3522    -3457    -3217    -3095    -3241 
   -3484    -3612    -3515    -3296    -3229    -3383    -3522    -3526 
   -3443    -3343    -3412    -3508    -3337    -3277    -3581    -3832 
   -3835    -3613    -3329    -3376    -3635    -3712    -3712    -3654 
   -3403    -3284    -3462    -3559    -3442    -3389    -3464    -3501 
   -3457    -3404    -3499    -3724    -3817    -3707    -3557    -3483 
   -3504    -3523    -3460    -3369    -3307    -3264    -3279    -3361 
   -3353    -3292    -3423    -3616    -3689    -3750    -3726    -3559 
   -3516    -3595    -3491    -3253    -3203    -3446    -3789    -3881 
   -3581    -3221    -3159    -3314    -3503    -3753    -3935    -3819 
   -3515    -3190    -2918    -2944    -3249    -3403    -3352    -3369 
   -3402    -3372    -3492    -3848    -4085    -3816    -3381    -3334 
   -3547    -3647    -3532    -3429    -3588    -3744    -3580    -3408 
   -3524    -3634    -3520    -3412    -3464    -3458    -3338    -3369 
   -3500    -3420    -3217    -3225    -3426    -3480    -3396    -3445 
   -3492    -3435    -3504    -3630    -3676    -3827    -3998    -3870 
   -3458    -3048    -2971    -3230    -3450    -3538    -3589    -3493 
   -3330    -3339    -3535    -3827    -4028    -4013    -3896    -3699 
   -3381    -3082    -3029    -3273    -3535    -3603    -3550    -3388 
   -3127    -2986    -3203    -3728    -4052    -3769    -3285    -3153 
   -3190    -3117    -3226    -3705    -4070    -3970    -3647    -3275 
   -2978    -3111    -3665    -4083    -3974    -3485    -3057    -3022 
   -3276    -3447    -3431    -3404    -3487    -3615    -3607    -3483 
   -3530    -3744    -3786    -3670    -3655    -3759    -3796    -3604 
   -3291    -3082    -3065    -3207    -3326    -3284    -3241    -3397 
   -3619    -3634    -3434    -3314    -3532    -3904    -4002    -3793 
   -3522    -3310    -3211    -3384    -3801    -3946    -3631    -3434 
   -3515    -3551    -3528    -3450    -3281    -3141    -3092    -3179 
   -3334    -3392    -3403    -3438    -3403    -3383    -3523    -3603 
   -3483    -3408    -3557    -3900    -4106    -3869    -3577    -3622 
   -3672    -3403    -3005    -2766    -2762    -2974    -3284    -3392 
   -3333    -3612    -4218    -4401    -3947    -3501    -3400    -3381 
   -3403    -3613    -3790    -3769    -3815    -3879    -3565    -2956 
   -2559    -2709    -3206    -3546    -3757    -4020    -4008    -3717 
   -3507    -3307    -3113    -3141    -3229    -3249    -3461    -3912 
   -4307    -4356    -3952    -3370    -3007    -2905    -2945    -3121 
   -3385    -3542    -3458    -3330    -3361    -3385    -3314    -3396 
   -3677    -3798    -3624    -3516    -3705    -3982    -4067    -3844 
   -3504    -3303    -3190    -3105    -3103    -3210    -3435    -3578 
   -3495    -3412    -3415    -3385    -3403    -3492    -3542    -3592 
   -3632    -3496    -3256    -3256    -3605    -4055    -4263    -4000 
   -3388    -2940    -2964    -3280    -3615    -3744    -3549    -3299 
   -3261    -3244    -3160    -3250    -3535    -3805    -3875    -3743 
   -3674    -3696    -3523    -3246    -3164    -3283    -3496    -3615 
   -3500    -3352    -3426    -3634    -3662    -3456    -3357    -3524 
   -3655    -3561    -3415    -3410    -3487    -3408    -3222    -3237 
   -3477    -3735    -3873    -3813    -3704    -3790    -3851    -3528 
   -3094    -2965    -3126    -3392    -3580    -3607    -3384    -2849 
   -2500    -2847    -3499    -3885    -4036    -4045    -3816    -3483 
   -3307    -3402    -3711    -3951    -3862    -3511    -3254    -3294 
   -3407    -3389    -3357    -3434    -3545    -3582    -3589    -3632 
   -3613    -3461    -3338    -3375    -3427    -3457    -3608    -3727 
   -3667    -3667    -3701    -3483    -3179    -3138    -3319    -3451 
   -3451    -3550    -3802    -3807    -3423    -3165    -3314    -3512 
   -3476    -3352    -3451    -3758    -3878    -3713    -3559    -3468 
   -3311    -3172    -3140    -3200    -3438    -3770    -3811    -3561 
   -3437    -3435    -3304    -3192    -3326    -3528    -3496    -3261 
   -3132    -3298    -3608    -3727    -3546    -3338    -3399    -3662 
   -3829    -3867    -3902    -3807    -3487    -3150    -2983    -3052 
   -3318    -3613    -3792    -3732    -3419    -3153    -3268    -3657 
   -3964    -4013    -3834    -3624    -3493    -3307    -3156    -3298 
   -3566    -3596    -3454    -3430    -3472    -3356    -3163    -3138 
   -3302    -3474    -3539    -3532    -3508    -3510    -3600    -3689 
   -3550    -3343    -3424    -3667    -3832    -3871    -3762    -3643 
   -3519    -3285    -3181    -3291    -3400    -3470    -3476    -3420 
   -3439    -3483    -3439    -3379    -3372    -3439    -3562    -3665 
   -3700    -3611    -3406    -3292    -3407    -3591    -3643    -3516 
   -3288    -3177    -3289    -3414    -3449    -3520    -3645    -3742 
   -3732    -3578    -3395    -3304    -3306    -3366    -3423    -3462 
   -3558    -3593    -3395    -3211    -3393    -3721    -3742    -3477 
   -3350    -3489    -3574    -3480    -3451    -3562    -3615    -3585 
   -3586    -3538    -3400    -3393    -3574    -3707    -3651    -3474 
   -3303    -3264    -3408    -3599    -3676    -3636    -3574    -3549 
   -3555    -3531    -3443    -3346    -3318    -3379    -3481    -3561 
   -3561    -3447    -3288    -3238    -3325    -3383    -3306    -3227 
   -3345    -3574    -3604    -3469    -3489    -3578    -3518    -3456 
   -3477    -3507    -3568    -3650    -3676    -3645    -3611    -3578 
   -3550    -3566    -3581    -3539    -3507    -3497    -3468    -3414 
   -3326    -3308    -3445    -3574    -3586    -3542    -3423    -3258 
   -3231    -3357    -3446    -3462    -3483    -3508    -3530    -3554 
   -3535    -3473    -3480    -3547    -3499    -3329    -3261    -3419 
   -3608    -3646    -3620    -3607    -3578    -3561    -3546    -3543 
   -3661    -3827    -3811    -3582    -3338    -3206    -3173    -3219 
   -3343    -3473    -3518    -3488    -3495    -3553    -3542    -3476 
   -3485    -3557    -3559    -3478    -3435    -3488    -3530    -3446 
   -3264    -3160    -3275    -3478    -3562    -3522    -3458    -3464 
   -3531    -3582    -3631    -3670    -3595    -3464    -3429    -3464 
   -3488    -3514    -3568    -3586    -3483    -3362    -3426    -3568 
   -3564    -3495    -3523    -3605    -3599    -3464    -3323    -3285 
   -3357    -3470    -3514    -3487    -3500    -3528    -3469    -3404 
   -3470    -3616    -3682    -3628    -3550    -3503    -3453    -3376 
   -3294    -3272    -3334    -3412    -3450    -3429    -3397    -3393 
   -3392    -3458    -3624    -3738    -3705    -3589    -3483    -3457 
   -3477    -3477    -3500    -3578    -3634    -3591    -3476    -3396 
   -3431    -3541    -3642    -3666    -3576    -3473    -3430    -3372 
   -3316    -3353    -3450    -3547    -3619    -3607    -3515    -3461 
   -3454    -3354    -3206    -3229    -3410    -3507    -3419    -3304 
   -3342    -3477    -3550    -3574    -3626    -3653    -3627    -3622 
   -3611    -3537    -3493    -3535    -3557    -3514    -3468    -3468 
   -3488    -3438    -3330    -3277    -3350    -3518    -3622    -3531 
   -3406    -3424    -3483    -3489    -3564    -3715    -3738    -3562 
   -3388    -3345    -3343    -3339    -3364    -3424    -3523    -3622 
   -3635    -3550    -3433    -3322    -3244    -3250    -3354    -3476 
   -3555    -3592    -3578    -3531    -3488    -3458    -3489    -3649 
   -3796    -3704    -3468    -3357    -3397    -3484    -3557    -3550 
   -3437    -3315    -3325    -3464    -3609    -3681    -3638    -3499 
   -3389    -3379    -3407    -3447    -3523    -3615    -3704    -3748 
   -3658    -3469    -3337    -3319    -3380    -3460    -3499    -3487 
   -3485    -3524    -3518    -3427    -3361    -3376    -3433    -3500 
   -3555    -3595    -3578    -3492    -3434    -3446    -3450    -3402 
   -3348    -3369    -3462    -3539    -3596    -3649    -3612    -3504 
   -3449    -3453    -3446    -3427    -3443    -3507    -3526    -3476 
   -3501    -3580    -3561    -3483    -3453    -3472    -3470    -3419 
   -3410    -3472    -3499    -3462    -3431    -3433    -3457    -3480 
   -3476    -3476    -3497    -3468    -3387    -3354    -3356    -3356 
   -3397    -3465    -3505    -3504    -3478    -3493    -3546    -3565 
   -3546    -3531    -3543    -3554    -3550    -3559    -3573    -3535 
   -3492    -3516    -3538    -3480    -3424    -3470    -3557    -3538 
   -3457    -3481    -3570    -3546    -3451    -3451    -3496    -3473 
   -3424    -3397    -3376    -3414    -3543    -3603    -3503    -3434 
   -3530    -3647    -3631    -3493    -3372    -3392    -3512    -3586 
   -3541    -3443    -3406    -3453    -3523    -3539    -3503    -3504 
   -3570    -3589    -3541    -3511    -3503    -3487    -3474    -3434 
   -3376    -3349    -3333    -3357    -3456    -3500    -3435    -3419 
   -3480    -3507    -3508    -3512    -3481    -3454    -3472    -3510 
   -3541    -3543    -3531    -3520    -3480    -3415    -3373    -3366 
   -3391    -3464    -3554    -3546    -3443    -3411    -3476    -3522 
   -3537    -3554    -3553    -3512    -3462    -3430    -3414    -3411 
   -3418    -3419    -3429    -3466    -3545    -3650    -3697    -3638 
