Origin Time       2021/08/14 22:38:00
Lat.              37.5
Long.             137.2
Depth. (km)       10
Mag.              4.1
Station Code      ISKH06
Station Lat.      37.0533
Station Long.     136.8206
Station Height(m) 20
Record Time       2021/08/14 22:38:25
Sampling Freq(Hz) 100Hz
Duration Time(s)  120
Dir.              6
Scale Factor      7845(gal)/8223790
Max. Acc. (gal)   0.511
Last Correction   2021/08/14 22:38:25
Memo.             
[...]
    -504     -503     -503     -506     -506     -504     -506     -506 
    -503     -503     -504     -504     -502     -500     -503     -503 
    -502     -503     -502     -500     -504     -503     -500     -503 
    -506     -502     -502     -506     -504     -504     -506     -503 
    -502     -503     -503     -504     -504     -504     -503     -502 
    -504     -504     -503     -502     -504     -506     -503     -502 
    -502     -502     -503     -503     -503     -503     -506     -504 
    -502     -504     -506     -502     -502     -506     -506     -503 
    -502     -502     -504     -504     -504     -504     -503     -502 
    -503     -502     -502     -503     -502     -503     -504     -504 
    -503     -503     -504     -504     -503     -503     -504     -504 
    -504     -503     -502     -503     -503     -506     -507     -506 
    -502     -503     -503     -503     -506     -506     -500     -500 
    -504     -504     -504     -504     -504     -504     -504     -503 
    -502     -504     -506     -506     -504     -504     -503     -500 
    -502     -503     -503     -503     -503     -504     -504     -500 
    -502     -504     -502     -500     -503     -503     -503     -504 
    -504     -504     -503     -502     -502     -503     -503     -503 
    -503     -503     -504     -503     -503     -504     -504     -506 
    -506     -503     -503     -503     -503     -503     -502     -503 
    -503     -503     -503     -504     -503     -503     -503     -502 
    -503     -504     -503     -503     -504     -506     -504     -500 
    -502     -502     -502     -503     -504     -503     -504     -504 
    -506     -503     -503     -506     -506     -504     -503     -504 
    -506     -504     -502     -502     -503     -503     -503     -504 
    -504     -503     -500     -502     -504     -504     -503     -503 
    -504     -503     -503     -506     -503     -502     -503     -506 
    -503     -502     -502     -502     -502     -503     -502     -503 
    -506     -504     -502     -503     -506     -503     -503     -503 
    -503     -503     -503     -502     -502     -503     -504     -503 
    -500     -503     -504     -503     -504     -506     -504     -504 
    -504     -502     -502     -504     -504     -503     -502     -503 
    -504     -503     -502     -503     -503     -500     -503     -504 
    -500     -499     -503     -504     -502     -503     -504     -504 
    -504     -504     -503     -504     -506     -503     -502     -504 
    -503     -502     -502     -503     -502     -502     -504     -506 
    -506     -504     -503     -504     -503     -502     -504     -504 
    -503     -504     -504     -504     -504     -504     -503     -503 
    -504     -504     -503     -502     -503     -504     -506     -504 
    -502     -502     -502     -504     -503     -502     -504     -506 
    -504     -504     -503     -502     -502     -504     -503     -502 
    -504     -506     -506     -504     -503     -504     -506     -504 
    -504     -504     -504     -504     -504     -503     -503     -502 
    -500     -503     -504     -504     -506     -506     -503     -504 
    -504     -503     -503     -503     -507     -514     -515     -519 
    -517     -503     -494     -494     -500     -508     -502     -483 
    -475     -481     -488     -496     -507     -506     -504     -510 
    -515     -529     -537     -517     -486     -477     -494     -511 
    -527     -534     -504     -464     -472     -525     -557     -544 
    -514     -515     -557     -562     -494     -417     -400     -465 
    -546     -558     -510     -483     -506     -513     -477     -460 
    -480     -517     -540     -537     -533     -476     -363     -396 
    -615     -703     -530     -346     -382     -569     -668     -577 
    -448     -421     -461     -507     -535     -531     -502     -459 
    -436     -527     -616     -506     -409     -499     -523     -434 
    -472     -594     -596     -460     -369     -492     -672     -673 
    -533     -414     -432     -508     -507     -522     -598     -587 
    -495     -407     -321     -352     -584     -757     -606     -344 
    -309     -433     -526     -572     -573     -548     -533     -513 
    -465     -390     -387     -537     -680     -622     -464     -452 
    -562     -560     -442     -406     -500     -598     -600     -565 
    -534     -481     -456     -473     -486     -504     -533     -514 
    -484     -477     -411     -352     -419     -491     -503     -541 
    -549     -531     -579     -560     -444     -444     -545     -567 
    -527     -523     -510     -427     -390     -476     -571     -610 
    -616     -550     -492     -561     -591     -438     -334     -449 
    -577     -552     -495     -510     -519     -456     -352     -330 
    -486     -656     -616     -544     -584     -480     -317     -427 
    -540     -452     -535     -712     -580     -398     -473     -522 
    -426     -432     -510     -507     -540     -598     -530     -476 
    -537     -556     -553     -564     -460     -383     -496     -581 
    -538     -481     -378     -322     -530     -768     -687     -464 
    -376     -391     -480     -565     -506     -456     -565     -626 
    -545     -476     -423     -384     -476     -599     -587     -484 
    -400     -405     -488     -575     -607     -553     -453     -432 
    -535     -615     -529     -437     -488     -565     -643     -697 
    -486     -136     -114     -386     -612     -691     -594     -454 
    -487     -571     -538     -494     -546     -612     -573     -469 
    -386     -383     -527     -693     -652     -498     -448     -453 
    -459     -492     -514     -542     -537     -395     -342     -508 
    -587     -523     -562     -623     -513     -427     -517     -523 
    -427     -480     -576     -535     -472     -446     -378     -379 
    -496     -492     -471     -652     -704     -496     -418     -537 
    -588     -533     -476     -476     -557     -603     -550     -479 
    -386     -336     -400     -456     -496     -595     -631     -560 
    -487     -492     -544     -518     -421     -407     -535     -650 
    -600     -468     -413     -433     -461     -484     -506     -529 
    -587     -637     -595     -541     -530     -476     -363     -314 
    -449     -648     -634     -419     -321     -423     -552     -646 
    -646     -506     -432     -471     -436     -413     -548     -692 
    -610     -365     -324     -507     -540     -434     -464     -564 
    -571     -525     -529     -542     -473     -461     -595     -657 
    -584     -545     -550     -518     -419     -346     -436     -588 
    -630     -535     -371     -264     -328     -508     -615     -558 
    -467     -463     -500     -521     -531     -548     -618     -675 
    -560     -426     -461     -506     -460     -426     -471     -571 
    -579     -469     -437     -525     -567     -523     -504     -546 
    -607     -594     -479     -386     -390     -473     -538     -456 
    -348     -425     -553     -540     -494     -500     -503     -542 
    -595     -538     -453     -492     -584     -588     -534     -531 
    -529     -477     -523     -616     -504     -322     -369     -518 
    -518     -446     -464     -527     -565     -544     -472     -487 
    -585     -576     -484     -440     -440     -500     -552     -488 
    -441     -456     -453     -507     -560     -502     -494     -604 
    -670     -610     -507     -472     -492     -518     -527     -510 
    -508     -534     -533     -522     -517     -457     -364     -376 
    -544     -645     -535     -406     -369     -373     -386     -383 
    -487     -706     -730     -537     -442     -461     -468     -533 
    -611     -561     -467     -456     -463     -477     -588     -648 
    -530     -481     -530     -405     -292     -465     -664     -665 
    -587     -504     -400     -341     -448     -653     -726     -604 
    -437     -364     -432     -511     -446     -403     -496     -499 
    -464     -610     -711     -540     -318     -280     -407     -610 
    -704     -580     -441     -465     -591     -643     -530     -419 
    -440     -487     -544     -591     -504     -372     -387     -467 
    -492     -585     -670     -522     -363     -457     -591     -546 
    -432     -405     -486     -589     -596     -499     -441     -465 
    -529     -598     -572     -499     -533     -568     -454     -369 
    -440     -483     -471     -549     -603     -508     -406     -406 
    -454     -527     -604     -612     -560     -523     -508     -473 
    -432     -426     -465     -558     -648     -625     -530     -460 
    -429     -411     -421     -530     -648     -604     -492     -440 
    -446     -472     -441     -454     -618     -704     -552     -344 
    -302     -445     -600     -633     -544     -436     -445     -531 
    -558     -515     -454     -457     -529     -534     -453     -406 
    -461     -610     -712     -618     -460     -437     -510     -604 
    -673     -614     -423     -279     -294     -352     -407     -525 
    -606     -591     -550     -484     -399     -421     -564     -621 
    -518     -418     -399     -457     -565     -604     -556     -529 
    -525     -503     -541     -656     -680     -544     -406     -400 
    -510     -595     -537     -433     -418     -457     -504     -506 
    -411     -392     -514     -579     -594     -642     -568     -399 
    -430     -603     -585     -453     -453     -480     -463     -503 
    -522     -418     -310     -325     -441     -615     -784     -765 
    -554     -363     -265     -295     -519     -770     -770     -552 
    -383     -305     -294     -441     -618     -670     -654     -579 
    -469     -445     -530     -585     -502     -371     -384     -540 
    -558     -419     -425     -537     -581     -610     -610     -560 
    -546     -583     -557     -427     -388     -490     -507     -430 
    -449     -527     -514     -467     -460     -446     -479     -565 
    -603     -564     -433     -326     -418     -602     -677     -526 
    -230     -193     -510     -784     -827     -716     -473     -274 
    -346     -599     -792     -745     -486     -314     -351     -438 
    -480     -461     -450     -503     -542     -507     -448     -446 
    -522     -596     -584     -506     -481     -515     -491     -460 
    -498     -488     -476     -584     -633     -488     -291     -261 
    -475     -710     -699     -552     -519     -476     -261     -201 
    -534     -851     -777     -562     -457     -407     -432     -494 
    -504     -529     -575     -583     -544     -453     -460     -576 
    -507     -340     -402     -522     -494     -507     -611     -588 
    -445     -410     -496     -529     -518     -554     -549     -490 
    -553     -784     -932     -737     -380     -238     -245     -248 
    -379     -519     -421     -279     -310     -382     -452     -608 
    -735     -758     -787     -772     -598     -363     -195     -205 
    -382     -477     -440     -495     -572     -476     -372     -477 
    -681     -702     -537     -496     -550     -454     -337     -341 
    -386     -480     -666     -792     -653     -426     -477     -621 
    -446     -201     -325     -598     -625     -541     -496     -392 
    -383     -600     -801     -818     -687     -460     -268     -220 
    -355     -649     -886     -808     -502     -303     -241     -249 
    -538     -919     -882     -531     -280     -226     -360     -592 
    -689     -606     -526     -579     -641     -513     -353     -422 
    -504     -421     -406     -527     -634     -622     -409     -153 
    -159     -365     -513     -530     -554     -714     -865     -776 
    -521     -368     -390     -499     -658     -700     -514     -295 
    -164     -171     -413     -643     -658     -718     -804     -600 
    -288     -175     -214     -349     -508     -579     -553     -405 
    -278     -496     -915    -1005     -760     -569     -406     -199 
    -265     -549     -676     -650     -556     -402     -367     -434 
    -387     -357     -523     -657     -627     -548     -452     -429 
    -473     -417     -432     -598     -606     -579     -679     -537 
    -237     -294     -595     -774     -733     -508     -375     -448 
    -457     -376     -407     -583     -781     -834     -716     -522 
    -359     -353     -453     -487     -440     -442     -545     -576 
    -468     -432     -479     -421     -313     -378     -581     -604 
    -390     -303     -430     -507     -542     -575     -434     -284 
    -423     -599     -495     -403     -585     -787     -716     -388 
    -102     -226     -631     -849     -796     -635     -365     -149 
    -261     -569     -772     -796     -716     -631     -592     -616 
    -626     -500     -314     -265     -422     -564     -464     -334 
    -373     -382     -306     -371     -634     -899     -911     -720 
    -557     -449     -481     -649     -629     -477     -533     -634 
    -488     -286     -307     -453     -515     -453     -332     -330 
    -502     -612     -567     -453     -291     -174     -298     -583 
    -730     -691     -623     -580     -573     -625     -665     -642 
    -627     -581     -423     -352     -460     -560     -683     -791 
    -561     -126       31     -143     -375     -434     -299     -226 
    -338     -392     -321     -413     -724     -912     -769     -523 
    -471     -573     -648     -687     -641     -403     -238     -356 
    -553     -727     -781     -564     -371     -436     -538     -573 
    -573     -561     -684     -845     -718     -395     -267     -425 
    -657     -753     -629     -405     -303     -322     -315     -391 
    -683     -907     -795     -526     -348     -302     -376     -506 
    -517     -390     -376     -465     -322     -140     -333     -599 
    -552     -402     -454     -723     -900     -646     -214     -120 
    -384     -675     -669     -357     -155     -342     -669     -756 
    -569     -387     -394     -511     -673     -815     -761     -558 
    -434     -438     -514     -573     -581     -643     -711     -583 
    -333     -237     -384     -622     -792     -859     -754     -484 
    -243     -125     -162     -365     -596     -715     -681     -506 
    -384     -415     -367     -233     -282     -477     -635     -693 
    -534     -218     -102     -290     -530     -630     -585     -544 
    -627     -699     -618     -538     -565     -573     -557     -618 
    -635     -558     -585     -702     -684     -542     -418     -349 
    -307     -286     -326     -411     -461     -521     -630     -616 
    -440     -368     -527     -769     -913     -818     -527     -297 
    -284     -442     -650     -760     -681     -492     -338     -263 
    -259     -373     -534     -503     -324     -255     -280     -297 
    -360     -448     -503     -572     -658     -731     -760     -727 
    -672     -622     -606     -646     -653     -552     -430     -372 
    -363     -388     -409     -415     -504     -634     -657     -568 
    -477     -484     -535     -556     -561     -475     -259     -113 
    -163     -297     -407     -500     -556     -558     -612     -664 
    -568     -467     -494     -579     -689     -737     -612     -464 
    -511     -708     -788     -622     -457     -477     -483     -396 
    -379     -369     -282     -260     -344     -468     -639     -703 
    -506     -270     -257     -465     -677     -664     -471     -368 
    -475     -677     -832     -862     -688     -359     -174     -261 
    -378     -375     -357     -405     -535     -664     -660     -658 
    -773     -812     -706     -549     -367     -290     -373     -472 
    -575     -672     -629     -491     -445     -513     -600     -603 
    -464     -291     -252     -328     -326     -265     -388     -623 
    -693     -622     -591     -652     -716     -658     -499     -395 
    -398     -407     -387     -338     -264     -267     -387     -525 
    -610     -619     -544     -442     -450     -599     -696     -648 
    -572     -483     -437     -565     -715     -699     -606     -554 
    -538     -540     -554     -534     -450     -399     -368     -248 
    -170     -249     -341     -396     -492     -581     -592     -562 
    -562     -602     -668     -724     -749     -742     -679     -546 
    -378     -294     -375     -484     -492     -450     -432     -450 
    -476     -438     -378     -410     -477     -503     -560     -633 
    -697     -811     -831     -675     -564     -560     -527     -487 
    -432     -342     -333     -414     -464     -442     -379     -342 
    -363     -355     -344     -452     -573     -529     -369     -248 
    -268     -423     -573     -656     -680     -625     -600     -704 
    -756     -592     -406     -477     -703     -777     -681     -567 
    -467     -414     -444     -484     -465     -418     -429     -472 
    -438     -372     -373     -407     -471     -604     -680     -571 
    -405     -332     -329     -407     -599     -720     -637     -530 
    -518     -496     -426     -383     -391     -398     -380     -405 
    -456     -483     -546     -623     -616     -587     -596     -556 
    -471     -475     -556     -604     -588     -537     -472     -419 
    -453     -558     -588     -537     -537     -604     -649     -594 
    -498     -476     -475     -452     -523     -619     -550     -440 
    -438     -450     -413     -388     -442     -545     -540     -421 
    -406     -494     -480     -337     -217     -240     -399     -587 
    -702     -707     -696     -757     -800     -750     -673     -572 
    -429     -333     -332     -376     -414     -457     -522     -517 
    -395     -259     -168     -194     -380     -576     -653     -625 
    -518     -445     -494     -577     -633     -662     -631     -572 
    -568     -606     -604     -565     -550     -568     -610     -666 
    -673     -585     -450     -363     -400     -506     -535     -479 
    -407     -352     -351     -438     -564     -607     -523     -434 
    -414     -396     -359     -348     -378     -417     -407     -364 
    -367     -441     -548     -635     -649     -607     -573     -573 
    -587     -569     -521     -484     -473     -495     -531     -514 
    -464     -479     -569     -660     -669     -577     -454     -395 
    -432     -488     -502     -511     -540     -548     -531     -558 
    -630     -619     -491     -411     -473     -568     -581     -504 
    -387     -325     -388     -500     -542     -514     -484     -496 
    -552     -575     -535     -522     -531     -498     -456     -433 
    -399     -386     -375     -360     -445     -579     -592     -518 
    -488     -507     -519     -531     -553     -561     -549     -527 
    -535     -581     -577     -526     -530     -544     -499     -490 
    -488     -406     -373     -472     -565     -579     -552     -535 
    -553     -568     -571     -569     -537     -498     -484     -487 
    -481     -421     -352     -368     -422     -469     -548     -581 
