Origin Time       2021/08/14 22:38:00
Lat.              37.5
Long.             137.2
Depth. (km)       10
Mag.              4.1
Station Code      ISKH02
Station Lat.      37.3644
Station Long.     137.0413
Station Height(m) 19
Record Time       2021/08/14 22:38:11
Sampling Freq(Hz) 100Hz
Duration Time(s)  120
Dir.              1
Scale Factor      3923(gal)/8224838
Max. Acc. (gal)   2.977
Last Correction   2021/08/14 22:38:11
Memo.             
[...]
   -2458    -2459    -2462    -2462    -2457    -2455    -2461    -2462 
   -2459    -2461    -2461    -2461    -2461    -2457    -2459    -2462 
   -2459    -2459    -2461    -2459    -2459    -2462    -2462    -2459 
   -2457    -2459    -2461    -2461    -2458    -2458    -2458    -2459 
   -2462    -2461    -2458    -2461    -2461    -2459    -2459    -2461 
   -2459    -2459    -2461    -2462    -2459    -2459    -2462    -2462 
   -2461    -2461    -2459    -2457    -2459    -2461    -2461    -2462 
   -2462    -2461    -2459    -2462    -2461    -2457    -2457    -2459 
   -2462    -2461    -2459    -2459    -2458    -2458    -2461    -2462 
   -2462    -2461    -2459    -2457    -2458    -2461    -2462    -2461 
   -2458    -2458    -2461    -2459    -2459    -2462    -2461    -2459 
   -2459    -2459    -2461    -2461    -2459    -2459    -2461    -2459 
   -2458    -2462    -2462    -2457    -2458    -2461    -2458    -2458 
   -2461    -2459    -2457    -2459    -2462    -2462    -2462    -2458 
   -2457    -2461    -2462    -2459    -2462    -2461    -2457    -2455 
   -2461    -2459    -2458    -2461    -2462    -2462    -2462    -2461 
   -2462    -2463    -2459    -2459    -2463    -2462    -2459    -2462 
   -2461    -2459    -2462    -2463    -2461    -2461    -2462    -2459 
   -2458    -2458    -2457    -2457    -2461    -2463    -2461    -2458 
   -2457    -2457    -2461    -2463    -2458    -2457    -2459    -2458 
   -2457    -2461    -2462    -2459    -2458    -2459    -2461    -2462 
   -2461    -2461    -2463    -2463    -2461    -2461    -2461    -2461 
   -2462    -2461    -2458    -2459    -2461    -2459    -2462    -2462 
   -2457    -2459    -2462    -2458    -2458    -2461    -2459    -2458 
   -2459    -2458    -2458    -2462    -2461    -2457    -2461    -2461 
   -2458    -2461    -2462    -2461    -2459    -2461    -2462    -2462 
   -2461    -2461    -2462    -2461    -2459    -2458    -2458    -2458 
   -2461    -2462    -2458    -2458    -2461    -2461    -2458    -2459 
   -2461    -2459    -2459    -2461    -2461    -2462    -2465    -2461 
   -2457    -2459    -2459    -2459    -2461    -2461    -2459    -2459 
   -2458    -2458    -2459    -2461    -2462    -2459    -2458    -2461 
   -2463    -2463    -2462    -2461    -2461    -2461    -2458    -2459 
   -2462    -2461    -2459    -2461    -2461    -2458    -2459    -2461 
   -2461    -2461    -2459    -2458    -2459    -2461    -2462    -2461 
   -2458    -2461    -2462    -2458    -2458    -2459    -2461    -2461 
   -2459    -2461    -2462    -2462    -2461    -2459    -2461    -2461 
   -2461    -2458    -2459    -2462    -2459    -2457    -2458    -2457 
   -2458    -2459    -2458    -2458    -2461    -2459    -2458    -2461 
   -2462    -2459    -2462    -2461    -2457    -2458    -2459    -2458 
   -2462    -2462    -2458    -2458    -2458    -2457    -2461    -2458 
   -2454    -2459    -2463    -2459    -2458    -2461    -2458    -2455 
   -2459    -2459    -2459    -2462    -2461    -2462    -2463    -2458 
   -2459    -2463    -2461    -2458    -2459    -2461    -2459    -2458 
   -2461    -2461    -2461    -2461    -2461    -2461    -2458    -2458 
   -2459    -2461    -2461    -2459    -2459    -2461    -2461    -2461 
   -2458    -2458    -2461    -2462    -2458    -2458    -2461    -2462 
   -2459    -2457    -2459    -2462    -2461    -2458    -2458    -2458 
   -2458    -2458    -2459    -2459    -2459    -2461    -2461    -2458 
   -2459    -2463    -2461    -2458    -2461    -2461    -2459    -2457 
   -2455    -2457    -2461    -2458    -2457    -2459    -2459    -2458 
   -2459    -2458    -2459    -2459    -2457    -2457    -2458    -2461 
   -2461    -2461    -2459    -2459    -2459    -2458    -2458    -2461 
   -2459    -2458    -2458    -2458    -2458    -2459    -2459    -2457 
   -2458    -2458    -2458    -2461    -2461    -2459    -2458    -2458 
   -2463    -2461    -2457    -2459    -2459    -2455    -2458    -2461 
   -2462    -2461    -2458    -2459    -2462    -2459    -2458    -2461 
   -2461    -2458    -2458    -2459    -2459    -2459    -2461    -2461 
   -2458    -2457    -2459    -2459    -2457    -2458    -2458    -2455 
   -2457    -2459    -2457    -2458    -2461    -2458    -2457    -2458 
   -2459    -2459    -2459    -2457    -2457    -2459    -2461    -2458 
   -2458    -2458    -2458    -2458    -2459    -2459    -2459    -2459 
   -2458    -2458    -2458    -2459    -2458    -2459    -2461    -2457 
   -2457    -2461    -2462    -2459    -2459    -2459    -2458    -2458 
   -2461    -2458    -2455    -2461    -2462    -2461    -2462    -2461 
   -2458    -2457    -2457    -2458    -2459    -2461    -2459    -2459 
   -2458    -2458    -2461    -2459    -2457    -2458    -2459    -2459 
   -2458    -2458    -2461    -2462    -2463    -2462    -2461    -2461 
   -2458    -2458    -2461    -2461    -2459    -2461    -2462    -2461 
   -2458    -2459    -2458    -2458    -2463    -2462    -2458    -2458 
   -2461    -2459    -2457    -2458    -2459    -2459    -2459    -2459 
   -2461    -2459    -2458    -2458    -2459    -2458    -2457    -2457 
   -2458    -2459    -2459    -2461    -2458    -2457    -2458    -2457 
   -2457    -2461    -2462    -2459    -2461    -2461    -2458    -2461 
   -2462    -2461    -2461    -2461    -2459    -2458    -2457    -2458 
   -2459    -2461    -2459    -2458    -2457    -2455    -2457    -2457 
   -2458    -2459    -2458    -2455    -2458    -2462    -2459    -2457 
   -2459    -2461    -2459    -2459    -2461    -2459    -2458    -2457 
   -2458    -2461    -2459    -2457    -2458    -2459    -2457    -2457 
   -2461    -2459    -2455    -2459    -2461    -2457    -2459    -2461 
   -2461    -2459    -2458    -2458    -2458    -2459    -2461    -2461 
   -2461    -2462    -2459    -2457    -2459    -2459    -2458    -2458 
   -2458    -2458    -2459    -2458    -2457    -2459    -2462    -2458 
   -2457    -2458    -2457    -2459    -2461    -2458    -2458    -2461 
   -2459    -2458    -2459    -2458    -2455    -2459    -2461    -2458 
   -2459    -2462    -2459    -2457    -2459    -2461    -2461    -2458 
   -2457    -2461    -2462    -2459    -2458    -2457    -2458    -2458 
   -2455    -2458    -2461    -2459    -2458    -2459    -2457    -2455 
   -2458    -2458    -2459    -2459    -2457    -2458    -2462    -2462 
   -2458    -2457    -2458    -2461    -2459    -2458    -2459    -2457 
   -2455    -2459    -2459    -2458    -2459    -2459    -2459    -2461 
   -2459    -2459    -2458    -2457    -2459    -2461    -2459    -2461 
   -2459    -2459    -2462    -2459    -2457    -2461    -2461    -2457 
   -2461    -2462    -2458    -2458    -2458    -2457    -2459    -2459 
   -2457    -2459    -2459    -2455    -2457    -2459    -2458    -2459 
   -2462    -2458    -2454    -2458    -2461    -2461    -2461    -2458 
   -2455    -2457    -2457    -2455    -2458    -2459    -2459    -2459 
   -2459    -2459    -2461    -2457    -2455    -2461    -2462    -2458 
   -2458    -2459    -2458    -2458    -2458    -2459    -2459    -2458 
   -2457    -2458    -2459    -2458    -2459    -2459    -2458    -2459 
   -2459    -2457    -2459    -2458    -2454    -2457    -2459    -2459 
   -2459    -2458    -2458    -2458    -2458    -2461    -2462    -2457 
   -2455    -2459    -2462    -2459    -2457    -2458    -2459    -2459 
   -2457    -2458    -2459    -2459    -2459    -2458    -2455    -2457 
   -2458    -2457    -2459    -2459    -2461    -2461    -2457    -2455 
   -2459    -2461    -2458    -2457    -2458    -2462    -2458    -2457 
   -2459    -2459    -2459    -2459    -2457    -2455    -2458    -2458 
   -2457    -2458    -2458    -2457    -2458    -2455    -2454    -2457 
   -2459    -2459    -2458    -2459    -2455    -2454    -2458    -2457 
   -2455    -2457    -2458    -2459    -2459    -2459    -2459    -2458 
   -2458    -2458    -2457    -2455    -2458    -2461    -2459    -2458 
   -2458    -2457    -2455    -2457    -2457    -2457    -2458    -2458 
   -2459    -2458    -2458    -2458    -2459    -2459    -2459    -2459 
   -2459    -2459    -2461    -2461    -2459    -2458    -2461    -2462 
   -2461    -2459    -2458    -2459    -2457    -2458    -2457    -2452 
   -2455    -2459    -2458    -2457    -2457    -2458    -2459    -2458 
   -2458    -2458    -2458    -2458    -2459    -2457    -2457    -2459 
   -2459    -2458    -2458    -2457    -2458    -2461    -2461    -2459 
   -2458    -2461    -2461    -2459    -2458    -2457    -2458    -2459 
   -2457    -2459    -2462    -2458    -2458    -2458    -2457    -2459 
   -2462    -2461    -2458    -2458    -2459    -2458    -2458    -2458 
   -2455    -2455    -2461    -2462    -2459    -2459    -2459    -2455 
   -2457    -2459    -2458    -2458    -2461    -2459    -2459    -2461 
   -2459    -2458    -2458    -2459    -2459    -2457    -2458    -2462 
   -2461    -2459    -2461    -2458    -2457    -2459    -2462    -2459 
   -2455    -2457    -2461    -2459    -2457    -2459    -2459    -2458 
   -2459    -2459    -2458    -2458    -2458    -2457    -2458    -2458 
   -2458    -2458    -2458    -2457    -2459    -2461    -2461    -2459 
   -2461    -2462    -2462    -2461    -2459    -2458    -2459    -2459 
   -2459    -2459    -2459    -2458    -2459    -2461    -2458    -2457 
   -2459    -2458    -2458    -2462    -2459    -2458    -2459    -2458 
   -2457    -2459    -2459    -2458    -2458    -2459    -2461    -2461 
   -2458    -2458    -2459    -2459    -2458    -2459    -2462    -2461 
   -2459    -2461    -2459    -2458    -2459    -2459    -2459    -2462 
   -2461    -2459    -2461    -2461    -2459    -2457    -2458    -2461 
   -2459    -2458    -2457    -2459    -2462    -2461    -2459    -2461 
   -2461    -2459    -2459    -2459    -2459    -2457    -2457    -2458 
   -2461    -2461    -2461    -2459    -2459    -2461    -2461    -2461 
   -2461    -2458    -2457    -2458    -2458    -2457    -2459    -2461 
   -2458    -2458    -2459    -2458    -2458    -2459    -2458    -2459 
   -2461    -2459    -2458    -2459    -2457    -2457    -2459    -2458 
   -2457    -2458    -2458    -2457    -2461    -2458    -2454    -2457 
   -2458    -2454    -2448    -2430    -2401    -2362    -2300    -2219 
   -2147    -2135    -2315    -2740    -3171    -3304    -3056    -2500 
   -2020    -2154    -2736    -3069    -2733    -1819    -1252    -1749 
   -2531    -2901    -3041    -2889    -2502    -1914    -1281    -1736 
   -2983    -3080    -2205    -2003    -2724    -3280    -2710    -2114 
   -3065    -4013    -2891    -1182    -1320    -2883    -3431    -2246 
   -1406    -1965    -2678    -2814    -2732    -2965    -3065    -2064 
   -1147    -1818    -2801    -2667    -1993    -1949    -2718    -3133 
   -2624    -2205    -2628    -3446    -3518    -2486    -1688    -1935 
   -2485    -2727    -2605    -2436    -2403    -2160    -2026    -2469 
   -2836    -2512    -1918    -1899    -2619    -3152    -2670    -1768 
   -1718    -2484    -2825    -2467    -2338    -2829    -3041    -2196 
   -1557    -2582    -3793    -3117    -1640    -1736    -3082    -3210 
   -1868    -1584    -2860    -3254    -2188    -1641    -2431    -3319 
   -3099    -2304    -2014    -2066    -2074    -2263    -2538    -2189 
   -1686    -2532    -3697    -3079    -1888    -2139    -3144    -3267 
   -2343    -1649    -1899    -2191    -1995    -2259    -2956    -2683 
   -2004    -2559    -3437    -3183    -2423    -2143    -2431    -2597 
   -2211    -2122    -2556    -2679    -2743    -2902    -2370    -1578 
   -1746    -2782    -3295    -2538    -1803    -2371    -3041    -2428 
   -1773    -2434    -3206    -2419    -1011    -1478    -3651    -4521 
   -2845    -1017    -1503    -2913    -2650    -1626    -2228    -3862 
   -3844    -2150    -1632    -2690    -2727    -1611    -1834    -3003 
   -2640    -1367    -1617    -3090    -3589    -2767    -2293    -2808 
   -2943    -2184    -1935    -2652    -3138    -2555    -1277     -966 
   -2585    -4113    -3681    -2241    -1183    -1505    -2924    -3194 
   -2539    -2901    -2898    -1510     -846    -1958    -3427    -3138 
   -1528    -1678    -3805    -4897    -3667    -1756    -1225    -1938 
   -2427    -2218    -1498    -1217    -2764    -4801    -4105    -1053 
     214    -2022    -4356    -3557    -1682    -1768    -2440    -2079 
   -2096    -3044    -3395    -2281    -1451    -2968    -4471    -2907 
    -953    -1817    -3296    -2916    -2253    -2478    -2120    -1047 
   -1225    -3173    -4398    -2766     -874    -2045    -3812    -2998 
   -1771    -2413    -3264    -2506    -1150    -1378    -2872    -3181 
   -2477    -2907    -3717    -2729    -1129    -1478    -2835    -3140 
   -2768    -2251    -1690    -1822    -2648    -3258    -2976    -2220 
   -2181    -3088    -3298    -1799     -854    -1930    -2766    -2600 
   -2937    -3191    -2355    -1624    -2488    -3985    -3265     -849 
    -789    -3267    -4320    -2450     -733    -2043    -3940    -3190 
   -1755    -2124    -2763    -2293    -2278    -3289    -3537    -2223 
    -934    -1759    -3697    -3470    -1656    -1493    -2725    -3424 
   -3358    -2830    -2343    -2393    -2274    -1189     -546    -2123 
   -4137    -3473     -818      382    -1386    -4279    -5364    -3856 
   -1836    -1131    -1760    -3438    -4920    -3835     -368     1761 
     117    -3218    -4785    -4139    -3237    -2863    -1926     -865 
   -2479    -5957    -5568      -21     3782      800    -4675    -6034 
   -3042     -260     -495    -2232    -3842    -5254    -5373    -4114 
   -2925    -1409      425      -58    -3300    -5661    -4264     -666 
     521    -2108    -3929    -2363    -1669    -3856    -4585    -2185 
    -587    -1584    -2257    -1139     -661    -2006    -2679    -1313 
    -855    -3196    -5166    -4436    -3194    -2489     -814      147 
   -2525    -6068    -5506    -1680      433    -1015    -3002    -2832 
   -2829    -5043    -5389    -1818      314    -1788    -4062    -3505 
   -1452     -652    -1988    -2671    -1568    -1657    -3003    -3152 
   -2394    -2211    -3078    -3855    -3276    -2305    -2154    -2825 
   -3838    -3601    -1345      712      410    -1398    -2664    -3743 
   -5240    -4496    -1696    -1216    -2786    -3203    -2635    -2184 
   -2030    -1831    -1097     -895    -2046    -2614    -1572    -1871 
   -4488    -4846    -1829    -1058    -3979    -5421    -3095     -221 
    -535    -3335    -3983    -2243    -2417    -3975    -3836    -2421 
   -1109     -853    -1641    -2042    -1582    -1055    -1533    -2975 
   -3642    -2994    -3042    -5232    -6511    -3241     1007      838 
   -2250    -3528    -1655     -209    -2037    -4040    -3743    -3511 
   -4016    -3272    -1665    -1424    -2839    -3279    -1312      121 
   -1097    -2319    -1545    -1216    -3057    -4806    -4465    -2236 
    -249    -1768    -5013    -4656    -1350     -292    -2700    -4197 
   -1996      469     -422    -3032    -3933    -3302    -3507    -3905 
   -2454     -793    -1591    -3272    -2875    -1341    -1435    -3072 
   -3935    -3157    -2012    -1840    -2868    -3989    -3654    -1764 
    -151     -970    -3731    -4865    -2837    -1215    -2675    -4086 
   -2721    -1074    -1476    -2805    -3022    -1761     -889    -1150 
   -1545    -2559    -3715    -2956    -1804    -2961    -4734    -4020 
   -1576    -1003    -2743    -3068    -1463    -1549    -2808    -2073 
    -943    -2069    -4045    -4280    -2671    -1729    -2427    -2509 
   -1733    -2412    -3658    -3231    -2412    -2498    -2034     -869 
   -1409    -3762    -4072    -1085      511    -2110    -5081    -4523 
   -2220    -2088    -3736    -3464    -1543    -1502    -2498    -1692 
    -777    -1752    -2897    -2701    -2165    -3061    -4672    -4299 
   -2597    -2261    -2670    -2108    -1205    -1248    -2327    -2856 
   -1483     -494    -2450    -4681    -3913    -1740    -1179    -2866 
   -4325    -2724     -410    -1669    -4333    -3622     -932     -770 
   -3206    -4442    -2785    -1003    -1721    -3361    -3373    -2485 
   -2436    -2598    -2343    -2384    -2488    -2230    -1895    -1452 
   -1090    -1728    -3418    -4267    -3433    -2482    -2160    -2261 
   -2538    -2370    -2421    -2992    -2335     -793    -1004    -2949 
   -3909    -2724    -1574    -2535    -3735    -2608    -1001    -1910 
   -3942    -3601    -1069     -238    -2358    -3821    -2803    -2093 
   -3146    -3568    -2272    -1518    -2547    -3574    -2662     -892 
   -1088    -3055    -3766    -2651    -2191    -2906    -2581    -1215 
   -1301    -2999    -3944    -3157    -2269    -2884    -3858    -3269 
   -1844    -1355    -1981    -2539    -2031    -1255    -1732    -3051 
   -3457    -2419    -1474    -2081    -3296    -3157    -1852    -1833 
   -3701    -4550    -2990    -1520    -1854    -2515    -2169    -1798 
   -2296    -2839    -2513    -1667    -1636    -2548    -2601    -1537 
   -1402    -2606    -3289    -2808    -2457    -2897    -3358    -3192 
   -2743    -2690    -2740    -2116    -1458    -1775    -2394    -2392 
   -2296    -2894    -3478    -2668    -1188    -1422    -3527    -4768 
   -3181     -569     -336    -2335    -3400    -2682    -2251    -2987 
   -3416    -2566    -1557    -1872    -3161    -3873    -3223    -1914 
   -1406    -1953    -2554    -2721    -2459    -2394    -2956    -2872 
   -1867    -1563    -2146    -2407    -2119    -2471    -3705    -3512 
   -1304     -265    -1799    -3285    -2791    -2119    -3169    -3978 
   -2578    -1271    -2363    -3649    -2798    -1779    -2741    -3855 
   -2581     -610    -1213    -3109    -3041    -1842    -2300    -3639 
   -2925     -896     -896    -2673    -3453    -2998    -2687    -2755 
   -2752    -2613    -2570    -2587    -2481    -2667    -3203    -2835 
   -1632    -1672    -2878    -2944    -1865    -1637    -2528    -3132 
   -2643    -1919    -2076    -2247    -1821    -2216    -3226    -3042 
   -2100    -2342    -3570    -3258    -1235     -662    -2301    -3207 
   -1879     -625    -1714    -3582    -3777    -2997    -2978    -3315 
   -2928    -2351    -2273    -2176    -1941    -2018    -2265    -2427 
   -2781    -3426    -3288    -1917    -1329    -2694    -3815    -2679 
    -988    -1696    -3689    -3284    -1250    -1483    -3553    -3735 
   -2015    -1738    -3157    -3013     -815     -248    -2446    -3592 
   -2228    -1760    -3727    -5197    -3789    -1605    -1490    -2366 
   -2209    -1350     -997    -1456    -1995    -2380    -3011    -3522 
   -3501    -3188    -3022    -3446    -3816    -2849     -928      108 
    -712    -2335    -3007    -2648    -2708    -3451    -3416    -2520 
   -2577    -3493    -3231    -1579     -405    -1046    -2565    -3091 
   -2740    -2664    -2479    -1744    -1707    -3028    -4261    -4075 
   -2830    -1809    -1684    -1695    -1401    -1814    -3025    -3694 
   -3233    -2308    -1881    -2073    -2239    -2166    -2189    -2556 
   -3018    -3005    -2605    -2558    -2910    -2956    -2255    -1290 
   -1301    -2497    -3231    -2539    -1925    -2651    -3435    -2974 
   -2049    -1825    -2289    -2690    -2710    -2731    -2789    -2350 
   -1682    -1919    -2678    -2478    -1950    -2497    -3300    -3010 
