Origin Time       2021/08/14 22:38:00
Lat.              37.5
Long.             137.2
Depth. (km)       10
Mag.              4.1
Station Code      ISKH01
Station Lat.      37.5266
Station Long.     137.2844
Station Height(m) 48
Record Time       2021/08/14 22:38:09
Sampling Freq(Hz) 100Hz
Duration Time(s)  120
Dir.              4
Scale Factor      7845(gal)/8223790
Max. Acc. (gal)   35.461
Last Correction   2021/08/14 22:38:09
Memo.             
[...]
   10216    10210    10204    10207    10208    10207    10211    10216 
   10212    10206    10207    10212    10214    10212    10208    10210 
   10211    10211    10211    10212    10212    10207    10207    10211 
   10210    10210    10211    10210    10208    10208    10210    10212 
   10212    10207    10207    10210    10211    10211    10211    10208 
   10208    10208    10208    10211    10214    10211    10208    10208 
   10211    10216    10212    10208    10214    10214    10208    10210 
   10214    10214    10215    10210    10207    10214    10215    10211 
   10212    10211    10207    10208    10211    10212    10212    10210 
   10210    10214    10214    10210    10210    10211    10215    10218 
   10214    10212    10210    10210    10214    10214    10211    10211 
   10208    10203    10204    10210    10212    10212    10210    10210 
   10210    10207    10208    10214    10214    10211    10207    10206 
   10208    10211    10212    10214    10211    10207    10207    10207 
   10207    10210    10212    10208    10204    10207    10210    10210 
   10211    10214    10211    10210    10212    10211    10208    10211 
   10216    10216    10212    10210    10211    10212    10211    10214 
   10218    10216    10212    10211    10212    10210    10211    10214 
   10212    10208    10204    10207    10214    10215    10214    10211 
   10207    10207    10214    10216    10212    10214    10214    10208 
   10207    10208    10210    10211    10211    10211    10212    10210 
   10208    10215    10216    10211    10210    10211    10210    10211 
   10212    10210    10210    10211    10207    10206    10208    10208 
   10212    10216    10212    10206    10206    10211    10214    10214 
   10210    10206    10204    10208    10214    10214    10208    10208 
   10212    10210    10204    10208    10212    10208    10208    10212 
   10212    10206    10207    10214    10214    10208    10210    10211 
   10211    10210    10210    10211    10212    10208    10207    10212 
   10214    10210    10210    10212    10212    10210    10212    10214 
   10210    10207    10211    10212    10210    10208    10211    10212 
   10208    10208    10211    10210    10207    10208    10211    10210 
   10206    10211    10216    10212    10208    10208    10210    10212 
   10215    10212    10207    10208    10210    10207    10210    10211 
   10207    10208    10212    10210    10208    10208    10210    10214 
   10215    10212    10208    10207    10211    10212    10210    10208 
   10210    10210    10210    10211    10214    10211    10207    10211 
   10214    10210    10210    10215    10214    10210    10207    10212 
   10216    10214    10210    10206    10206    10208    10214    10214 
   10211    10207    10208    10212    10211    10211    10212    10210 
   10207    10211    10214    10214    10212    10210    10206    10207 
   10212    10215    10210    10204    10207    10211    10212    10212 
   10214    10211    10208    10212    10214    10212    10211    10211 
   10210    10210    10211    10211    10208    10204    10208    10211 
   10208    10210    10211    10207    10208    10214    10210    10210 
   10212    10210    10210    10211    10208    10208    10211    10210 
   10210    10212    10210    10208    10210    10208    10210    10212 
   10212    10208    10208    10214    10215    10214    10210    10207 
   10207    10210    10214    10215    10211    10208    10211    10214 
   10211    10208    10210    10212    10212    10211    10208    10207 
   10211    10214    10211    10207    10207    10211    10211    10208 
   10207    10210    10212    10210    10208    10214    10214    10207 
   10208    10212    10212    10210    10207    10211    10211    10207 
   10210    10211    10207    10207    10211    10211    10208    10208 
   10212    10211    10208    10208    10210    10212    10212    10211 
   10211    10210    10210    10212    10214    10208    10207    10211 
   10215    10214    10210    10208    10208    10207    10211    10215 
   10212    10207    10210    10212    10212    10211    10210    10211 
   10211    10210    10211    10214    10214    10211    10208    10208 
   10210    10212    10214    10212    10208    10207    10211    10214 
   10211    10211    10208    10206    10206    10208    10212    10212 
   10211    10207    10203    10208    10215    10211    10208    10211 
   10210    10207    10212    10215    10214    10211    10207    10210 
   10216    10212    10207    10208    10211    10212    10212    10210 
   10208    10210    10214    10216    10215    10210    10207    10210 
   10207    10208    10214    10211    10208    10207    10206    10210 
   10216    10214    10208    10208    10208    10211    10214    10214 
   10208    10206    10208    10210    10210    10210    10208    10204 
   10207    10214    10214    10207    10206    10207    10208    10212 
   10216    10215    10210    10204    10207    10211    10211    10214 
   10219    10211    10201    10203    10211    10216    10215    10208 
   10207    10206    10207    10214    10220    10218    10212    10204 
   10204    10212    10215    10215    10216    10210    10203    10208 
   10215    10211    10211    10214    10210    10204    10206    10212 
   10216    10215    10208    10206    10208    10212    10214    10215 
   10214    10212    10208    10207    10210    10214    10210    10206 
   10210    10212    10211    10212    10210    10207    10208    10211 
   10211    10210    10208    10210    10208    10208    10215    10218 
   10210    10203    10207    10212    10211    10210    10211    10210 
   10211    10211    10208    10208    10211    10211    10211    10211 
   10207    10208    10212    10215    10215    10211    10208    10212 
   10212    10210    10210    10210    10214    10216    10212    10207 
   10210    10212    10211    10214    10215    10210    10206    10208 
   10210    10212    10214    10210    10210    10211    10210    10211 
   10214    10215    10212    10207    10208    10211    10211    10212 
   10212    10208    10207    10207    10208    10212    10215    10212 
   10211    10210    10211    10208    10208    10215    10215    10211 
   10208    10206    10208    10212    10212    10211    10211    10208 
   10207    10211    10211    10210    10210    10207    10208    10211 
   10211    10208    10207    10214    10218    10212    10208    10211 
   10211    10208    10212    10212    10206    10204    10207    10210 
   10212    10212    10211    10211    10211    10212    10214    10211 
   10208    10210    10210    10211    10211    10210    10208    10211 
   10214    10208    10207    10212    10215    10211    10206    10208 
   10212    10212    10212    10212    10208    10208    10212    10210 
   10208    10211    10210    10204    10204    10206    10210    10212 
   10214    10212    10207    10206    10212    10216    10214    10212 
   10212    10211    10210    10211    10211    10211    10211    10208 
   10208    10212    10212    10210    10212    10211    10207    10211 
   10212    10211    10211    10208    10211    10216    10214    10206 
   10208    10212    10212    10211    10208    10210    10214    10214 
   10208    10204    10207    10210    10212    10210    10207    10211 
   10215    10212    10212    10211    10206    10208    10214    10212 
   10212    10211    10207    10207    10211    10215    10212    10210 
   10211    10212    10210    10207    10206    10210    10215    10214 
   10211    10211    10208    10208    10211    10215    10212    10206 
   10204    10207    10207    10208    10212    10212    10204    10204 
   10214    10214    10208    10210    10210    10204    10204    10214 
   10219    10212    10208    10207    10208    10214    10216    10212 
   10207    10204    10208    10211    10211    10207    10204    10212 
   10219    10215    10210    10206    10206    10211    10214    10211 
   10210    10204    10201    10206    10210    10212    10216    10214 
   10207    10204    10207    10212    10216    10214    10206    10206 
   10208    10208    10212    10214    10212    10207    10201    10203 
   10211    10215    10212    10207    10206    10206    10208    10212 
   10211    10210    10212    10210    10203    10204    10212    10215 
   10210    10204    10207    10211    10210    10208    10212    10214 
   10208    10206    10207    10211    10215    10214    10208    10208 
   10207    10208    10212    10212    10208    10208    10211    10212 
   10212    10211    10210    10211    10210    10208    10208    10208 
   10210    10211    10211    10212    10210    10206    10210    10214 
   10215    10212    10208    10206    10208    10212    10214    10212 
   10210    10207    10208    10208    10210    10211    10211    10211 
   10212    10210    10204    10206    10214    10214    10208    10211 
   10211    10204    10203    10210    10215    10212    10210    10212 
   10208    10203    10206    10212    10212    10207    10206    10208 
   10207    10210    10216    10219    10210    10203    10207    10210 
   10211    10212    10212    10208    10203    10204    10208    10212 
   10216    10212    10203    10204    10210    10211    10212    10211 
   10208    10207    10208    10212    10212    10208    10208    10212 
   10210    10206    10208    10210    10208    10208    10210    10215 
   10216    10210    10208    10211    10208    10212    10219    10212 
   10204    10208    10212    10215    10218    10214    10212    10211 
   10207    10208    10215    10216    10215    10208    10208    10211 
   10211    10212    10212    10207    10207    10212    10215    10214 
   10212    10208    10208    10215    10220    10214    10204    10206 
   10211    10212    10214    10212    10208    10207    10208    10215 
   10218    10211    10203    10204    10210    10210    10212    10214 
   10212    10208    10204    10207    10212    10214    10211    10207 
   10206    10206    10208    10210    10212    10211    10208    10207 
   10204    10206    10211    10214    10212    10208    10208    10211 
   10211    10212    10211    10207    10208    10210    10208    10210 
   10212    10210    10206    10206    10210    10211    10210    10210 
   10208    10208    10210    10211    10212    10211    10207    10206 
   10208    10208    10210    10210    10211    10208    10207    10210 
   10212    10214    10211    10203    10203    10211    10211    10208 
   10211    10212    10208    10207    10211    10214    10211    10207 
   10208    10212    10214    10211    10208    10211    10208    10206 
   10211    10215    10212    10208    10208    10207    10211    10216 
   10215    10208    10203    10206    10215    10219    10212    10208 
   10207    10208    10212    10211    10214    10219    10211    10201 
   10204    10210    10212    10212    10212    10211    10206    10208 
   10214    10214    10212    10212    10211    10207    10208    10211 
   10208    10207    10210    10208    10206    10208    10208    10208 
   10211    10210    10208    10210    10210    10207    10204    10204 
   10210    10216    10216    10207    10203    10206    10212    10215 
   10212    10203    10185    10170    10230    10574    11642    13582 
   15176    13861     8392     1825     -753     1431     4237     5688 
    9787    18987    26457    25713    20460    14350     6609     -271 
   -2461     1614    10264    16459    14426    10033    11279    11523 
    5331     1842     4210     6805     9567    13618    17801    21365 
   20515    13969     9228     9718     9748     7423     5383     4118 
    3947     5026     6663     9494    13568    16320    14821    11049 
   10010    10110     7558     5988     8719    11861    12206    12123 
   13490    14158    12783    11345    10709     8903     5710     3352 
    2602     3370     5796     8581    11036    14713    19051    20742 
   18941    15315    11341     8544     7493     6978     6411     6544 
    7701     9463    10574     9612     7670     7600     9672    11294 
   11653    12876    15107    15568    13680    11452     9201     5744 
    2181     1952     6016    11487    15747    17759    17332    15160 
   11286     5856     1637     1872     6149    11210    14689    15924 
   15510    14800    13900    11875     8533     4263      504     -477 
    2033     6845    11642    14528    15735    16611    17721    17636 
   15259    12206     9994     8685     7811     7263     8181     9637 
    8984     7399     7272     7770     8272     9670    11168    11583 
   11593    11345    10570    10316    10835    11098    10905    10890 
   10891    10461    10058     9675     8606     7134     6185     5738 
    5823     8043    12823    17497    19175    17149    13425    10744 
    8532     5042     2003     1625     4234    10349    18517    23642 
   22329    16245     8623     1849    -2889    -4792    -1107     8278 
   17190    21288    21663    20267    18137    14103     7096     1263 
    1993     8459    15963    23245    30362    33119    28872    21728 
   15412     8298    -1371   -11462   -19388   -24250   -25223   -21674 
  -13382    -2146     8217    17215    26441    34952    40328    38889 
   28975    15638     6350     3893     4932     4567     1027    -3464 
   -4484     -834     4249     9520    15336    20020    23444    25670 
   23649    17131    10195     6443     8762    17802    29045    36255 
   36166    28404    14747     -892   -14941   -24583   -26963   -22674 
  -14980    -5805     2710     8336    11619    14355    17342    21338 
   26744    31311    32335    29983    25855    21832    18875    14890 
    7906       56    -5130    -6513    -4853    -1686     1332     4333 
    8993    15763    22611    26550    26330    22788    17334    11743 
    8005     6411     5181     3937     3889     4178     3944     4075 
    4024     3240     3234     4542     6166     7796     9081     9016 
    7919     7272     8116    10685    13756    15635    15981    15695 
   16619    19784    23313    24549    23037    19638    14704     9027 
    4384     1555      211      409     2108     4661     7204     8644 
    8569     8054     7952     7731     6988     6039     4905     3628 
    2886     3491     6065    10282    14629    18164    20682    21339 
   19785    17396    15489    13738    11800    10324     9205     7979 
    7099     6747     6596     6554     6681     7353     8986    11232 
   13317    14987    16364    17371    17524    16424    14419    11874 
    9342     8168     8332     8286     7871     7900     8399     9412 
   10939    11954    11934    11743    11773    11719    11601    11087 
    9683     7967     6735     6076     5834     5532     4568     3199 
    2180     1692     1756     2909     5549     9234    12930    15722 
   17112    16757    14712    11630     8360     5923     4970     5266 
    6438     8217    10299    12522    14477    15777    16830    17955 
   18783    19206    19118    17882    15411    12637    10573     9641 
    9672    10003     9819     9015     8374     8592     9510    10303 
   10323     9634     8986     9181    10075    10766    10282     8005 
    4677     2126     1345     2008     3653     5910     8028     9648 
   10917    11529    11457    11506    12012    12418    12425    12353 
   12260    12114    12326    12822    13032    12841    12339    11707 
   11137    10303     9242     8977    10088    12015    13784    14625 
   14490    13880    13008    11916    10854     9794     8503     7068 
    5772     4914     4648     4850     5370     5883     6050     6303 
    7327     9022    10683    11736    12129    12226    12260    12133 
   11924    11921    12013    11944    11816    11631    11215    10783 
   10597    10291     9382     7892     6250     4962     4284     4228 
    4542     4872     5383     6697     8920    11561    14438    17383 
   19639    20667    20487    19121    16723    13863    11198     9325 
    8549     8241     7655     6921     6428     6505     7364     8563 
    9448    10018    10451    10613    10743    11126    11253    10855 
   10638    10980    11362    11487    11601    11838    12089    12221 
   12198    12071    11801    11331    10914    10901    11182    11345 
   11136    10536     9702     8908     8249     7550     6787     6103 
    5692     5883     6565     7115     7252     7284     7635     8513 
    9809    11199    12357    12962    12839    12147    11075     9876 
    8988     8662     8847     9497    10620    11981    13127    13857 
   14164    13855    12780    11250     9896     9132     9073     9605 
   10189    10353    10154     9756     9296     9026     9050     9286 
    9524     9520     9379     9293     9121     8943     9108     9555 
   10021    10447    10674    10388     9659     9059     9115     9840 
   10623    10789    10289     9394     8409     7815     7916     8398 
    8846     9348     9972    10678    11678    12758    13579    14422 
   15280    15799    16171    16394    15762    14231    12640    11489 
   10951    10937    10774    10029     8827     7279     5923     5610 
    6349     7547     8804     9838    10635    11376    11830    11615 
   10773     9630     8478     7531     6841     6277     5877     5876 
    6435     7392     8228     8804     9456     9999    10017     9679 
    9310     9124     9298     9710    10088    10408    10854    11489 
   12063    12220    11834    11223    10913    11034    11323    11569 
   11757    12006    12349    12658    12862    12974    12883    12546 
   12177    11811    11422    11310    11481    11561    11605    11763 
   11726    11403    10955    10125     8884     7735     6916     6512 
    6620     6934     7184     7457     7736     7900     7998     8187 
    8549     8992     9463    10107    10755    11030    10974    10740 
   10338     9941     9713     9525     9204     8758     8240     7763 
    7723     8460     9779    11101    12009    12518    12908    13373 
   13757    13749    13176    12193    11249    10612    10309    10395 
   10682    10868    10944    10990    11084    11340    11596    11608 
   11585    11773    11862    11746    11826    12028    11888    11398 
   10766    10010     9234     8586     8106     7955     8164     8267 
    7952     7595     7666     8364     9682    11191    12132    12037 
   11115     9980     9139     8694     8440     8197     8013     8086 
    8526     9103     9367     9171     8710     8303     8264     8649 
    9256     9882    10293    10412    10473    10496    10305    10050 
    9836     9683     9815    10146    10365    10500    10624    10636 
   10633    10829    11179    11595    12079    12560    13008    13263 
   12987    12198    11395    11028    11115    11434    11884    12297 
   12252    11650    10963    10566    10416    10415    10408    10219 
    9938     9656     9292     8986     8950     9127     9348     9471 
    9420     9073     8348     7615     7479     8128     9223    10327 
   11126    11469    11443    11188    10790    10357     9944     9535 
    9166     9027     9324     9937    10511    10875    11132    11356 
   11533    11604    11426    10987    10457     9929     9575     9639 
   10030    10349    10357    10041     9475     8927     8637     8662 
