Origin Time       2021/08/14 22:38:00
Lat.              37.5
Long.             137.2
Depth. (km)       10
Mag.              4.1
Station Code      ISKH02
Station Lat.      37.3644
Station Long.     137.0413
Station Height(m) 121
Record Time       2021/08/14 22:38:11
Sampling Freq(Hz) 100Hz
Duration Time(s)  120
Dir.              4
Scale Factor      7845(gal)/8223790
Max. Acc. (gal)   2.926
Last Correction   2021/08/14 22:38:11
Memo.             
[...]
  -20194   -20201   -20205   -20205   -20201   -20196   -20200   -20208 
  -20205   -20200   -20200   -20201   -20200   -20201   -20204   -20201 
  -20198   -20197   -20202   -20205   -20204   -20200   -20198   -20198 
  -20201   -20201   -20198   -20200   -20201   -20198   -20198   -20200 
  -20200   -20201   -20201   -20201   -20201   -20198   -20201   -20205 
  -20200   -20193   -20201   -20206   -20196   -20196   -20206   -20200 
  -20193   -20205   -20206   -20198   -20197   -20201   -20204   -20202 
  -20201   -20202   -20204   -20201   -20200   -20198   -20197   -20202 
  -20205   -20197   -20194   -20200   -20204   -20204   -20202   -20198 
  -20197   -20200   -20202   -20200   -20202   -20201   -20197   -20198 
  -20202   -20201   -20198   -20198   -20202   -20202   -20197   -20201 
  -20205   -20200   -20197   -20202   -20202   -20197   -20198   -20208 
  -20202   -20191   -20198   -20208   -20201   -20194   -20201   -20204 
  -20200   -20200   -20205   -20202   -20194   -20197   -20204   -20202 
  -20200   -20197   -20198   -20205   -20205   -20200   -20197   -20201 
  -20204   -20201   -20202   -20201   -20198   -20200   -20204   -20206 
  -20202   -20194   -20197   -20206   -20206   -20200   -20197   -20198 
  -20201   -20201   -20200   -20201   -20198   -20196   -20200   -20205 
  -20205   -20200   -20196   -20197   -20202   -20202   -20198   -20202 
  -20201   -20193   -20197   -20206   -20205   -20200   -20198   -20201 
  -20201   -20200   -20201   -20202   -20201   -20197   -20200   -20204 
  -20201   -20200   -20200   -20196   -20200   -20206   -20204   -20200 
  -20197   -20198   -20201   -20201   -20198   -20197   -20198   -20201 
  -20204   -20205   -20200   -20194   -20198   -20201   -20202   -20204 
  -20204   -20202   -20198   -20200   -20200   -20200   -20201   -20198 
  -20197   -20200   -20204   -20204   -20200   -20196   -20198   -20204 
  -20202   -20200   -20200   -20200   -20200   -20202   -20202   -20201 
  -20200   -20198   -20201   -20202   -20200   -20200   -20198   -20197 
  -20201   -20204   -20204   -20201   -20197   -20194   -20202   -20208 
  -20198   -20193   -20200   -20202   -20202   -20204   -20201   -20196 
  -20196   -20202   -20208   -20200   -20197   -20204   -20204   -20200 
  -20202   -20205   -20200   -20196   -20198   -20202   -20205   -20201 
  -20196   -20201   -20205   -20200   -20201   -20200   -20200   -20201 
  -20197   -20198   -20206   -20202   -20194   -20198   -20205   -20201 
  -20196   -20200   -20201   -20198   -20197   -20200   -20201   -20200 
  -20201   -20202   -20201   -20198   -20197   -20204   -20205   -20198 
  -20198   -20201   -20201   -20202   -20202   -20201   -20202   -20198 
  -20200   -20208   -20205   -20194   -20196   -20204   -20205   -20198 
  -20197   -20202   -20204   -20197   -20197   -20204   -20205   -20198 
  -20197   -20202   -20204   -20201   -20202   -20204   -20201   -20200 
  -20201   -20202   -20198   -20196   -20201   -20204   -20204   -20204 
  -20201   -20197   -20198   -20202   -20204   -20200   -20200   -20200 
  -20196   -20197   -20204   -20202   -20198   -20201   -20202   -20200 
  -20200   -20204   -20205   -20198   -20197   -20205   -20205   -20200 
  -20200   -20200   -20201   -20201   -20201   -20202   -20201   -20201 
  -20202   -20201   -20201   -20202   -20200   -20197   -20204   -20204 
  -20193   -20198   -20209   -20204   -20198   -20200   -20204   -20202 
  -20198   -20200   -20206   -20202   -20196   -20201   -20208   -20201 
  -20196   -20198   -20200   -20204   -20202   -20198   -20200   -20202 
  -20201   -20202   -20204   -20201   -20197   -20200   -20204   -20204 
  -20202   -20202   -20201   -20201   -20202   -20202   -20201   -20200 
  -20200   -20204   -20204   -20200   -20198   -20198   -20198   -20202 
  -20205   -20202   -20197   -20197   -20201   -20202   -20202   -20204 
  -20197   -20193   -20200   -20204   -20197   -20196   -20202   -20201 
  -20198   -20200   -20202   -20201   -20200   -20201   -20202   -20205 
  -20200   -20198   -20200   -20200   -20201   -20200   -20197   -20200 
  -20202   -20204   -20201   -20197   -20200   -20204   -20201   -20200 
  -20200   -20198   -20201   -20201   -20200   -20201   -20200   -20198 
  -20201   -20204   -20204   -20198   -20196   -20200   -20206   -20205 
  -20198   -20197   -20204   -20204   -20200   -20201   -20201   -20197 
  -20198   -20202   -20204   -20200   -20198   -20200   -20200   -20200 
  -20202   -20198   -20197   -20201   -20204   -20205   -20204   -20198 
  -20200   -20204   -20202   -20204   -20206   -20201   -20197   -20201 
  -20204   -20204   -20200   -20197   -20200   -20202   -20202   -20201 
  -20198   -20201   -20201   -20201   -20204   -20201   -20196   -20200 
  -20204   -20200   -20197   -20202   -20201   -20198   -20201   -20204 
  -20201   -20197   -20198   -20202   -20200   -20196   -20198   -20202 
  -20202   -20194   -20194   -20202   -20205   -20200   -20197   -20200 
  -20204   -20202   -20201   -20201   -20200   -20197   -20198   -20202 
  -20202   -20200   -20196   -20196   -20201   -20209   -20205   -20194 
  -20196   -20202   -20202   -20202   -20201   -20197   -20198   -20202 
  -20204   -20201   -20197   -20200   -20202   -20202   -20200   -20198 
  -20198   -20198   -20202   -20204   -20200   -20200   -20201   -20200 
  -20200   -20198   -20200   -20202   -20201   -20198   -20201   -20204 
  -20200   -20197   -20201   -20201   -20197   -20200   -20205   -20201 
  -20196   -20198   -20202   -20201   -20197   -20200   -20201   -20200 
  -20198   -20200   -20204   -20201   -20194   -20200   -20204   -20201 
  -20200   -20197   -20198   -20204   -20201   -20200   -20202   -20197 
  -20197   -20202   -20202   -20200   -20198   -20198   -20196   -20200 
  -20206   -20204   -20198   -20198   -20200   -20201   -20205   -20205 
  -20197   -20197   -20202   -20202   -20201   -20198   -20197   -20201 
  -20204   -20204   -20204   -20198   -20196   -20200   -20204   -20202 
  -20198   -20194   -20197   -20206   -20205   -20196   -20194   -20201 
  -20200   -20198   -20204   -20200   -20194   -20197   -20202   -20202 
  -20200   -20198   -20197   -20198   -20202   -20202   -20200   -20198 
  -20198   -20201   -20201   -20201   -20202   -20200   -20196   -20198 
  -20204   -20201   -20198   -20200   -20198   -20200   -20201   -20200 
  -20202   -20202   -20194   -20194   -20198   -20204   -20206   -20201 
  -20198   -20202   -20205   -20201   -20198   -20201   -20200   -20197 
  -20202   -20205   -20200   -20194   -20196   -20202   -20206   -20201 
  -20196   -20194   -20200   -20204   -20201   -20200   -20198   -20197 
  -20197   -20200   -20206   -20205   -20191   -20187   -20200   -20206 
  -20200   -20194   -20198   -20198   -20197   -20201   -20204   -20202 
  -20197   -20193   -20198   -20206   -20204   -20197   -20194   -20200 
  -20202   -20198   -20197   -20198   -20202   -20200   -20196   -20201 
  -20205   -20200   -20196   -20201   -20204   -20198   -20196   -20201 
  -20200   -20198   -20198   -20201   -20201   -20198   -20198   -20198 
  -20200   -20205   -20202   -20196   -20198   -20204   -20201   -20197 
  -20202   -20206   -20198   -20196   -20201   -20204   -20201   -20196 
  -20198   -20202   -20201   -20200   -20201   -20201   -20197   -20198 
  -20206   -20202   -20193   -20198   -20205   -20201   -20196   -20200 
  -20202   -20196   -20197   -20202   -20201   -20198   -20198   -20198 
  -20198   -20198   -20201   -20197   -20196   -20200   -20204   -20200 
  -20196   -20198   -20200   -20198   -20201   -20202   -20200   -20194 
  -20193   -20204   -20208   -20198   -20194   -20196   -20198   -20201 
  -20204   -20202   -20194   -20193   -20201   -20204   -20201   -20198 
  -20196   -20194   -20198   -20204   -20201   -20196   -20196   -20198 
  -20204   -20204   -20198   -20194   -20197   -20201   -20202   -20202 
  -20201   -20198   -20197   -20201   -20206   -20200   -20193   -20196 
  -20201   -20204   -20202   -20198   -20196   -20197   -20202   -20208 
  -20204   -20193   -20191   -20202   -20209   -20202   -20194   -20198 
  -20201   -20198   -20198   -20204   -20204   -20191   -20191   -20209 
  -20213   -20198   -20193   -20201   -20202   -20198   -20205   -20208 
  -20196   -20191   -20201   -20208   -20202   -20197   -20198   -20197 
  -20194   -20202   -20208   -20198   -20193   -20200   -20201   -20200 
  -20201   -20197   -20193   -20200   -20204   -20201   -20200   -20196 
  -20196   -20200   -20205   -20205   -20197   -20190   -20196   -20204 
  -20204   -20196   -20197   -20200   -20194   -20196   -20205   -20205 
  -20197   -20194   -20200   -20202   -20204   -20204   -20198   -20196 
  -20201   -20205   -20201   -20197   -20197   -20198   -20198   -20200 
  -20202   -20202   -20200   -20200   -20201   -20198   -20198   -20200 
  -20196   -20197   -20204   -20202   -20194   -20196   -20205   -20204 
  -20197   -20197   -20201   -20198   -20196   -20198   -20205   -20205 
  -20197   -20196   -20196   -20200   -20205   -20198   -20194   -20201 
  -20201   -20197   -20198   -20200   -20201   -20197   -20197   -20206 
  -20206   -20196   -20191   -20201   -20205   -20202   -20200   -20196 
  -20196   -20201   -20205   -20206   -20201   -20196   -20198   -20200 
  -20202   -20209   -20200   -20191   -20197   -20204   -20202   -20198 
  -20201   -20198   -20196   -20204   -20208   -20200   -20194   -20198 
  -20205   -20206   -20200   -20196   -20200   -20201   -20197   -20201 
  -20208   -20201   -20194   -20200   -20204   -20201   -20200   -20201 
  -20200   -20200   -20200   -20202   -20204   -20200   -20198   -20200 
  -20202   -20205   -20201   -20198   -20201   -20202   -20198   -20198 
  -20201   -20204   -20198   -20196   -20204   -20206   -20197   -20194 
  -20205   -20208   -20200   -20197   -20198   -20198   -20200   -20201 
  -20201   -20201   -20201   -20197   -20194   -20205   -20205   -20194 
  -20193   -20200   -20202   -20200   -20196   -20200   -20202   -20200 
  -20197   -20196   -20198   -20202   -20202   -20200   -20196   -20197 
  -20200   -20201   -20201   -20196   -20194   -20200   -20201   -20200 
  -20201   -20201   -20197   -20193   -20202   -20209   -20200   -20197 
  -20201   -20201   -20200   -20201   -20201   -20200   -20198   -20198 
  -20200   -20198   -20200   -20201   -20200   -20201   -20202   -20197 
  -20189   -20187   -20175   -20133   -20097   -20106   -20131   -20173 
  -20263   -20278   -20166   -20128   -20202   -20266   -20302   -20227 
  -20183   -20364   -20402   -20254   -20305   -20420   -20394   -20202 
  -20002   -20197   -20480   -20181   -19641   -19734   -20291   -20410 
  -20052   -19818   -20021   -20406   -20237   -19770   -20028   -20586 
  -20413   -19942   -20029   -20402   -20565   -20457   -20121   -20142 
  -20584   -20547   -20205   -20177   -20202   -20128   -20048   -20066 
  -20235   -20264   -20034   -19904   -20213   -20602   -20405   -19920 
  -19832   -20023   -20286   -20586   -20578   -20259   -20105   -20171 
  -20152   -20110   -20268   -20351   -20073   -19799   -19761   -19805 
  -19924   -20124   -20430   -20646   -20304   -19699   -19819   -20646 
  -20968   -20359   -19857   -20258   -20833   -20544   -19978   -20110 
  -20329   -20204   -20270   -20403   -20299   -20035   -19780   -19831 
  -20127   -20348   -20351   -20152   -19965   -19986   -20105   -20154 
  -20255   -20150   -19845   -20213   -20773   -20434   -19878   -19993 
  -20524   -20687   -20212   -19746   -19824   -20227   -20385   -20337 
  -20491   -20445   -20067   -20052   -20335   -20382   -20285   -20055 
  -19757   -19911   -20290   -20177   -19969   -20426   -20899   -20542 
  -19923   -19738   -20150   -20777   -20607   -19759   -19627   -20306 
  -20542   -20074   -19876   -20235   -20397   -20024   -19720   -20133 
  -20788   -20642   -19921   -19710   -20143   -20407   -20136   -19857 
  -20034   -20364   -20343   -20167   -20310   -20709   -20829   -20271 
  -19750   -20007   -20258   -20017   -20081   -20480   -20418   -20083 
  -20094   -20240   -20216   -20020   -19838   -20151   -20646   -20359 
  -19692   -19880   -20698   -20810   -20179   -19916   -20063   -20358 
  -20706   -20221   -19434   -19846   -20444   -20085   -20069   -20642 
  -20341   -19641   -19792   -20198   -20337   -20478   -20383   -20124 
  -20097   -20113   -20251   -20538   -20098   -19399   -20312   -21743 
  -21003   -19372   -19552   -20711   -20754   -19845   -19554   -20031 
  -20217   -20042   -19969   -20298   -20788   -20278   -19259   -19623 
  -20590   -20555   -20337   -20540   -20360   -19923   -20073   -20370 
  -20093   -20001   -20448   -20649   -20483   -20038   -19681   -20175 
  -20609   -20048   -19791   -20339   -20376   -19921   -19784   -19993 
  -20700   -21085   -20267   -19570   -20098   -20806   -20544   -19957 
  -19928   -20173   -20328   -20023   -19657   -20158   -20625   -20254 
  -20059   -20205   -20007   -19850   -20075   -20228   -20220   -20210 
  -20137   -20326   -20665   -20285   -19890   -20471   -20852   -20401 
  -19890   -19828   -20278   -20578   -20262   -19851   -20016   -20529 
  -20515   -20143   -20008   -20088   -20158   -19930   -19873   -20310 
  -20552   -20366   -19980   -19757   -20248   -20812   -20233   -19541 
  -20071   -20528   -20295   -20386   -20433   -20155   -20182   -20136 
  -20074   -20568   -20758   -20267   -19955   -20218   -20787   -21030 
  -20706   -20123   -19548   -19318   -19847   -20949   -21267   -19853 
  -18003   -17859   -19538   -20922   -20723   -19867   -18975   -18264 
  -19094   -21203   -21980   -20761   -19197   -18966   -20973   -23267 
  -22887   -20682   -19209   -19291   -20680   -22003   -21906   -20966 
  -19595   -17996   -18431   -21177   -22577   -21342   -19924   -19263 
  -18752   -19093   -20295   -20740   -19846   -18952   -19184   -19418 
  -18985   -19263   -20541   -21871   -22065   -20661   -19504   -19965 
  -20902   -21041   -19934   -18237   -18027   -19892   -21508   -21116 
  -19581   -18674   -19354   -20821   -21118   -20623   -21448   -22333 
  -21142   -19673   -19809   -20391   -20075   -19310   -19460   -20552 
  -21073   -20745   -20575   -20938   -21381   -20898   -19531   -19048 
  -20047   -20783   -20139   -19387   -19629   -20115   -19799   -18991 
  -19348   -20709   -20952   -20322   -20152   -20283   -20622   -20723 
  -19973   -19423   -19845   -19966   -19248   -19051   -19654   -19969 
  -20123   -20669   -21227   -21512   -21212   -20466   -20279   -20480 
  -20341   -19820   -19278   -19607   -20475   -20609   -20239   -20001 
  -19818   -19786   -20020   -20320   -20528   -20630   -20902   -21253 
  -20969   -20259   -19963   -20144   -20301   -20147   -20271   -21019 
  -21325   -20443   -19431   -19423   -19656   -19269   -18987   -19521 
  -20202   -19800   -18827   -19206   -20914   -21756   -20642   -19446 
  -20243   -21787   -21649   -20116   -19381   -19931   -20255   -19873 
  -19908   -20796   -21438   -20856   -19834   -19862   -20412   -20059 
  -19413   -19398   -19650   -19776   -19683   -19668   -20154   -20760 
  -20804   -20282   -19911   -20163   -20374   -19996   -19759   -20097 
  -20279   -19932   -19818   -20366   -20707   -20266   -19997   -20596 
  -21141   -20962   -20529   -20322   -20660   -20962   -20263   -19356 
  -19338   -19797   -20379   -21091   -21155   -20290   -19546   -19835 
  -20761   -20852   -19921   -19467   -19745   -19973   -20069   -20171 
  -20164   -19824   -19599   -20160   -20510   -19874   -19751   -20517 
  -20480   -19471   -19182   -20241   -21070   -20524   -19818   -20093 
  -20545   -20290   -19957   -20399   -21168   -21278   -20565   -19759 
  -19684   -20224   -20401   -20093   -20198   -20633   -20444   -19909 
  -20025   -20297   -20128   -20158   -19955   -19133   -19213   -20214 
  -20443   -20105   -20352   -20946   -21000   -20409   -19872   -19975 
  -20487   -20497   -19990   -20002   -20565   -20763   -20197   -19583 
  -19861   -20370   -20085   -19812   -20484   -21150   -20636   -19734 
  -19843   -20636   -20875   -20534   -20262   -19989   -19633   -19318 
  -19160   -19438   -20035   -20466   -20389   -20070   -20182   -20466 
  -20464   -20549   -20524   -20147   -20127   -20348   -20225   -20117 
  -20186   -20353   -20660   -20598   -20170   -20051   -20229   -20448 
  -20587   -20278   -19809   -20081   -20691   -20632   -20110   -19714 
  -19697   -19950   -20027   -19901   -19850   -19851   -19800   -20139 
  -21004   -21186   -20297   -19629   -19731   -20093   -20314   -20339 
  -20317   -20036   -19399   -19186   -19782   -20522   -20791   -20560 
  -20178   -20023   -20196   -20390   -20312   -20289   -20571   -20733 
  -20610   -20494   -20491   -20447   -20240   -20050   -20160   -20362 
  -20016   -19423   -19542   -20132   -20332   -20058   -19859   -20090 
  -20526   -20937   -21116   -20853   -20320   -19851   -19845   -20295 
  -20509   -20306   -20217   -20268   -20217   -20096   -19656   -19086 
  -19299   -20100   -20407   -20271   -20337   -20420   -20131   -19826 
  -20169   -20853   -20772   -20137   -20071   -20414   -20497   -20305 
  -20158   -20187   -20009   -19726   -20021   -20560   -20542   -20042 
  -19569   -19541   -20050   -20588   -20533   -20025   -19716   -19803 
  -20177   -20714   -20906   -20522   -20181   -20282   -20445   -20341 
  -20262   -20304   -19994   -19645   -20083   -20768   -20756   -20514 
  -20479   -20156   -19777   -19920   -20274   -20401   -20129   -19762 
  -19909   -20255   -20182   -19993   -20047   -20125   -20189   -20410 
  -20545   -20316   -20015   -20135   -20547   -20551   -20051   -19862 
  -20252   -20422   -20109   -19800   -19634   -19845   -20428   -20591 
  -20170   -19624   -19276   -19699   -20630   -20799   -20191   -19920 
  -20358   -20885   -20887   -20584   -20394   -20316   -20279   -20298 
  -20506   -20598   -20177   -19796   -19931   -20239   -20255   -19859 
  -19566   -19705   -19912   -20039   -20170   -20274   -20441   -20506 
  -20163   -19882   -20201   -20650   -20853   -20830   -20407   -20035 
  -20241   -20497   -20258   -19992   -20155   -20274   -20113   -19975 
  -19915   -20089   -20335   -20092   -19585   -19391   -19534   -19811 
  -20150   -20544   -20721   -20426   -20027   -19998   -20340   -20650 
  -20493   -19951   -19570   -19723   -20129   -20297   -20478   -20845 
  -20856   -20537   -20383   -20443   -20564   -20588   -20328   -19916 
  -19808   -20002   -20073   -20197   -20574   -20522   -19996   -19935 
  -20245   -20178   -19877   -19785   -19965   -20059   -19759   -19656 
  -20142   -20451   -20398   -20517   -20667   -20572   -20236   -19935 
  -20146   -20466   -20283   -19966   -19988   -20282   -20407   -20151 
  -20074   -20453   -20615   -20281   -20028   -20074   -20062   -19831 
  -19518   -19434   -19866   -20622   -21022   -20772   -20318   -20036 
  -20013   -20247   -20376   -20108   -19797   -19917   -20310   -20545 
  -20538   -20393   -20322   -20472   -20503   -20212   -20007   -20078 
  -20073   -19899   -19758   -19741   -20019   -20444   -20506   -20191 
  -20082   -20534   -20929   -20758   -20440   -20089   -19813   -19935 
  -19877   -19565   -19827   -20331   -20471   -20547   -20559   -20380 
  -20223   -20036   -19826   -19824   -20025   -20181   -20171   -20190 
  -20332   -20359   -20240   -20216   -20324   -20522   -20598   -20277 
  -19959   -20023   -20109   -19998   -19923   -20217   -20648   -20528 
