Origin Time       2021/08/14 22:38:00
Lat.              37.5
Long.             137.2
Depth. (km)       10
Mag.              4.1
Station Code      ISKH01
Station Lat.      37.5266
Station Long.     137.2844
Station Height(m) -152.5
Record Time       2021/08/14 22:38:09
Sampling Freq(Hz) 100Hz
Duration Time(s)  120
Dir.              3
Scale Factor      2942(gal)/8224139
Max. Acc. (gal)   17.390
Last Correction   2021/08/14 22:38:09
Memo.             
[...]
 -125169  -125167  -125165  -125166  -125169  -125169  -125169  -125170 
 -125169  -125167  -125169  -125170  -125169  -125167  -125169  -125167 
 -125170  -125176  -125177  -125173  -125172  -125173  -125172  -125170 
 -125172  -125173  -125174  -125173  -125173  -125177  -125177  -125176 
 -125178  -125177  -125172  -125163  -125159  -125161  -125163  -125165 
 -125169  -125169  -125167  -125169  -125174  -125174  -125174  -125178 
 -125181  -125181  -125178  -125174  -125172  -125173  -125170  -125170 
 -125174  -125174  -125170  -125169  -125170  -125173  -125174  -125173 
 -125169  -125165  -125163  -125166  -125167  -125167  -125167  -125169 
 -125169  -125166  -125166  -125172  -125172  -125170  -125174  -125177 
 -125174  -125170  -125167  -125167  -125169  -125169  -125166  -125163 
 -125163  -125167  -125170  -125166  -125166  -125167  -125165  -125166 
 -125169  -125162  -125158  -125161  -125162  -125165  -125170  -125172 
 -125169  -125163  -125163  -125165  -125167  -125174  -125182  -125180 
 -125178  -125178  -125177  -125177  -125176  -125170  -125167  -125169 
 -125167  -125163  -125163  -125165  -125165  -125163  -125162  -125163 
 -125166  -125163  -125163  -125165  -125165  -125167  -125172  -125169 
 -125165  -125165  -125166  -125167  -125169  -125167  -125165  -125165 
 -125167  -125170  -125167  -125167  -125170  -125173  -125174  -125172 
 -125169  -125169  -125169  -125170  -125174  -125173  -125169  -125166 
 -125162  -125163  -125166  -125165  -125162  -125162  -125161  -125159 
 -125162  -125162  -125158  -125158  -125161  -125159  -125159  -125159 
 -125157  -125155  -125161  -125166  -125167  -125167  -125167  -125165 
 -125163  -125163  -125163  -125162  -125162  -125162  -125162  -125165 
 -125167  -125167  -125163  -125161  -125162  -125162  -125162  -125163 
 -125162  -125159  -125162  -125165  -125161  -125159  -125162  -125163 
 -125165  -125166  -125166  -125166  -125167  -125166  -125165  -125166 
 -125169  -125172  -125174  -125177  -125176  -125174  -125173  -125172 
 -125172  -125170  -125166  -125166  -125169  -125167  -125165  -125162 
 -125165  -125166  -125165  -125165  -125166  -125165  -125166  -125165 
 -125162  -125165  -125167  -125167  -125167  -125170  -125173  -125174 
 -125176  -125176  -125177  -125177  -125172  -125169  -125172  -125173 
 -125173  -125172  -125172  -125172  -125170  -125169  -125170  -125173 
 -125173  -125173  -125176  -125177  -125177  -125178  -125178  -125176 
 -125174  -125176  -125177  -125173  -125170  -125170  -125173  -125173 
 -125172  -125173  -125170  -125166  -125166  -125170  -125173  -125176 
 -125172  -125169  -125170  -125167  -125170  -125173  -125169  -125165 
 -125169  -125170  -125170  -125172  -125176  -125177  -125176  -125173 
 -125174  -125176  -125173  -125170  -125170  -125173  -125176  -125173 
 -125176  -125180  -125178  -125177  -125177  -125177  -125177  -125174 
 -125174  -125174  -125173  -125177  -125180  -125180  -125178  -125181 
 -125182  -125181  -125181  -125180  -125176  -125177  -125177  -125176 
 -125178  -125180  -125181  -125181  -125178  -125177  -125178  -125178 
 -125180  -125180  -125177  -125178  -125180  -125182  -125182  -125178 
 -125176  -125177  -125177  -125178  -125177  -125172  -125174  -125184 
 -125186  -125181  -125178  -125180  -125181  -125177  -125169  -125167 
 -125169  -125167  -125169  -125172  -125172  -125172  -125172  -125172 
 -125169  -125165  -125166  -125167  -125163  -125163  -125165  -125163 
 -125163  -125162  -125162  -125161  -125159  -125158  -125159  -125161 
 -125159  -125158  -125165  -125166  -125162  -125163  -125165  -125161 
 -125162  -125167  -125167  -125167  -125172  -125172  -125172  -125170 
 -125166  -125167  -125172  -125172  -125170  -125170  -125173  -125177 
 -125178  -125180  -125178  -125174  -125174  -125174  -125174  -125170 
 -125169  -125170  -125170  -125167  -125163  -125163  -125167  -125169 
 -125166  -125166  -125166  -125167  -125166  -125162  -125161  -125165 
 -125165  -125163  -125162  -125162  -125166  -125169  -125170  -125170 
 -125169  -125169  -125172  -125172  -125172  -125174  -125174  -125167 
 -125163  -125167  -125170  -125170  -125167  -125165  -125162  -125162 
 -125161  -125162  -125162  -125161  -125162  -125165  -125169  -125170 
 -125167  -125166  -125167  -125166  -125165  -125165  -125166  -125169 
 -125169  -125166  -125169  -125170  -125169  -125169  -125170  -125169 
 -125170  -125170  -125169  -125167  -125169  -125167  -125167  -125166 
 -125169  -125174  -125177  -125173  -125169  -125170  -125173  -125172 
 -125172  -125177  -125181  -125177  -125176  -125177  -125176  -125176 
 -125177  -125174  -125174  -125176  -125174  -125177  -125178  -125176 
 -125174  -125176  -125176  -125173  -125169  -125173  -125180  -125176 
 -125170  -125177  -125184  -125181  -125178  -125177  -125174  -125176 
 -125178  -125176  -125176  -125177  -125177  -125176  -125174  -125174 
 -125174  -125176  -125174  -125169  -125169  -125172  -125169  -125169 
 -125172  -125170  -125172  -125176  -125172  -125165  -125165  -125169 
 -125173  -125167  -125162  -125166  -125172  -125166  -125162  -125167 
 -125174  -125170  -125169  -125172  -125172  -125169  -125166  -125163 
 -125167  -125172  -125172  -125170  -125169  -125166  -125165  -125165 
 -125165  -125165  -125167  -125167  -125165  -125166  -125170  -125167 
 -125162  -125161  -125163  -125166  -125169  -125174  -125174  -125170 
 -125169  -125167  -125165  -125165  -125167  -125167  -125165  -125163 
 -125163  -125165  -125163  -125161  -125159  -125161  -125159  -125161 
 -125165  -125165  -125162  -125163  -125163  -125162  -125165  -125163 
 -125163  -125167  -125170  -125170  -125172  -125170  -125166  -125166 
 -125169  -125172  -125172  -125166  -125166  -125170  -125173  -125169 
 -125169  -125172  -125167  -125165  -125169  -125172  -125172  -125169 
 -125169  -125169  -125170  -125174  -125180  -125178  -125173  -125173 
 -125176  -125174  -125170  -125167  -125169  -125170  -125170  -125174 
 -125178  -125180  -125180  -125177  -125173  -125174  -125176  -125173 
 -125172  -125173  -125174  -125177  -125176  -125172  -125173  -125178 
 -125180  -125176  -125174  -125176  -125173  -125169  -125166  -125167 
 -125167  -125166  -125170  -125174  -125174  -125176  -125180  -125180 
 -125178  -125178  -125178  -125174  -125172  -125172  -125172  -125170 
 -125170  -125170  -125170  -125173  -125173  -125172  -125174  -125176 
 -125169  -125165  -125167  -125170  -125170  -125170  -125172  -125174 
 -125176  -125174  -125169  -125169  -125173  -125173  -125172  -125172 
 -125169  -125169  -125172  -125172  -125169  -125169  -125169  -125170 
 -125170  -125170  -125170  -125172  -125174  -125173  -125169  -125169 
 -125170  -125169  -125170  -125173  -125172  -125170  -125170  -125170 
 -125173  -125176  -125176  -125169  -125172  -125180  -125181  -125180 
 -125180  -125178  -125177  -125176  -125170  -125169  -125170  -125174 
 -125178  -125177  -125176  -125177  -125176  -125173  -125172  -125172 
 -125167  -125166  -125173  -125177  -125173  -125170  -125174  -125176 
 -125174  -125173  -125176  -125173  -125169  -125172  -125173  -125170 
 -125169  -125170  -125170  -125170  -125170  -125167  -125169  -125172 
 -125172  -125172  -125177  -125180  -125176  -125173  -125178  -125180 
 -125181  -125181  -125178  -125177  -125176  -125176  -125174  -125176 
 -125177  -125176  -125174  -125173  -125172  -125169  -125169  -125170 
 -125172  -125170  -125170  -125174  -125173  -125170  -125170  -125173 
 -125176  -125176  -125173  -125170  -125170  -125174  -125176  -125172 
 -125167  -125167  -125167  -125169  -125166  -125166  -125169  -125167 
 -125165  -125169  -125173  -125169  -125165  -125167  -125167  -125167 
 -125170  -125169  -125169  -125169  -125167  -125172  -125174  -125174 
 -125178  -125182  -125177  -125172  -125176  -125185  -125184  -125174 
 -125170  -125173  -125177  -125174  -125169  -125173  -125178  -125177 
 -125176  -125178  -125178  -125177  -125174  -125177  -125180  -125178 
 -125174  -125177  -125184  -125182  -125178  -125180  -125180  -125177 
 -125177  -125180  -125184  -125185  -125184  -125186  -125185  -125186 
 -125188  -125188  -125186  -125185  -125181  -125177  -125176  -125176 
 -125172  -125172  -125176  -125176  -125177  -125177  -125177  -125180 
 -125178  -125170  -125170  -125177  -125178  -125173  -125174  -125177 
 -125176  -125176  -125178  -125181  -125185  -125186  -125184  -125178 
 -125176  -125172  -125172  -125176  -125176  -125174  -125178  -125178 
 -125177  -125174  -125172  -125173  -125174  -125173  -125172  -125170 
 -125172  -125170  -125167  -125169  -125172  -125172  -125173  -125173 
 -125172  -125170  -125174  -125178  -125178  -125176  -125174  -125176 
 -125176  -125173  -125174  -125178  -125180  -125178  -125176  -125176 
 -125177  -125174  -125173  -125177  -125178  -125178  -125177  -125172 
 -125167  -125169  -125172  -125176  -125178  -125176  -125174  -125176 
 -125176  -125176  -125176  -125176  -125174  -125174  -125180  -125182 
 -125180  -125181  -125178  -125177  -125184  -125184  -125180  -125180 
 -125180  -125176  -125177  -125177  -125174  -125172  -125176  -125181 
 -125177  -125176  -125182  -125180  -125173  -125174  -125177  -125173 
 -125173  -125174  -125172  -125172  -125170  -125167  -125169  -125170 
 -125170  -125170  -125170  -125172  -125174  -125177  -125178  -125180 
 -125180  -125178  -125178  -125181  -125181  -125178  -125177  -125176 
 -125176  -125177  -125177  -125178  -125181  -125178  -125174  -125173 
 -125173  -125172  -125170  -125172  -125176  -125181  -125185  -125185 
 -125182  -125184  -125184  -125181  -125181  -125182  -125178  -125178 
 -125182  -125181  -125178  -125181  -125181  -125180  -125181  -125181 
 -125181  -125181  -125180  -125184  -125184  -125178  -125182  -125182 
 -125178  -125180  -125178  -125174  -125176  -125174  -125172  -125172 
 -125173  -125174  -125178  -125177  -125176  -125178  -125178  -125180 
 -125181  -125180  -125178  -125177  -125178  -125182  -125180  -125176 
 -125174  -125173  -125174  -125177  -125174  -125173  -125174  -125176 
 -125177  -125176  -125176  -125177  -125174  -125172  -125176  -125180 
 -125178  -125178  -125178  -125178  -125177  -125176  -125172  -125173 
 -125177  -125176  -125177  -125181  -125180  -125176  -125173  -125170 
 -125172  -125176  -125178  -125177  -125180  -125181  -125178  -125172 
 -125169  -125172  -125173  -125169  -125169  -125173  -125176  -125174 
 -125176  -125178  -125181  -125182  -125184  -125182  -125180  -125180 
 -125182  -125180  -125176  -125176  -125177  -125178  -125180  -125182 
 -125182  -125182  -125180  -125181  -125185  -125184  -125177  -125174 
 -125177  -125177  -125174  -125177  -125182  -125184  -125181  -125182 
 -125185  -125186  -125186  -125188  -125188  -125188  -125189  -125188 
 -125182  -125180  -125181  -125181  -125180  -125180  -125180  -125184 
 -125188  -125185  -125186  -125196  -125201  -125199  -125196  -125196 
 -125193  -125189  -125190  -125190  -125188  -125185  -125188  -125190 
 -125186  -125184  -125185  -125185  -125186  -125189  -125192  -125193 
 -125189  -125185  -125182  -125180  -125180  -125178  -125181  -125184 
 -125182  -125181  -125181  -125184  -125186  -125182  -125176  -125176 
 -125177  -125174  -125176  -125182  -125185  -125185  -125182  -125178 
 -125178  -125180  -125180  -125181  -125178  -125177  -125177  -125177 
 -125177  -125177  -125178  -125177  -125177  -125176  -125176  -125177 
 -125178  -125180  -125180  -125178  -125178  -125180  -125177  -125176 
 -125177  -125178  -125177  -125177  -125176  -125176  -125173  -125170 
 -125170  -125169  -125167  -125170  -125173  -125173  -125170  -125169 
 -125174  -125177  -125177  -125177  -125177  -125174  -125174  -125177 
 -125177  -125172  -125158  -125085  -124731  -123271  -118955  -111651 
 -108017  -117381  -135533  -144219  -136240  -129763  -142669  -155179 
 -136522  -106181  -102567  -116394  -119989  -120105  -127556  -125637 
 -118173  -124410  -127735  -119176  -117629  -122604  -121128  -118791 
 -128263  -138788  -137093  -139338  -147368  -140278  -126744  -120696 
 -112533  -105525  -111955  -120393  -117652  -118102  -129884  -135170 
 -129913  -126960  -125618  -121653  -122652  -128871  -130027  -126952 
 -126513  -128083  -128167  -124652  -119415  -118523  -122377  -123546 
 -121969  -125907  -131670  -127244  -119545  -124006  -132001  -128821 
 -121724  -120669  -123462  -126554  -127904  -125618  -122818  -123550 
 -125255  -126856  -129629  -129722  -127548  -127492  -125941  -122040 
 -122179  -124654  -125081  -123348  -118542  -115587  -119376  -124802 
 -128102  -128949  -126615  -125690  -129354  -132582  -131143  -127516 
 -127330  -128557  -125111  -122199  -121880  -118044  -116164  -119912 
 -122952  -126015  -129609  -127958  -124460  -127924  -132908  -129899 
 -124031  -121867  -121806  -123437  -125728  -125622  -125298  -125891 
 -125313  -125034  -125151  -125876  -128073  -128061  -125374  -123113 
 -123321  -126877  -129180  -126970  -123261  -121185  -122195  -123075 
 -123145  -125433  -125905  -125450  -128083  -127638  -123828  -123745 
 -125811  -125421  -123039  -121838  -123911  -125194  -124083  -126316 
 -128579  -123535  -118644  -123337  -129394  -128456  -128599  -132764 
 -133793  -129064  -119765  -113044  -116047  -122419  -122546  -119441 
 -123049  -132745  -137924  -133766  -120264  -102531   -95143  -103657 
 -118110  -129178  -139182  -156874  -173788  -170910  -150888  -128717 
 -113080  -107541  -109433  -116020  -123882  -123566  -114693  -109436 
 -113775  -120822  -122000  -118623  -118092  -123022  -128185  -127194 
 -125323  -126485  -121150  -117640  -127107  -130418  -124987  -129207 
 -135823  -132344  -126098  -127330  -133575  -133725  -125794  -119713 
 -120332  -122413  -123483  -125535  -126659  -124214  -119815  -117718 
 -120965  -124764  -122258  -118339  -120722  -126635  -130555  -132255 
 -133115  -132592  -132727  -135076  -133521  -125967  -120059  -118053 
 -116588  -118349  -122449  -121972  -121512  -127249  -132775  -133205 
 -131260  -130542  -129528  -124158  -117706  -113938  -111562  -112229 
 -116506  -119919  -120953  -122877  -125226  -123344  -119468  -119026 
 -119664  -119646  -123854  -132688  -140339  -143910  -142974  -137782 
 -131915  -127768  -124433  -124069  -128429  -132521  -133409  -133913 
 -133739  -131299  -129358  -128810  -126677  -123903  -122218  -118477 
 -112777  -108872  -107875  -109961  -113794  -118434  -124339  -129560 
 -132715  -132935  -129702  -125921  -123280  -120745  -118875  -119666 
 -121963  -123136  -125208  -128622  -129628  -129574  -130481  -129042 
 -125443  -124214  -125649  -125964  -123294  -120320  -120772  -124526 
 -127865  -128023  -127364  -128498  -128644  -127219  -127577  -128557 
 -128418  -129463  -130210  -127165  -123691  -122678  -122034  -122305 
 -123303  -122667  -122007  -122820  -123692  -124424  -125713  -125639 
 -123006  -121558  -123186  -125234  -125983  -126038  -126746  -127121 
 -125965  -125023  -125065  -125888  -126616  -125246  -123218  -123263 
 -124424  -123662  -121232  -121473  -124039  -124125  -122245  -121555 
 -121834  -122874  -125363  -127325  -128194  -130956  -133789  -133208 
 -132052  -131101  -128206  -125805  -124675  -122932  -122362  -123647 
 -124480  -124738  -124837  -123982  -123113  -123507  -123863  -123091 
 -122181  -121925  -123007  -125405  -126600  -125707  -125444  -126701 
 -127471  -126916  -125405  -123381  -122246  -122877  -124405  -125671 
 -125679  -124410  -123431  -123404  -124124  -125871  -127198  -126717 
 -125983  -126319  -127310  -127398  -125761  -124785  -125833  -127650 
 -129351  -128788  -125396  -122769  -122291  -122413  -122359  -122176 
 -122422  -122891  -123556  -125328  -127147  -127346  -126446  -125586 
 -125061  -124521  -123959  -123601  -123438  -123986  -125208  -126284 
 -126600  -126029  -126327  -128590  -130748  -130920  -129127  -127014 
 -126362  -126843  -126929  -125463  -123376  -122557  -122265  -121421 
 -120852  -120730  -120567  -120891  -121724  -121362  -120258  -121950 
 -126229  -128891  -128795  -127782  -128008  -130391  -131924  -130593 
 -129438  -129406  -128013  -125779  -124590  -123518  -121882  -121107 
 -121182  -121054  -121767  -124089  -126021  -126065  -125514  -125085 
 -123973  -123153  -123920  -125108  -125234  -124384  -123573  -123610 
 -124075  -123862  -123314  -123469  -123884  -124510  -125683  -126245 
 -126357  -127252  -128225  -128522  -128498  -128258  -127469  -125976 
 -124791  -124987  -125578  -125450  -125312  -125537  -125631  -125782 
 -125887  -125188  -124305  -124232  -124067  -123429  -123371  -123869 
 -124510  -125336  -126319  -127488  -128321  -128426  -128147  -127311 
 -125998  -125458  -125725  -125473  -124349  -122899  -121938  -121652 
 -121718  -122801  -124262  -124243  -123951  -125010  -126080  -126530 
 -127319  -128136  -127792  -126320  -125118  -124769  -123935  -122524 
 -122482  -123057  -121794  -120414  -121790  -123932  -124661  -125003 
 -124615  -123704  -124216  -125200  -125064  -124421  -124179  -124691 
 -125855  -127205  -127996  -128170  -128451  -128764  -128800  -128583 
 -127622  -126257  -125486  -125209  -125305  -125377  -124521  -123599 
 -123888  -124507  -124440  -124598  -125313  -125269  -125001  -125995 
 -126766  -125922  -125247  -125883  -126615  -126463  -125902  -125489 
 -124926  -124586  -124727  -124768  -125053  -125390  -125134  -125162 
 -125861  -126273  -125874  -125064  -124447  -124255  -124333  -124526 
 -125020  -125510  -125057  -124259  -124366  -124470  -124038  -124290 
 -124714  -123990  -123118  -123315  -124364  -125805  -126261  -124951 
 -124035  -124457  -124414  -124128  -124708  -125085  -124800  -124183 
 -123098  -122671  -123731  -124881  -125181  -125726  -126604  -126341 
 -125585  -125817  -126169  -125749  -125243  -124893  -124596  -124806 
 -125269  -125594  -125793  -125568  -125572  -126079  -125699  -124753 
 -125135  -126535  -127102  -126612  -126054  -125595  -125346  -125757 
 -126277  -126253  -126145  -126210  -126166  -126033  -125825  -125874 
 -126515  -126729  -125768  -124835  -125069  -125779  -126027  -126111 
 -126288  -126165  -125554  -124962  -125181  -125853  -126027  -125606 
 -124703  -123417  -122326  -121806  -121686  -122083  -123207  -124526 
 -125089  -124707  -124231  -124071  -124182  -124468  -124389  -124241 
 -124538  -124752  -124942  -125231  -125173  -125190  -125301  -124919 
 -124715  -125089  -125281  -125329  -125815  -126258  -125712  -124611 
 -124147  -124139  -124139  -124494  -125200  -126090  -126516  -125880 
 -125536  -126165  -126276  -125936  -125971  -125587  -125082  -125362 
 -125686  -125705  -125964  -126269  -126131  -126009  -126586  -127059 
 -126511  -125845  -125821  -125632  -125023  -124943  -125290  -124974 
 -124341  -124298  -124424  -124357  -124399  -124448  -124355  -124151 
 -123970  -124206  -124598  -124303  -123682  -123847  -124372  -124448 
 -124799  -125373  -125139  -124970  -125641  -125883  -125743  -126270 
 -126609  -126204  -125814  -125631  -125577  -125624  -125676  -125604 
 -125307  -125186  -125582  -126202  -126380  -125898  -125400  -125193 
 -125120  -125217  -125273  -125235  -125145  -124634  -123965  -123784 
