Origin Time       2021/08/14 22:38:00
Lat.              37.5
Long.             137.2
Depth. (km)       10
Mag.              4.1
Station Code      ISKH03
Station Lat.      37.3458
Station Long.     137.2436
Station Height(m) -188
Record Time       2021/08/14 22:38:11
Sampling Freq(Hz) 100Hz
Duration Time(s)  120
Dir.              1
Scale Factor      2940(gal)/6170270
Max. Acc. (gal)   1.870
Last Correction   2021/08/14 22:37:56
Memo.             
[...]
 -111949  -111947  -111946  -111945  -111946  -111949  -111949  -111946 
 -111947  -111949  -111949  -111946  -111946  -111947  -111947  -111948 
 -111949  -111947  -111947  -111949  -111948  -111946  -111948  -111949 
 -111948  -111947  -111947  -111947  -111947  -111948  -111949  -111948 
 -111946  -111947  -111948  -111946  -111946  -111948  -111947  -111946 
 -111949  -111948  -111946  -111947  -111947  -111946  -111946  -111946 
 -111946  -111947  -111946  -111947  -111949  -111949  -111948  -111947 
 -111946  -111947  -111947  -111945  -111946  -111947  -111946  -111946 
 -111946  -111945  -111946  -111945  -111946  -111948  -111947  -111944 
 -111945  -111947  -111946  -111946  -111947  -111946  -111945  -111946 
 -111947  -111945  -111945  -111948  -111945  -111943  -111946  -111947 
 -111947  -111947  -111946  -111946  -111947  -111946  -111946  -111946 
 -111946  -111946  -111946  -111947  -111947  -111946  -111946  -111947 
 -111947  -111946  -111946  -111947  -111948  -111947  -111946  -111947 
 -111948  -111947  -111945  -111947  -111946  -111945  -111948  -111951 
 -111947  -111946  -111948  -111948  -111947  -111948  -111948  -111947 
 -111946  -111947  -111947  -111946  -111948  -111946  -111946  -111946 
 -111945  -111945  -111945  -111946  -111947  -111947  -111948  -111948 
 -111946  -111947  -111949  -111947  -111946  -111948  -111948  -111945 
 -111946  -111948  -111946  -111946  -111948  -111946  -111946  -111946 
 -111946  -111948  -111947  -111947  -111948  -111946  -111944  -111946 
 -111947  -111945  -111945  -111947  -111947  -111945  -111947  -111948 
 -111946  -111947  -111947  -111946  -111945  -111947  -111947  -111946 
 -111946  -111947  -111947  -111946  -111945  -111947  -111947  -111947 
 -111948  -111947  -111945  -111947  -111948  -111947  -111946  -111946 
 -111945  -111947  -111947  -111944  -111945  -111945  -111945  -111946 
 -111948  -111947  -111947  -111947  -111945  -111945  -111947  -111946 
 -111947  -111946  -111945  -111947  -111946  -111945  -111944  -111946 
 -111948  -111948  -111947  -111948  -111947  -111946  -111945  -111945 
 -111947  -111947  -111944  -111945  -111948  -111946  -111946  -111945 
 -111943  -111946  -111948  -111946  -111946  -111947  -111945  -111945 
 -111947  -111946  -111945  -111946  -111948  -111946  -111944  -111946 
 -111947  -111946  -111946  -111946  -111946  -111947  -111945  -111944 
 -111945  -111943  -111944  -111946  -111944  -111942  -111945  -111947 
 -111946  -111945  -111946  -111946  -111944  -111946  -111946  -111945 
 -111945  -111946  -111945  -111944  -111945  -111946  -111945  -111946 
 -111946  -111946  -111945  -111944  -111945  -111946  -111945  -111946 
 -111946  -111945  -111944  -111946  -111947  -111947  -111946  -111945 
 -111946  -111946  -111947  -111947  -111945  -111944  -111945  -111946 
 -111946  -111945  -111945  -111946  -111946  -111946  -111947  -111947 
 -111947  -111946  -111945  -111945  -111946  -111945  -111946  -111946 
 -111946  -111948  -111948  -111946  -111946  -111947  -111946  -111946 
 -111948  -111950  -111948  -111944  -111945  -111946  -111945  -111946 
 -111948  -111948  -111948  -111946  -111944  -111945  -111946  -111947 
 -111947  -111946  -111947  -111947  -111946  -111946  -111947  -111948 
 -111948  -111945  -111943  -111945  -111948  -111947  -111945  -111944 
 -111945  -111947  -111948  -111945  -111945  -111945  -111947  -111947 
 -111945  -111945  -111946  -111946  -111945  -111945  -111945  -111944 
 -111945  -111946  -111947  -111946  -111946  -111945  -111947  -111947 
 -111944  -111945  -111946  -111942  -111941  -111944  -111945  -111946 
 -111946  -111944  -111943  -111944  -111946  -111946  -111946  -111947 
 -111946  -111944  -111944  -111945  -111944  -111945  -111945  -111943 
 -111945  -111946  -111945  -111946  -111945  -111945  -111946  -111946 
 -111944  -111944  -111945  -111945  -111946  -111946  -111943  -111944 
 -111946  -111946  -111945  -111945  -111945  -111946  -111945  -111943 
 -111944  -111945  -111946  -111945  -111944  -111944  -111946  -111945 
 -111944  -111945  -111946  -111945  -111943  -111944  -111946  -111943 
 -111944  -111946  -111945  -111944  -111946  -111945  -111945  -111947 
 -111947  -111946  -111946  -111945  -111942  -111943  -111946  -111946 
 -111945  -111945  -111945  -111945  -111946  -111946  -111947  -111946 
 -111943  -111945  -111947  -111946  -111945  -111945  -111947  -111947 
 -111945  -111946  -111946  -111943  -111944  -111947  -111946  -111945 
 -111947  -111947  -111944  -111944  -111946  -111947  -111945  -111942 
 -111944  -111946  -111945  -111945  -111945  -111946  -111948  -111945 
 -111944  -111945  -111944  -111942  -111942  -111943  -111944  -111943 
 -111944  -111945  -111944  -111944  -111945  -111943  -111945  -111947 
 -111945  -111944  -111945  -111944  -111944  -111944  -111944  -111944 
 -111944  -111943  -111943  -111945  -111945  -111945  -111945  -111944 
 -111943  -111944  -111944  -111944  -111945  -111943  -111943  -111944 
 -111944  -111943  -111945  -111946  -111946  -111945  -111944  -111944 
 -111945  -111946  -111946  -111944  -111945  -111944  -111944  -111947 
 -111946  -111943  -111946  -111947  -111944  -111946  -111947  -111943 
 -111942  -111945  -111944  -111943  -111944  -111945  -111944  -111944 
 -111945  -111943  -111943  -111947  -111946  -111943  -111946  -111947 
 -111945  -111945  -111946  -111945  -111946  -111944  -111943  -111944 
 -111945  -111944  -111944  -111944  -111943  -111943  -111945  -111945 
 -111944  -111944  -111946  -111946  -111945  -111944  -111944  -111944 
 -111944  -111944  -111944  -111945  -111944  -111942  -111944  -111945 
 -111944  -111944  -111945  -111946  -111946  -111943  -111943  -111945 
 -111943  -111942  -111944  -111943  -111942  -111943  -111944  -111945 
 -111944  -111945  -111947  -111946  -111944  -111946  -111948  -111945 
 -111943  -111945  -111946  -111946  -111945  -111945  -111945  -111945 
 -111944  -111944  -111946  -111946  -111946  -111947  -111945  -111944 
 -111947  -111947  -111945  -111946  -111944  -111943  -111944  -111945 
 -111945  -111945  -111944  -111944  -111945  -111945  -111944  -111945 
 -111948  -111947  -111944  -111945  -111945  -111943  -111944  -111946 
 -111945  -111945  -111945  -111944  -111945  -111946  -111944  -111943 
 -111945  -111945  -111943  -111943  -111944  -111945  -111944  -111942 
 -111944  -111946  -111945  -111946  -111947  -111945  -111943  -111944 
 -111946  -111945  -111946  -111948  -111947  -111947  -111948  -111946 
 -111946  -111948  -111947  -111945  -111945  -111945  -111946  -111946 
 -111945  -111946  -111946  -111946  -111949  -111947  -111945  -111948 
 -111950  -111945  -111944  -111948  -111948  -111944  -111944  -111946 
 -111946  -111946  -111946  -111946  -111946  -111947  -111948  -111947 
 -111947  -111947  -111947  -111947  -111946  -111946  -111946  -111945 
 -111944  -111946  -111946  -111945  -111947  -111947  -111945  -111946 
 -111947  -111944  -111945  -111948  -111947  -111945  -111945  -111946 
 -111945  -111946  -111946  -111943  -111942  -111942  -111944  -111946 
 -111945  -111944  -111944  -111943  -111945  -111946  -111944  -111945 
 -111945  -111945  -111946  -111944  -111943  -111944  -111945  -111946 
 -111944  -111945  -111946  -111945  -111944  -111944  -111942  -111944 
 -111946  -111945  -111945  -111946  -111944  -111944  -111944  -111943 
 -111944  -111946  -111944  -111943  -111943  -111944  -111947  -111948 
 -111944  -111944  -111946  -111944  -111945  -111947  -111945  -111943 
 -111944  -111946  -111946  -111945  -111946  -111948  -111947  -111943 
 -111945  -111946  -111944  -111943  -111945  -111946  -111946  -111945 
 -111946  -111945  -111944  -111944  -111944  -111944  -111945  -111945 
 -111945  -111945  -111945  -111945  -111945  -111944  -111942  -111944 
 -111945  -111946  -111945  -111945  -111947  -111947  -111945  -111946 
 -111945  -111943  -111945  -111947  -111946  -111945  -111946  -111946 
 -111945  -111946  -111946  -111944  -111944  -111946  -111948  -111948 
 -111946  -111943  -111945  -111947  -111947  -111946  -111944  -111943 
 -111945  -111946  -111945  -111945  -111946  -111945  -111942  -111944 
 -111946  -111945  -111945  -111946  -111946  -111944  -111945  -111946 
 -111944  -111943  -111945  -111945  -111945  -111946  -111946  -111945 
 -111945  -111945  -111945  -111945  -111946  -111946  -111944  -111945 
 -111946  -111945  -111945  -111945  -111946  -111946  -111947  -111946 
 -111945  -111944  -111945  -111946  -111946  -111946  -111946  -111945 
 -111945  -111947  -111946  -111945  -111944  -111945  -111945  -111944 
 -111945  -111947  -111945  -111944  -111945  -111945  -111944  -111943 
 -111944  -111946  -111946  -111944  -111943  -111944  -111944  -111945 
 -111946  -111944  -111942  -111943  -111944  -111945  -111945  -111943 
 -111944  -111945  -111944  -111944  -111945  -111946  -111945  -111945 
 -111944  -111944  -111945  -111944  -111944  -111945  -111946  -111944 
 -111941  -111940  -111943  -111945  -111944  -111943  -111943  -111944 
 -111945  -111945  -111944  -111943  -111943  -111944  -111944  -111944 
 -111944  -111944  -111943  -111944  -111944  -111944  -111943  -111942 
 -111944  -111945  -111942  -111942  -111944  -111942  -111943  -111944 
 -111942  -111943  -111945  -111944  -111942  -111943  -111943  -111943 
 -111943  -111944  -111945  -111945  -111943  -111943  -111944  -111944 
 -111945  -111945  -111943  -111943  -111944  -111945  -111946  -111943 
 -111939  -111935  -111926  -111918  -111921  -111935  -111955  -111965 
 -111963  -111958  -111947  -111914  -111853  -111791  -111775  -111808 
 -111850  -111879  -111937  -112051  -112141  -112101  -111988  -111947 
 -111994  -112089  -112181  -112144  -112110  -112287  -112265  -111883 
 -111718  -111793  -111842  -112023  -112061  -111764  -111620  -111761 
 -111822  -111640  -111493  -111513  -111424  -111620  -112346  -112404 
 -111671  -111684  -112290  -112124  -111580  -111877  -112533  -112468 
 -112291  -112537  -112363  -111933  -112055  -112115  -111716  -111828 
 -112411  -112177  -111585  -111942  -112205  -111333  -110795  -111453 
 -112096  -112081  -112096  -112252  -111988  -111623  -111656  -111804 
 -112025  -112317  -112189  -111818  -111764  -111797  -111767  -112144 
 -112739  -112576  -111698  -111414  -111973  -112227  -111892  -111741 
 -111946  -111911  -111542  -111602  -112241  -112594  -112245  -111607 
 -111453  -112039  -112374  -112008  -111799  -111962  -111866  -111492 
 -111471  -111821  -112140  -112434  -112356  -111690  -111359  -111846 
 -112244  -111974  -111931  -112426  -112380  -112069  -112143  -111861 
 -111569  -111825  -111993  -112165  -112283  -111993  -111862  -111866 
 -111711  -111665  -111608  -111616  -111986  -112362  -112305  -112029 
 -111893  -111596  -111528  -112213  -112136  -111230  -111682  -112779 
 -112460  -111582  -111587  -111976  -111984  -111857  -111966  -112139 
 -112196  -112148  -111897  -111615  -111675  -111952  -112169  -112178 
 -112012  -111918  -111594  -111220  -111807  -112511  -112102  -111650 
 -111802  -111846  -111781  -111895  -112097  -112347  -112470  -112231 
 -111956  -112132  -112317  -111977  -111799  -112056  -112054  -111961 
 -111944  -111725  -111853  -112185  -111923  -111553  -111460  -111465 
 -111817  -112209  -112119  -111694  -111294  -111419  -111800  -111712 
 -111898  -112923  -113351  -112408  -111480  -111553  -111885  -111824 
 -111785  -112145  -112398  -111947  -111278  -111460  -112381  -112553 
 -111676  -111301  -111857  -112271  -112281  -112241  -112086  -111756 
 -111556  -111597  -111589  -111702  -112184  -112354  -111976  -111805 
 -111859  -111899  -112212  -112522  -112465  -112244  -111993  -111906 
 -112108  -112152  -111847  -111743  -111953  -111940  -111790  -111884 
 -111878  -111798  -112066  -112018  -111569  -111629  -111677  -111337 
 -111448  -111848  -112066  -112280  -112405  -112257  -112054  -112097 
 -112296  -112473  -112544  -112128  -111121  -110704  -112039  -113174 
 -111892  -110962  -112301  -112696  -111573  -111271  -111355  -111307 
 -111710  -112051  -111818  -111134  -111055  -112336  -113266  -112738 
 -111800  -111133  -111401  -112538  -113001  -112947  -113533  -113550 
 -112233  -111732  -112493  -112603  -111703  -110276  -110360  -112822 
 -112897  -110354  -110179  -110479  -109862  -111469  -113176  -112748 
 -112326  -112141  -111852  -112114  -112082  -111359  -110836  -111016 
 -112032  -113029  -112584  -111592  -111885  -112139  -111402  -112163 
 -113997  -113796  -112530  -112267  -112191  -111583  -110948  -110586 
 -111241  -113373  -114631  -114038  -114401  -114835  -112378  -109840 
 -110254  -111125  -110485  -109993  -109934  -109402  -109714  -110699 
 -110608  -110885  -112354  -113036  -112946  -113100  -113304  -113673 
 -113775  -112615  -111370  -111655  -112069  -111774  -112339  -113081 
 -112427  -111269  -110648  -110449  -110333  -110721  -111682  -112053 
 -112447  -113711  -113559  -111416  -110289  -111200  -112616  -113383 
 -113064  -112281  -111860  -111826  -112406  -113306  -113148  -111713 
 -110585  -110909  -111791  -111899  -111757  -112400  -113255  -113279 
 -112286  -110947  -110312  -110276  -110479  -111790  -113637  -114186 
 -113677  -112831  -111168  -109337  -109200  -110754  -111991  -111971 
 -111589  -111874  -112739  -113005  -112264  -111564  -111612  -112282 
 -113030  -113239  -113019  -112534  -111947  -111680  -110773  -108728 
 -108018  -110297  -113458  -114866  -114670  -114237  -113648  -113043 
 -112812  -111853  -110237  -110204  -111324  -111216  -110789  -111550 
 -111998  -111525  -111473  -111858  -112049  -111969  -111417  -110743 
 -110591  -110940  -111608  -112121  -112138  -112629  -113919  -114350 
 -113359  -112404  -112065  -111951  -112234  -113042  -113728  -113360 
 -112223  -111505  -110975  -110189  -110163  -111270  -112386  -112438 
 -111699  -111409  -111860  -112347  -112609  -112568  -111950  -111032 
 -110565  -110821  -111283  -111200  -110702  -110970  -112109  -112632 
 -112579  -113343  -114105  -113463  -112248  -111125  -109889  -109635 
 -111127  -112832  -113325  -113051  -112676  -112208  -111891  -112184 
 -112803  -113033  -112903  -112738  -112271  -111400  -110817  -110926 
 -111143  -111329  -111967  -112459  -112230  -111731  -110952  -110272 
 -110628  -111383  -111534  -111172  -110863  -111583  -113070  -113641 
 -113201  -112734  -112332  -112145  -112326  -112414  -112368  -112292 
 -111788  -111044  -110557  -110389  -110888  -112037  -113219  -113993 
 -113563  -112002  -111137  -111626  -112254  -112514  -112789  -112902 
 -112550  -112068  -111805  -111610  -111087  -110459  -110533  -110979 
 -111138  -111743  -112872  -113356  -113002  -112516  -112207  -111792 
 -111438  -111804  -112314  -112439  -113021  -113537  -112673  -111309 
 -110938  -111429  -111622  -110939  -110200  -110294  -110978  -111690 
 -112049  -111971  -112006  -112287  -112038  -111325  -111207  -111828 
 -112600  -113288  -113505  -113032  -112531  -112492  -112813  -113147 
 -112987  -112418  -111842  -111109  -110479  -110679  -111350  -111840 
 -112371  -112756  -112511  -112104  -111938  -111732  -111369  -111028 
 -111132  -111878  -112414  -112175  -111841  -111706  -111572  -111532 
 -111451  -111448  -111864  -112313  -112386  -112224  -112079  -111927 
 -111436  -110842  -110838  -111256  -111550  -111749  -111925  -112046 
 -112140  -112182  -112375  -112856  -113141  -112945  -112652  -112502 
 -112383  -112234  -112208  -112287  -112121  -111801  -111718  -111803 
 -111796  -111578  -111253  -111109  -111245  -111339  -111145  -111004 
 -111300  -111925  -112640  -113071  -112858  -112427  -112265  -112178 
 -112256  -112563  -112627  -112466  -112397  -112327  -112066  -111671 
 -111362  -111214  -111199  -111284  -111533  -112076  -112533  -112456 
 -112201  -112091  -111993  -111979  -111978  -111687  -111437  -111723 
 -112129  -112049  -111728  -111599  -111722  -112106  -112412  -112247 
 -111990  -111840  -111459  -111175  -111537  -112190  -112391  -112168 
 -112169  -112347  -112119  -111730  -111777  -111977  -111967  -112124 
 -112449  -112394  -112028  -111689  -111188  -110647  -110792  -111505 
 -111814  -111654  -111654  -111769  -111847  -112094  -112318  -112268 
 -112206  -112372  -112471  -112118  -111722  -111786  -112014  -112186 
 -112374  -112558  -112778  -112946  -112875  -112532  -112059  -111765 
 -111561  -111020  -110522  -110688  -111144  -111542  -111939  -111882 
 -111482  -111543  -111755  -111596  -111604  -111988  -112314  -112429 
 -112316  -112118  -112219  -112602  -112961  -113184  -113079  -112575 
 -112134  -112026  -111922  -111589  -111311  -111420  -111643  -111740 
 -112126  -112672  -112703  -112332  -111909  -111419  -111067  -111189 
 -111640  -111903  -111981  -112252  -112359  -111907  -111370  -111135 
 -111278  -111879  -112405  -112214  -111501  -110916  -110880  -111248 
 -111692  -112273  -112817  -112755  -112219  -111959  -112297  -112952 
 -113254  -112835  -112280  -112125  -112086  -111980  -111852  -111624 
 -111584  -111904  -112242  -112532  -112641  -112269  -111801  -111572 
 -111351  -111205  -111337  -111577  -111739  -111881  -111930  -111632 
 -111222  -111134  -111346  -111797  -112286  -112378  -112207  -112153 
 -112081  -111835  -111534  -111347  -111349  -111463  -111757  -112372 
 -113025  -113252  -112971  -112510  -112098  -111650  -111382  -111597 
 -111778  -111515  -111384  -111569  -111602  -111735  -112263  -112625 
 -112510  -112091  -111553  -111317  -111587  -112009  -112207  -112127 
 -111910  -111652  -111407  -111250  -111322  -111806  -112372  -112386 
 -111975  -111735  -111818  -112156  -112552  -112624  -112371  -112086 
 -111906  -111864  -111899  -111961  -111969  -111862  -112008  -112634 
 -113047  -112697  -112237  -112260  -112272  -111998  -111887  -111987 
 -112026  -112070  -112187  -112206  -112074  -111928  -111702  -111313 
 -111147  -111476  -111809  -111565  -110939  -110607  -110842  -111237 
 -111370  -111409  -111645  -111903  -111936  -111912  -112010  -111981 
 -111853  -112094  -112563  -112761  -112814  -112893  -112677  -112142 
 -111839  -112055  -112440  -112666  -112781  -112713  -112375  -112075 
 -112000  -112049  -112149  -112145  -112077  -112073  -111866  -111408 
 -111056  -110929  -111042  -111377  -111657  -111740  -111690  -111467 
 -111260  -111394  -111625  -111522  -111384  -111854  -112771  -113342 
 -113317  -113001  -112561  -112067  -111687  -111563  -111604  -111622 
 -111595  -111508  -111321  -111196  -111355  -111770  -112201  -112459 
 -112477  -112325  -112079  -111709  -111480  -111688  -111988  -112115 
 -112252  -112272  -112060  -112056  -112294  -112195  -111809  -111669 
 -111822  -112075  -112235  -112173  -112137  -112312  -112396  -112198 
 -111952  -111856  -111856  -111896  -112013  -112095  -111946  -111700 
 -111608  -111664  -111724  -111680  -111636  -111807  -112168  -112469 
 -112456  -112081  -111551  -111176  -111206  -111532  -111814  -111961 
 -112023  -112034  -112103  -112209  -112108  -111787  -111672  -111754 
 -111612  -111532  -111777  -111972  -112163  -112464  -112468  -112195 
 -112075  -112109  -112115  -112116  -112102  -112082  -112125  -112154 
 -112117  -112087  -112084  -112015  -111770  -111589  -111790  -112145 
