Origin Time       2021/08/14 22:38:00
Lat.              37.5
Long.             137.2
Depth. (km)       10
Mag.              4.1
Station Code      ISKH04
Station Lat.      37.1902
Station Long.     136.7176
Station Height(m) -60.5
Record Time       2021/08/14 22:38:24
Sampling Freq(Hz) 100Hz
Duration Time(s)  120
Dir.              2
Scale Factor      3923(gal)/8224838
Max. Acc. (gal)   0.320
Last Correction   2021/08/14 22:38:24
Memo.             
[...]
  -12614   -12615   -12610   -12610   -12614   -12611   -12609   -12615 
  -12614   -12607   -12613   -12615   -12609   -12611   -12618   -12611 
  -12609   -12615   -12614   -12609   -12611   -12615   -12609   -12610 
  -12619   -12615   -12607   -12614   -12615   -12606   -12609   -12617 
  -12611   -12607   -12615   -12615   -12606   -12610   -12615   -12610 
  -12613   -12619   -12613   -12606   -12613   -12617   -12607   -12607 
  -12615   -12611   -12609   -12615   -12614   -12609   -12613   -12614 
  -12606   -12609   -12619   -12613   -12606   -12615   -12615   -12606 
  -12613   -12618   -12609   -12607   -12617   -12614   -12607   -12614 
  -12617   -12609   -12609   -12613   -12610   -12611   -12617   -12613 
  -12607   -12613   -12615   -12606   -12607   -12617   -12611   -12606 
  -12615   -12617   -12606   -12610   -12619   -12611   -12606   -12615 
  -12615   -12607   -12614   -12617   -12607   -12607   -12614   -12611 
  -12610   -12617   -12615   -12607   -12613   -12619   -12610   -12607 
  -12617   -12617   -12607   -12613   -12614   -12606   -12611   -12618 
  -12611   -12607   -12613   -12614   -12610   -12613   -12615   -12609 
  -12609   -12614   -12613   -12611   -12618   -12615   -12606   -12610 
  -12618   -12611   -12609   -12617   -12613   -12606   -12614   -12615 
  -12607   -12613   -12618   -12611   -12610   -12617   -12615   -12611 
  -12611   -12615   -12610   -12609   -12617   -12614   -12606   -12615 
  -12617   -12607   -12609   -12614   -12610   -12607   -12615   -12614 
  -12607   -12614   -12617   -12607   -12609   -12617   -12614   -12609 
  -12613   -12614   -12609   -12610   -12617   -12613   -12607   -12613 
  -12614   -12611   -12614   -12615   -12610   -12610   -12617   -12614 
  -12610   -12613   -12614   -12610   -12611   -12617   -12613   -12609 
  -12615   -12615   -12607   -12613   -12614   -12606   -12610   -12618 
  -12613   -12610   -12615   -12613   -12606   -12610   -12617   -12611 
  -12610   -12617   -12614   -12607   -12614   -12617   -12607   -12609 
  -12615   -12610   -12607   -12614   -12615   -12610   -12611   -12615 
  -12609   -12609   -12617   -12614   -12607   -12613   -12615   -12610 
  -12611   -12618   -12611   -12609   -12617   -12615   -12609   -12613 
  -12615   -12610   -12611   -12617   -12614   -12610   -12615   -12614 
  -12609   -12613   -12618   -12614   -12611   -12617   -12614   -12609 
  -12613   -12614   -12607   -12610   -12614   -12610   -12607   -12613 
  -12615   -12609   -12610   -12615   -12609   -12606   -12613   -12606 
  -12590   -12584   -12577   -12572   -12584   -12606   -12614   -12618 
  -12627   -12636   -12652   -12664   -12634   -12583   -12571   -12594 
  -12622   -12649   -12653   -12645   -12656   -12645   -12633   -12649 
  -12625   -12577   -12556   -12533   -12568   -12695   -12744   -12636 
  -12533   -12541   -12604   -12650   -12637   -12538   -12430   -12518 
  -12737   -12771   -12617   -12492   -12528   -12656   -12648   -12537 
  -12522   -12586   -12695   -12762   -12619   -12499   -12638   -12771 
  -12718   -12567   -12452   -12545   -12717   -12702   -12591   -12560 
  -12645   -12784   -12731   -12469   -12409   -12654   -12772   -12630 
  -12514   -12509   -12584   -12684   -12634   -12556   -12657   -12704 
  -12577   -12548   -12618   -12613   -12591   -12576   -12560   -12580 
  -12588   -12633   -12703   -12613   -12501   -12588   -12698   -12684 
  -12637   -12584   -12567   -12595   -12553   -12523   -12634   -12700 
  -12631   -12579   -12583   -12636   -12690   -12625   -12542   -12569 
  -12667   -12766   -12708   -12542   -12528   -12590   -12592   -12579 
  -12553   -12571   -12641   -12680   -12681   -12633   -12549   -12542 
  -12631   -12690   -12654   -12575   -12544   -12587   -12626   -12614 
  -12579   -12580   -12625   -12600   -12537   -12576   -12629   -12625 
  -12641   -12638   -12619   -12657   -12668   -12611   -12614   -12630 
  -12567   -12561   -12629   -12615   -12592   -12614   -12652   -12711 
  -12665   -12541   -12525   -12606   -12672   -12641   -12583   -12631 
  -12676   -12596   -12490   -12528   -12673   -12708   -12611   -12525 
  -12521   -12595   -12679   -12692   -12630   -12580   -12609   -12626 
  -12575   -12591   -12671   -12650   -12592   -12619   -12664   -12653 
  -12571   -12507   -12592   -12695   -12648   -12580   -12588   -12584 
  -12590   -12637   -12645   -12602   -12561   -12515   -12502   -12657 
  -12843   -12741   -12541   -12586   -12644   -12537   -12488   -12594 
  -12704   -12691   -12622   -12602   -12613   -12613   -12583   -12559 
  -12571   -12592   -12599   -12613   -12677   -12721   -12630   -12525 
  -12506   -12522   -12618   -12749   -12753   -12667   -12607   -12559 
  -12541   -12587   -12613   -12591   -12526   -12460   -12556   -12685 
  -12649   -12607   -12621   -12637   -12679   -12663   -12613   -12595 
  -12583   -12654   -12721   -12633   -12549   -12565   -12611   -12699 
  -12714   -12580   -12507   -12595   -12649   -12584   -12552   -12586 
  -12609   -12652   -12663   -12619   -12646   -12641   -12556   -12550 
  -12529   -12495   -12613   -12661   -12577   -12618   -12677   -12621 
  -12625   -12676   -12610   -12522   -12580   -12695   -12653   -12522 
  -12575   -12715   -12688   -12584   -12542   -12586   -12672   -12679 
  -12588   -12517   -12591   -12714   -12649   -12532   -12573   -12660 
  -12681   -12653   -12617   -12611   -12575   -12533   -12561   -12586 
  -12621   -12676   -12634   -12609   -12681   -12661   -12584   -12640 
  -12663   -12507   -12449   -12583   -12654   -12646   -12685   -12680 
  -12607   -12618   -12649   -12522   -12421   -12542   -12675   -12658 
  -12644   -12700   -12663   -12509   -12468   -12569   -12617   -12602 
  -12611   -12645   -12694   -12717   -12656   -12606   -12629   -12591 
  -12525   -12586   -12675   -12679   -12644   -12576   -12557   -12640 
  -12673   -12625   -12599   -12592   -12588   -12603   -12552   -12492 
  -12564   -12638   -12641   -12633   -12588   -12590   -12669   -12661 
  -12588   -12576   -12610   -12653   -12665   -12641   -12649   -12673 
  -12600   -12448   -12459   -12604   -12673   -12733   -12681   -12503 
  -12518   -12619   -12663   -12710   -12613   -12528   -12649   -12660 
  -12560   -12600   -12634   -12633   -12691   -12658   -12584   -12623 
  -12642   -12621   -12641   -12641   -12642   -12615   -12505   -12475 
  -12577   -12646   -12604   -12545   -12592   -12669   -12652   -12623 
  -12637   -12596   -12507   -12546   -12692   -12722   -12644   -12579 
  -12510   -12522   -12642   -12658   -12577   -12631   -12706   -12630 
  -12617   -12688   -12629   -12509   -12490   -12556   -12641   -12710 
  -12690   -12556   -12491   -12588   -12677   -12672   -12688   -12730 
  -12636   -12482   -12544   -12700   -12687   -12619   -12576   -12542 
  -12609   -12654   -12607   -12577   -12537   -12541   -12629   -12642 
  -12592   -12595   -12667   -12708   -12636   -12569   -12553   -12506 
  -12522   -12579   -12587   -12671   -12748   -12664   -12614   -12665 
  -12669   -12644   -12575   -12510   -12596   -12665   -12579   -12546 
  -12614   -12630   -12606   -12629   -12634   -12567   -12567   -12663 
  -12650   -12573   -12607   -12650   -12631   -12637   -12618   -12528 
  -12509   -12611   -12681   -12695   -12683   -12577   -12546   -12722 
  -12785   -12637   -12556   -12568   -12573   -12577   -12571   -12552 
  -12518   -12495   -12544   -12667   -12804   -12841   -12690   -12475 
  -12420   -12528   -12640   -12700   -12712   -12658   -12587   -12567 
  -12584   -12555   -12509   -12556   -12623   -12623   -12646   -12717 
  -12717   -12645   -12586   -12544   -12599   -12707   -12638   -12542 
  -12599   -12650   -12652   -12572   -12476   -12572   -12687   -12657 
  -12656   -12656   -12559   -12467   -12436   -12505   -12654   -12731 
  -12703   -12650   -12625   -12646   -12649   -12587   -12475   -12433 
  -12654   -12865   -12737   -12609   -12623   -12577   -12604   -12642 
  -12532   -12541   -12658   -12649   -12634   -12645   -12609   -12592 
  -12587   -12599   -12648   -12661   -12656   -12645   -12592   -12544 
  -12561   -12640   -12619   -12532   -12609   -12696   -12641   -12588 
  -12549   -12550   -12619   -12617   -12555   -12576   -12658   -12677 
  -12623   -12584   -12600   -12637   -12621   -12582   -12595   -12660 
  -12712   -12664   -12611   -12638   -12573   -12495   -12567   -12609 
  -12592   -12623   -12684   -12764   -12687   -12482   -12505   -12629 
  -12630   -12640   -12592   -12492   -12541   -12703   -12771   -12650 
  -12549   -12577   -12580   -12579   -12599   -12560   -12602   -12735 
  -12715   -12623   -12640   -12638   -12631   -12625   -12546   -12495 
  -12420   -12434   -12700   -12789   -12645   -12648   -12695   -12680 
  -12633   -12492   -12421   -12536   -12680   -12706   -12638   -12607 
  -12657   -12665   -12528   -12413   -12479   -12561   -12594   -12710 
  -12833   -12789   -12641   -12568   -12565   -12560   -12641   -12756 
  -12715   -12559   -12379   -12293   -12445   -12641   -12618   -12495 
  -12432   -12490   -12727   -12966   -12950   -12806   -12676   -12544 
  -12540   -12683   -12842   -12915   -12744   -12406   -12132   -12074 
  -12448   -12978   -13014   -12694   -12549   -12577   -12690   -12803 
  -12718   -12654   -12769   -12649   -12266   -12100   -12201   -12383 
  -12707   -12978   -12825   -12515   -12442   -12422   -12513   -12912 
  -13097   -12826   -12600   -12440   -12209   -12329   -12694   -12765 
  -12712   -12703   -12592   -12575   -12636   -12486   -12298   -12425 
  -12842   -13097   -12865   -12569   -12610   -12694   -12667   -12764 
  -12985   -12984   -12549   -12144   -12206   -12387   -12514   -12756 
  -12795   -12640   -12650   -12587   -12410   -12546   -12834   -12903 
  -12834   -12711   -12592   -12596   -12540   -12386   -12406   -12537 
  -12618   -12691   -12700   -12665   -12703   -12630   -12429   -12528 
  -12869   -12900   -12719   -12730   -12739   -12476   -12113   -12025 
  -12283   -12498   -12523   -12587   -12665   -12618   -12536   -12559 
  -12634   -12626   -12642   -12804   -12908   -12723   -12384   -12243 
  -12453   -12846   -13024   -12842   -12577   -12395   -12322   -12468 
  -12762   -12946   -12907   -12856   -12906   -12795   -12469   -12278 
  -12332   -12442   -12490   -12472   -12579   -12911   -13005   -12614 
  -12340   -12460   -12579   -12592   -12677   -12795   -12725   -12479 
  -12302   -12290   -12487   -12783   -12860   -12725   -12590   -12583 
  -12754   -12946   -13005   -12869   -12501   -12276   -12530   -12838 
  -12771   -12629   -12712   -12785   -12683   -12541   -12501   -12582 
  -12633   -12502   -12340   -12463   -12769   -12754   -12487   -12388 
  -12375   -12384   -12533   -12657   -12683   -12681   -12576   -12475 
  -12498   -12510   -12611   -12800   -12791   -12707   -12671   -12483 
  -12290   -12398   -12634   -12642   -12459   -12360   -12461   -12667 
  -12835   -12893   -12712   -12333   -12294   -12698   -12920   -12912 
  -12946   -12825   -12663   -12768   -12758   -12425   -12452   -13012 
  -13142   -12475   -12004   -12375   -12901   -12869   -12572   -12433 
  -12361   -12359   -12528   -12614   -12555   -12717   -13005   -12980 
  -12737   -12573   -12495   -12425   -12372   -12459   -12656   -12694 
  -12517   -12360   -12440   -12634   -12680   -12745   -12939   -12910 
  -12577   -12303   -12434   -12837   -12982   -12838   -12679   -12401 
  -12154   -12340   -12752   -12901   -12753   -12603   -12513   -12401 
  -12501   -12857   -13020   -12822   -12511   -12318   -12391   -12587 
  -12595   -12514   -12534   -12495   -12442   -12519   -12514   -12510 
  -12731   -12823   -12569   -12259   -12210   -12541   -12868   -12811 
  -12621   -12517   -12494   -12630   -12758   -12712   -12645   -12614 
  -12623   -12673   -12667   -12695   -12729   -12657   -12707   -12869 
  -12823   -12607   -12475   -12606   -12908   -12939   -12598   -12399 
  -12561   -12654   -12498   -12478   -12679   -12780   -12745   -12688 
  -12549   -12402   -12432   -12579   -12648   -12607   -12590   -12556 
  -12452   -12453   -12542   -12641   -12777   -12702   -12397   -12210 
  -12271   -12584   -12920   -12973   -12923   -12881   -12660   -12378 
  -12320   -12575   -12816   -12623   -12349   -12528   -12718   -12517 
  -12402   -12604   -12829   -12966   -12989   -12811   -12518   -12418 
  -12673   -12870   -12702   -12505   -12442   -12375   -12410   -12533 
  -12523   -12445   -12486   -12677   -12827   -12760   -12567   -12387 
  -12409   -12708   -12960   -13041   -13117   -13009   -12583   -12170 
  -12108   -12440   -12804   -12717   -12388   -12363   -12490   -12411 
  -12364   -12599   -12766   -12561   -12386   -12611   -12927   -13015 
  -12874   -12602   -12455   -12468   -12397   -12343   -12526   -12830 
  -13062   -13112   -12908   -12561   -12333   -12256   -12295   -12648 
  -13041   -12924   -12550   -12382   -12399   -12537   -12669   -12646 
  -12660   -12745   -12576   -12295   -12320   -12548   -12717   -12742 
  -12588   -12397   -12347   -12437   -12631   -12803   -12758   -12654 
  -12700   -12696   -12536   -12357   -12286   -12434   -12748   -13076 
  -13213   -12942   -12490   -12297   -12430   -12681   -12877   -12993 
  -12962   -12706   -12399   -12333   -12507   -12626   -12646   -12834 
  -13103   -13043   -12642   -12339   -12375   -12510   -12530   -12503 
  -12464   -12447   -12542   -12711   -12753   -12532   -12244   -12220 
  -12357   -12347   -12367   -12577   -12658   -12700   -13039   -13284 
  -12992   -12525   -12393   -12576   -12761   -12737   -12618   -12698 
  -12819   -12564   -12154   -12132   -12428   -12638   -12668   -12614 
  -12599   -12741   -12910   -12914   -12795   -12575   -12329   -12272 
  -12401   -12555   -12685   -12762   -12729   -12600   -12430   -12263 
  -12209   -12372   -12696   -12957   -13011   -12965   -12876   -12700 
  -12577   -12541   -12393   -12302   -12519   -12753   -12865   -13028 
  -13007   -12656   -12351   -12318   -12507   -12792   -12919   -12788 
  -12571   -12349   -12201   -12333   -12669   -12847   -12735   -12568 
  -12614   -12744   -12685   -12552   -12499   -12402   -12332   -12482 
  -12699   -12796   -12827   -12773   -12536   -12383   -12636   -12891 
  -12737   -12550   -12586   -12548   -12336   -12240   -12559   -13043 
  -13109   -12780   -12507   -12467   -12580   -12703   -12636   -12318 
  -12023   -12087   -12505   -12974   -13140   -12941   -12673   -12568 
  -12627   -12739   -12777   -12760   -12771   -12735   -12587   -12523 
  -12715   -12895   -12758   -12596   -12718   -12779   -12568   -12383 
  -12299   -12221   -12201   -12262   -12375   -12509   -12625   -12710 
  -12737   -12694   -12626   -12513   -12390   -12438   -12596   -12625 
  -12619   -12712   -12762   -12700   -12607   -12588   -12702   -12837 
  -12799   -12614   -12561   -12725   -12816   -12702   -12598   -12621 
  -12654   -12650   -12636   -12582   -12563   -12663   -12712   -12656 
  -12702   -12800   -12704   -12461   -12353   -12467   -12587   -12615 
  -12626   -12567   -12360   -12235   -12451   -12727   -12703   -12627 
  -12712   -12676   -12445   -12318   -12410   -12571   -12695   -12810 
  -12870   -12791   -12687   -12691   -12687   -12604   -12604   -12739 
  -12835   -12760   -12590   -12502   -12480   -12411   -12447   -12696 
  -12914   -12892   -12698   -12503   -12483   -12614   -12658   -12541 
  -12426   -12429   -12559   -12791   -12972   -12915   -12681   -12471 
  -12361   -12382   -12499   -12621   -12688   -12613   -12483   -12507 
  -12564   -12513   -12488   -12545   -12563   -12530   -12548   -12621 
  -12673   -12727   -12769   -12700   -12579   -12546   -12606   -12694 
  -12746   -12710   -12642   -12648   -12685   -12672   -12687   -12754 
  -12698   -12550   -12490   -12436   -12384   -12529   -12734   -12729 
  -12598   -12569   -12654   -12699   -12665   -12654   -12658   -12586 
  -12475   -12460   -12571   -12679   -12640   -12573   -12699   -12803 
  -12607   -12387   -12433   -12617   -12694   -12600   -12460   -12425 
  -12557   -12784   -12901   -12849   -12814   -12872   -12842   -12685 
  -12586   -12573   -12583   -12576   -12495   -12455   -12591   -12719 
  -12606   -12378   -12357   -12557   -12668   -12622   -12622   -12679 
  -12665   -12613   -12619   -12641   -12621   -12598   -12536   -12432 
  -12429   -12534   -12583   -12556   -12559   -12586   -12599   -12633 
  -12734   -12829   -12729   -12560   -12590   -12646   -12536   -12468 
  -12606   -12802   -12906   -12949   -12922   -12737   -12505   -12402 
  -12421   -12453   -12459   -12469   -12478   -12503   -12610   -12722 
  -12729   -12665   -12676   -12771   -12771   -12675   -12621   -12563 
  -12471   -12444   -12498   -12563   -12572   -12498   -12361   -12295 
  -12407   -12569   -12695   -12831   -12804   -12603   -12586   -12804 
  -12931   -12850   -12692   -12571   -12523   -12564   -12691   -12798 
  -12775   -12676   -12546   -12448   -12530   -12714   -12775   -12695 
  -12569   -12453   -12378   -12345   -12372   -12474   -12598   -12685 
  -12684   -12607   -12594   -12668   -12708   -12704   -12737   -12815 
  -12814   -12675   -12559   -12567   -12623   -12642   -12594   -12521 
  -12513   -12577   -12646   -12685   -12738   -12757   -12667   -12571 
  -12550   -12559   -12579   -12584   -12553   -12588   -12677   -12688 
  -12652   -12622   -12584   -12575   -12534   -12410   -12391   -12595 
  -12806   -12798   -12650   -12553   -12529   -12552   -12613   -12657 
  -12673   -12702   -12692   -12609   -12528   -12492   -12491   -12546 
  -12650   -12731   -12730   -12679   -12660   -12621   -12490   -12376 
  -12403   -12529   -12646   -12671   -12595   -12533   -12563   -12611 
  -12613   -12610   -12621   -12634   -12707   -12820   -12847   -12773 
  -12683   -12623   -12568   -12517   -12565   -12711   -12752   -12638 
  -12549   -12555   -12588   -12582   -12549   -12617   -12745   -12737 
  -12619   -12556   -12550   -12533   -12503   -12503   -12544   -12615 
  -12696   -12708   -12599   -12455   -12405   -12498   -12633   -12683 
  -12672   -12675   -12685   -12663   -12603   -12610   -12704   -12738 
  -12645   -12519   -12478   -12563   -12684   -12745   -12754   -12715 
  -12615   -12517   -12490   -12573   -12729   -12819   -12775   -12644 
  -12495   -12428   -12499   -12592   -12598   -12576   -12591   -12631 
  -12668   -12675   -12633   -12579   -12577   -12600   -12592   -12600 
  -12634   -12625   -12571   -12540   -12548   -12563   -12584   -12613 
  -12617   -12627   -12673   -12640   -12536   -12541   -12641   -12699 
  -12691   -12676   -12700   -12692   -12568   -12437   -12422   -12491 
  -12572   -12609   -12586   -12552   -12552   -12599   -12642   -12629 
  -12611   -12602   -12602   -12642   -12641   -12572   -12568   -12649 
  -12706   -12694   -12672   -12694   -12702   -12679   -12696   -12703 
  -12621   -12572   -12614   -12610   -12584   -12656   -12706   -12611 
  -12506   -12514   -12595   -12685   -12746   -12734   -12656   -12599 
  -12614   -12638   -12645   -12642   -12610   -12582   -12588   -12618 
  -12668   -12658   -12561   -12536   -12641   -12707   -12642   -12534 
  -12448   -12425   -12510   -12641   -12700   -12681   -12645   -12607 
  -12548   -12525   -12604   -12695   -12685   -12633   -12604   -12606 
