Origin Time       2021/08/14 22:38:00
Lat.              37.5
Long.             137.2
Depth. (km)       10
Mag.              4.1
Station Code      ISKH02
Station Lat.      37.3644
Station Long.     137.0413
Station Height(m) 19
Record Time       2021/08/14 22:38:11
Sampling Freq(Hz) 100Hz
Duration Time(s)  120
Dir.              3
Scale Factor      3923(gal)/8224838
Max. Acc. (gal)   1.418
Last Correction   2021/08/14 22:38:11
Memo.             
[...]
  -44892   -44894   -44894   -44892   -44894   -44895   -44894   -44892 
  -44894   -44895   -44894   -44892   -44894   -44895   -44894   -44894 
  -44892   -44892   -44894   -44894   -44892   -44892   -44892   -44892 
  -44892   -44894   -44892   -44891   -44892   -44894   -44892   -44894 
  -44894   -44892   -44892   -44894   -44895   -44895   -44892   -44890 
  -44890   -44895   -44895   -44892   -44892   -44892   -44892   -44894 
  -44892   -44892   -44895   -44895   -44891   -44890   -44892   -44894 
  -44895   -44892   -44891   -44892   -44895   -44895   -44894   -44894 
  -44894   -44895   -44895   -44894   -44890   -44891   -44895   -44892 
  -44892   -44895   -44895   -44894   -44894   -44891   -44890   -44895 
  -44895   -44892   -44894   -44894   -44894   -44894   -44894   -44892 
  -44894   -44894   -44891   -44891   -44894   -44892   -44891   -44894 
  -44892   -44891   -44894   -44895   -44894   -44892   -44892   -44894 
  -44894   -44891   -44891   -44894   -44895   -44894   -44894   -44892 
  -44891   -44894   -44894   -44891   -44892   -44895   -44894   -44892 
  -44890   -44892   -44895   -44892   -44894   -44895   -44894   -44894 
  -44895   -44894   -44890   -44890   -44895   -44898   -44895   -44894 
  -44894   -44894   -44892   -44894   -44896   -44895   -44894   -44895 
  -44895   -44891   -44890   -44892   -44895   -44894   -44894   -44895 
  -44894   -44894   -44894   -44892   -44890   -44891   -44892   -44892 
  -44891   -44892   -44891   -44891   -44895   -44895   -44892   -44891 
  -44892   -44894   -44892   -44895   -44895   -44892   -44894   -44895 
  -44895   -44892   -44892   -44898   -44899   -44894   -44892   -44896 
  -44894   -44892   -44894   -44895   -44895   -44895   -44894   -44891 
  -44892   -44894   -44892   -44892   -44894   -44895   -44892   -44892 
  -44895   -44896   -44894   -44894   -44895   -44892   -44894   -44895 
  -44894   -44895   -44894   -44892   -44894   -44894   -44891   -44892 
  -44894   -44895   -44892   -44892   -44896   -44895   -44892   -44892 
  -44891   -44891   -44895   -44895   -44892   -44894   -44895   -44892 
  -44891   -44892   -44891   -44892   -44894   -44891   -44892   -44894 
  -44895   -44894   -44892   -44894   -44894   -44892   -44892   -44892 
  -44894   -44894   -44894   -44894   -44894   -44895   -44894   -44892 
  -44894   -44890   -44890   -44894   -44892   -44892   -44895   -44892 
  -44891   -44892   -44892   -44894   -44895   -44892   -44891   -44892 
  -44894   -44894   -44894   -44894   -44891   -44891   -44896   -44895 
  -44892   -44894   -44895   -44894   -44891   -44892   -44894   -44894 
  -44894   -44894   -44892   -44891   -44891   -44894   -44895   -44895 
  -44895   -44891   -44890   -44894   -44892   -44892   -44892   -44891 
  -44891   -44894   -44894   -44895   -44895   -44892   -44894   -44895 
  -44894   -44894   -44896   -44894   -44892   -44892   -44894   -44892 
  -44892   -44894   -44894   -44892   -44894   -44895   -44892   -44892 
  -44891   -44890   -44892   -44894   -44892   -44892   -44894   -44894 
  -44894   -44895   -44895   -44892   -44894   -44895   -44894   -44891 
  -44894   -44895   -44892   -44892   -44894   -44892   -44892   -44894 
  -44892   -44894   -44895   -44894   -44891   -44891   -44894   -44894 
  -44894   -44894   -44894   -44892   -44895   -44896   -44894   -44894 
  -44894   -44891   -44892   -44895   -44892   -44892   -44892   -44892 
  -44895   -44894   -44892   -44894   -44892   -44892   -44894   -44892 
  -44892   -44894   -44892   -44895   -44896   -44894   -44892   -44891 
  -44892   -44895   -44895   -44891   -44894   -44895   -44894   -44895 
  -44895   -44891   -44891   -44892   -44892   -44892   -44896   -44896 
  -44891   -44892   -44894   -44890   -44890   -44892   -44894   -44892 
  -44891   -44892   -44892   -44892   -44895   -44894   -44892   -44896 
  -44898   -44894   -44891   -44895   -44895   -44892   -44892   -44894 
  -44892   -44890   -44892   -44894   -44892   -44892   -44894   -44894 
  -44894   -44894   -44894   -44894   -44896   -44892   -44891   -44895 
  -44896   -44892   -44894   -44895   -44895   -44895   -44895   -44894 
  -44892   -44892   -44894   -44894   -44894   -44895   -44895   -44895 
  -44895   -44895   -44895   -44895   -44894   -44894   -44895   -44896 
  -44898   -44895   -44894   -44895   -44895   -44894   -44895   -44895 
  -44892   -44892   -44895   -44896   -44895   -44894   -44894   -44892 
  -44892   -44895   -44894   -44892   -44894   -44894   -44892   -44894 
  -44894   -44891   -44894   -44896   -44895   -44894   -44894   -44892 
  -44891   -44894   -44894   -44892   -44892   -44895   -44894   -44892 
  -44894   -44892   -44894   -44895   -44891   -44890   -44891   -44892 
  -44894   -44894   -44891   -44892   -44894   -44894   -44894   -44891 
  -44891   -44892   -44892   -44894   -44895   -44892   -44891   -44894 
  -44895   -44895   -44895   -44894   -44892   -44892   -44895   -44895 
  -44894   -44894   -44896   -44895   -44892   -44895   -44895   -44892 
  -44894   -44894   -44894   -44895   -44892   -44892   -44895   -44895 
  -44894   -44894   -44894   -44892   -44895   -44896   -44895   -44895 
  -44898   -44895   -44894   -44896   -44895   -44894   -44896   -44896 
  -44892   -44891   -44892   -44894   -44892   -44894   -44892   -44891 
  -44892   -44894   -44892   -44892   -44896   -44896   -44895   -44894 
  -44892   -44894   -44895   -44894   -44894   -44894   -44895   -44896 
  -44896   -44895   -44892   -44892   -44895   -44896   -44895   -44896 
  -44896   -44895   -44895   -44895   -44895   -44896   -44894   -44891 
  -44892   -44895   -44895   -44895   -44896   -44896   -44895   -44895 
  -44894   -44892   -44892   -44895   -44895   -44894   -44895   -44895 
  -44894   -44892   -44891   -44894   -44895   -44894   -44894   -44895 
  -44895   -44895   -44894   -44892   -44892   -44894   -44894   -44896 
  -44895   -44890   -44892   -44898   -44892   -44890   -44894   -44898 
  -44895   -44894   -44894   -44894   -44895   -44896   -44896   -44894 
  -44892   -44894   -44896   -44896   -44895   -44896   -44898   -44895 
  -44894   -44892   -44892   -44892   -44894   -44894   -44894   -44894 
  -44895   -44894   -44891   -44890   -44891   -44894   -44892   -44891 
  -44892   -44892   -44894   -44894   -44892   -44894   -44898   -44894 
  -44891   -44895   -44895   -44894   -44895   -44895   -44894   -44895 
  -44892   -44892   -44896   -44895   -44894   -44895   -44895   -44892 
  -44895   -44895   -44894   -44894   -44895   -44895   -44895   -44896 
  -44894   -44892   -44895   -44894   -44892   -44895   -44895   -44894 
  -44894   -44891   -44890   -44896   -44898   -44894   -44894   -44895 
  -44894   -44891   -44894   -44896   -44894   -44890   -44892   -44896 
  -44896   -44896   -44895   -44896   -44896   -44895   -44894   -44894 
  -44896   -44898   -44895   -44895   -44896   -44894   -44894   -44895 
  -44894   -44894   -44895   -44896   -44895   -44894   -44892   -44894 
  -44896   -44896   -44896   -44896   -44895   -44894   -44894   -44895 
  -44894   -44894   -44898   -44896   -44892   -44894   -44894   -44895 
  -44896   -44894   -44894   -44896   -44895   -44896   -44896   -44892 
  -44894   -44895   -44894   -44896   -44896   -44894   -44894   -44894 
  -44894   -44896   -44895   -44895   -44895   -44895   -44894   -44895 
  -44894   -44894   -44894   -44894   -44894   -44896   -44896   -44895 
  -44894   -44896   -44898   -44895   -44895   -44898   -44896   -44894 
  -44896   -44896   -44895   -44895   -44895   -44896   -44895   -44892 
  -44895   -44899   -44895   -44898   -44899   -44895   -44892   -44894 
  -44894   -44894   -44898   -44896   -44892   -44895   -44898   -44895 
  -44894   -44896   -44894   -44894   -44896   -44895   -44894   -44898 
  -44899   -44896   -44896   -44896   -44894   -44894   -44898   -44898 
  -44896   -44898   -44896   -44895   -44895   -44895   -44894   -44895 
  -44896   -44898   -44895   -44894   -44894   -44895   -44898   -44895 
  -44892   -44895   -44896   -44895   -44894   -44894   -44896   -44895 
  -44895   -44896   -44895   -44895   -44898   -44896   -44895   -44896 
  -44898   -44898   -44895   -44894   -44895   -44896   -44896   -44896 
  -44895   -44894   -44894   -44895   -44898   -44895   -44894   -44894 
  -44894   -44896   -44896   -44894   -44892   -44894   -44895   -44895 
  -44894   -44892   -44894   -44896   -44895   -44892   -44895   -44896 
  -44895   -44896   -44896   -44894   -44895   -44898   -44894   -44891 
  -44895   -44898   -44895   -44895   -44896   -44895   -44895   -44896 
  -44896   -44895   -44895   -44895   -44895   -44896   -44899   -44896 
  -44894   -44895   -44896   -44895   -44894   -44895   -44896   -44895 
  -44896   -44899   -44895   -44892   -44895   -44896   -44896   -44901 
  -44909   -44925   -44955   -44990   -45044   -45157   -45281   -45289 
  -45141   -44856   -44446   -44184   -44415   -44886   -45161   -45199 
  -44914   -44593   -44689   -44667   -44529   -44790   -44666   -44269 
  -44373   -44473   -44914   -45565   -45378   -45496   -46117   -45777 
  -45077   -44517   -43995   -44419   -45199   -45179   -45083   -45242 
  -45104   -44944   -44992   -44901   -44443   -44118   -44560   -45044 
  -45081   -45000   -44400   -43961   -44664   -45342   -45384   -45430 
  -45220   -44670   -44197   -44034   -44675   -45557   -45677   -45300 
  -44821   -44591   -44725   -45087   -45639   -45490   -44674   -44487 
  -44714   -44899   -45087   -44906   -44608   -44423   -44532   -45102 
  -45436   -45238   -44734   -44369   -44531   -44755   -45127   -45743 
  -45570   -44845   -44448   -44265   -44517   -44967   -45060   -45142 
  -45034   -44795   -45027   -45057   -44639   -44791   -45138   -44845 
  -44479   -44460   -44936   -45512   -45150   -44671   -45006   -45246 
  -45173   -45249   -45087   -44432   -44150   -44498   -44721   -44979 
  -45239   -45087   -44825   -44597   -44581   -44772   -45027   -45292 
  -45191   -44983   -44744   -44301   -44550   -45279   -45408   -45242 
  -44729   -44161   -44841   -45657   -45177   -44601   -44774   -45009 
  -44824   -44656   -44837   -44919   -45041   -45331   -44991   -44734 
  -45289   -45343   -44830   -44598   -44612   -44725   -44502   -44521 
  -45477   -45677   -44741   -44351   -44355   -44209   -44342   -45046 
  -45682   -45523   -45508   -45570   -44641   -44014   -44551   -44757 
  -44363   -44730   -45288   -45019   -45227   -45895   -45436   -44625 
  -44444   -44197   -44193   -44949   -45372   -45017   -44960   -45580 
  -45733   -44840   -44554   -45204   -44539   -43583   -44355   -44423 
  -43849   -45384   -46407   -45453   -45594   -45604   -43896   -43599 
  -44709   -45045   -45252   -45225   -44918   -45436   -45932   -45334 
  -44220   -43632   -43880   -44433   -44953   -45418   -46021   -46342 
  -45328   -43753   -43533   -44325   -44508   -44597   -45382   -45663 
  -45210   -45293   -45698   -45052   -44285   -45018   -45009   -43740 
  -44618   -45800   -44572   -44234   -45476   -45786   -45478   -45153 
  -44501   -43966   -44093   -44652   -44892   -44928   -45303   -45489 
  -45003   -44612   -44795   -44636   -44192   -44778   -45709   -45476 
  -44791   -44914   -45154   -44806   -45076   -45711   -44768   -43378 
  -43945   -45346   -45573   -45400   -45474   -45199   -44780   -44301 
  -44064   -44437   -44467   -44339   -45175   -45891   -45504   -44895 
  -44381   -44281   -45126   -45706   -45129   -44682   -44878   -44811 
  -44707   -44790   -44791   -44999   -45364   -45507   -44892   -44251 
  -44751   -45021   -44521   -44861   -45613   -45234   -44467   -44595 
  -45052   -45216   -45037   -44867   -45214   -45162   -44373   -44154 
  -44992   -45495   -44932   -44703   -44612   -44101   -44571   -45144 
  -44811   -44918   -44853   -44150   -44510   -45582   -45665   -44921 
  -44811   -45561   -45802   -45276   -44876   -45036   -45245   -44847 
  -44340   -43876   -43448   -43945   -45125   -45740   -45392   -44817 
  -44558   -44837   -46206   -47063   -45468   -43710   -43653   -43783 
  -43876   -44733   -45766   -45686   -44259   -43568   -44660   -45526 
  -45365   -45235   -45512   -46099   -46406   -46063   -45377   -44159 
  -43197   -43745   -44730   -44809   -44131   -43191   -43213   -44740 
  -46024   -46496   -46859   -46489   -45621   -44820   -43848   -43729 
  -45111   -46360   -45812   -44424   -43873   -43561   -43173   -43398 
  -43816   -44706   -46261   -46882   -46063   -44961   -44352   -44054 
  -43795   -44602   -46396   -46421   -44790   -44115   -43956   -44205 
  -45597   -46403   -46178   -45677   -44293   -42958   -43231   -44211 
  -45408   -46849   -46685   -45272   -44448   -43768   -43825   -45148 
  -45758   -45010   -44231   -44227   -44840   -45327   -44967   -43934 
  -43362   -44172   -46002   -46907   -45301   -43830   -45121   -45805 
  -44737   -45122   -45609   -44671   -44716   -45706   -45904   -45615 
  -45237   -44382   -43854   -44518   -45149   -45044   -44734   -43669 
  -42696   -43600   -45281   -46010   -45666   -44685   -43513   -43016 
  -44014   -45639   -46484   -46129   -45215   -45142   -45785   -45779 
  -44729   -43648   -44219   -45369   -44761   -44128   -44967   -45362 
  -45277   -45481   -44952   -44898   -46172   -45843   -44420   -44820 
  -45077   -43893   -43642   -44601   -45426   -45871   -46020   -45554 
  -44323   -43471   -44019   -44982   -45316   -45446   -45226   -43970 
  -42946   -43407   -44243   -44706   -45993   -47524   -46971   -45603 
  -44879   -43150   -41921   -43856   -46481   -47128   -46863   -46033 
  -44203   -43185   -43614   -44242   -44969   -45470   -45752   -46152 
  -45571   -44701   -44532   -43821   -43749   -44980   -44722   -43935 
  -44722   -45117   -44697   -44898   -45607   -45873   -45114   -44371 
  -44356   -44381   -44973   -46171   -46129   -45038   -44423   -43826 
  -43325   -44014   -45106   -45584   -45986   -46084   -45006   -43328 
  -42398   -43719   -46410   -46884   -45481   -45050   -45040   -44555 
  -44172   -44348   -45314   -45906   -45044   -44424   -45010   -45230 
  -44864   -44640   -44640   -44860   -44859   -45122   -46172   -46197 
  -44753   -44031   -43996   -43918   -44834   -45715   -45110   -44338 
  -44309   -44680   -45166   -45110   -44473   -44244   -44697   -45148 
  -45176   -45335   -45952   -45927   -45137   -44896   -44915   -44620 
  -44720   -44668   -43911   -44020   -45250   -45634   -45091   -45145 
  -45485   -45168   -44720   -44477   -44390   -44852   -44994   -44375 
  -44128   -43970   -44293   -45968   -46705   -45778   -44949   -44284 
  -44192   -44707   -44616   -44793   -45770   -45720   -44370   -43907 
  -44720   -44865   -44656   -45164   -45411   -45470   -45415   -44720 
  -44922   -45589   -44647   -43827   -44356   -44559   -44655   -45377 
  -45489   -44659   -44471   -45202   -45084   -44487   -44933   -44936 
  -43964   -44120   -45168   -45635   -45646   -45461   -45202   -44799 
  -44251   -44253   -44670   -44925   -45314   -45715   -45445   -44653 
  -44209   -44300   -44285   -44267   -44687   -45285   -45736   -45715 
  -45391   -45002   -44239   -43984   -44757   -45280   -45241   -45092 
  -44815   -44532   -44539   -44879   -44892   -44934   -45794   -45981 
  -45218   -45316   -45531   -44614   -43834   -44011   -44578   -45076 
  -45253   -45118   -44892   -44670   -44459   -44366   -44581   -45063 
  -45484   -45393   -44969   -44915   -45034   -44782   -44309   -44193 
  -44882   -45773   -45936   -45322   -44502   -44150   -44286   -44729 
  -45279   -45295   -45220   -45400   -44670   -43598   -43880   -44891 
  -45225   -44964   -44959   -45299   -45261   -44610   -44262   -44984 
  -45598   -45153   -44856   -44921   -44567   -44550   -45103   -45034 
  -44470   -44640   -45118   -45015   -44992   -45104   -44861   -45014 
  -45461   -44910   -44147   -44883   -45805   -45134   -44390   -44674 
  -44659   -44288   -44479   -44959   -45145   -44938   -44883   -45069 
  -44946   -44968   -45435   -45673   -45441   -44934   -44481   -44356 
  -44409   -44490   -44699   -45150   -45505   -45435   -45308   -44960 
  -44377   -44702   -45357   -45049   -44640   -44598   -44513   -44491 
  -44456   -44659   -45052   -44946   -44844   -44987   -44624   -44413 
  -44914   -45239   -45135   -45006   -45049   -45045   -44907   -45139 
  -45549   -45592   -45399   -45004   -44527   -44533   -44977   -45107 
  -44759   -44444   -44339   -44362   -44635   -45164   -45507   -45189 
  -44614   -44636   -45202   -45509   -45353   -45121   -44469   -43498 
  -43699   -44724   -44950   -45036   -45470   -45411   -45308   -45173 
  -44281   -43888   -44791   -45598   -45557   -45138   -44902   -44888 
  -44597   -44269   -44420   -44674   -44906   -44948   -44393   -44267 
  -45111   -45738   -45765   -45639   -45517   -45157   -44450   -44165 
  -44240   -43912   -44194   -45543   -46148   -45617   -45416   -45624 
  -45245   -44659   -44821   -44925   -44470   -44527   -44780   -44539 
  -44340   -44443   -44883   -45339   -45414   -45382   -45252   -44869 
  -44232   -43545   -43610   -44601   -45554   -45839   -45569   -44861 
  -44358   -44768   -45061   -44567   -44559   -44936   -44636   -44608 
  -45342   -45596   -45449   -45806   -46113   -45501   -44460   -44011 
  -44216   -44412   -44394   -44662   -45104   -44959   -44518   -44431 
  -44772   -45350   -45349   -44798   -44523   -44394   -44626   -45210 
  -45241   -45110   -45277   -45106   -44851   -45073   -45210   -44821 
  -44464   -44523   -44593   -44697   -45126   -45283   -45125   -45292 
  -45300   -44828   -44717   -45272   -45530   -44934   -44494   -44568 
  -44527   -44632   -44972   -45254   -45328   -44840   -44433   -44821 
  -45233   -45098   -44807   -44747   -44848   -44760   -44550   -44512 
  -44698   -45139   -45349   -45104   -45103   -45134   -44672   -44228 
  -44199   -44556   -44982   -44890   -44617   -44948   -45532   -45760 
  -45632   -45161   -44587   -44305   -44394   -44714   -44953   -44982 
  -44853   -44810   -45104   -45117   -44770   -44977   -45193   -44577 
  -44027   -44267   -44717   -44875   -44923   -44960   -44779   -44658 
  -44925   -45114   -45135   -45156   -44797   -44559   -45030   -45546 
  -45578   -45208   -44868   -44761   -44528   -44570   -45162   -45314 
  -44964   -44959   -44933   -44568   -44521   -44756   -44853   -45049 
  -45377   -45492   -45222   -44697   -44385   -44400   -44528   -44864 
  -45133   -45015   -44975   -45173   -45276   -45164   -44864   -44536 
  -44278   -44324   -44837   -45158   -45094   -45180   -45054   -44586 
  -44466   -44649   -45002   -45501   -45480   -44946   -44748   -45110 
  -45268   -44784   -44602   -44903   -44656   -44254   -44612   -45226 
  -45360   -45214   -45139   -44929   -44695   -44909   -45119   -44760 
  -44343   -44315   -44632   -45189   -45424   -45106   -44809   -44649 
  -44585   -44902   -45021   -44558   -44458   -44923   -45218   -45100 
  -44734   -44608   -44834   -44959   -45018   -44988   -44620   -44501 
  -44911   -45150   -45245   -45589   -45652   -45121   -44545   -44320 
  -44327   -44597   -45218   -45519   -45192   -44892   -44597   -44332 
  -44701   -45150   -45181   -45297   -45168   -44581   -44583   -45233 
  -45507   -45158   -44521   -43988   -44049   -44724   -45260   -45141 
  -44844   -44884   -45072   -45067   -44887   -44652   -44373   -44354 
