Origin Time       2021/08/14 22:38:00
Lat.              37.5
Long.             137.2
Depth. (km)       10
Mag.              4.1
Station Code      ISKH04
Station Lat.      37.1902
Station Long.     136.7176
Station Height(m) 56
Record Time       2021/08/14 22:38:24
Sampling Freq(Hz) 100Hz
Duration Time(s)  120
Dir.              4
Scale Factor      7845(gal)/8223790
Max. Acc. (gal)   1.282
Last Correction   2021/08/14 22:38:24
Memo.             
[...]
  -11087   -11088   -11090   -11087   -11091   -11095   -11091   -11084 
  -11091   -11098   -11091   -11088   -11097   -11092   -11083   -11088 
  -11097   -11091   -11087   -11092   -11091   -11086   -11091   -11095 
  -11090   -11088   -11092   -11091   -11088   -11094   -11094   -11086 
  -11087   -11092   -11088   -11087   -11094   -11094   -11087   -11091 
  -11094   -11084   -11084   -11097   -11094   -11086   -11090   -11091 
  -11088   -11092   -11095   -11088   -11087   -11091   -11092   -11090 
  -11094   -11097   -11087   -11086   -11095   -11094   -11088   -11091 
  -11091   -11087   -11088   -11092   -11092   -11090   -11091   -11091 
  -11087   -11088   -11094   -11090   -11084   -11094   -11095   -11084 
  -11087   -11094   -11088   -11087   -11094   -11092   -11086   -11092 
  -11098   -11088   -11086   -11094   -11090   -11087   -11097   -11097 
  -11086   -11088   -11098   -11091   -11088   -11095   -11090   -11083 
  -11091   -11097   -11090   -11091   -11095   -11088   -11084   -11094 
  -11098   -11090   -11090   -11092   -11086   -11087   -11099   -11097 
  -11086   -11087   -11091   -11087   -11091   -11099   -11094   -11083 
  -11086   -11091   -11088   -11091   -11099   -11094   -11086   -11090 
  -11092   -11088   -11092   -11095   -11087   -11084   -11095   -11094 
  -11087   -11091   -11097   -11088   -11084   -11095   -11094   -11084 
  -11092   -11097   -11083   -11084   -11098   -11094   -11087   -11092 
  -11094   -11087   -11087   -11097   -11095   -11086   -11088   -11094 
  -11088   -11091   -11098   -11090   -11083   -11090   -11094   -11090 
  -11091   -11097   -11094   -11087   -11090   -11091   -11091   -11097 
  -11095   -11084   -11087   -11098   -11092   -11084   -11091   -11094 
  -11084   -11086   -11098   -11095   -11090   -11092   -11091   -11087 
  -11092   -11095   -11086   -11086   -11092   -11090   -11087   -11094 
  -11094   -11087   -11090   -11095   -11092   -11088   -11092   -11092 
  -11086   -11088   -11094   -11090   -11088   -11094   -11091   -11084 
  -11090   -11094   -11088   -11088   -11092   -11090   -11088   -11091 
  -11091   -11090   -11091   -11091   -11087   -11090   -11098   -11094 
  -11088   -11092   -11091   -11086   -11091   -11097   -11091   -11087 
  -11091   -11091   -11084   -11090   -11098   -11091   -11086   -11091 
  -11090   -11083   -11082   -11082   -11079   -11086   -11099   -11103 
  -11098   -11099   -11105   -11101   -11084   -11059   -11047   -11063 
  -11091   -11101   -11095   -11087   -11079   -11068   -11060   -11071 
  -11092   -11092   -11074   -11080   -11142   -11232   -11250   -11159 
  -11044   -11005   -11047   -11086   -11082   -11075   -11067   -11106 
  -11225   -11253   -11118   -10989   -10951   -10968   -10989   -10993 
  -11053   -11172   -11198   -11138   -11155   -11199   -11152   -11074 
  -11016   -10968   -10970   -11001   -11017   -11071   -11156   -11175 
  -11156   -11142   -11067   -11020   -11099   -11195   -11242   -11221 
  -11091   -11005   -11051   -11098   -11118   -11144   -11109   -11007 
  -10929   -10967   -11125   -11241   -11226   -11142   -11018   -10932 
  -10970   -11043   -11082   -11092   -11052   -11013   -11060   -11153 
  -11210   -11221   -11180   -11068   -10952   -10929   -10989   -11056 
  -11122   -11203   -11257   -11254   -11211   -11119   -11011   -10963 
  -10978   -11034   -11128   -11186   -11164   -11137   -11121   -11055 
  -11020   -11082   -11137   -11121   -11082   -11060   -11072   -11097 
  -11099   -11087   -11056   -11022   -11038   -11084   -11106   -11106 
  -11076   -11040   -11064   -11095   -11075   -11079   -11115   -11082 
  -11006   -10971   -11001   -11098   -11196   -11218   -11198   -11161 
  -11099   -11080   -11114   -11134   -11134   -11133   -11140   -11157 
  -11132   -11070   -11055   -11047   -10998   -11043   -11152   -11142 
  -11064   -11013   -10951   -10940   -10990   -11010   -11065   -11182 
  -11215   -11183   -11180   -11126   -11026   -11006   -11018   -11026 
  -11110   -11194   -11194   -11190   -11200   -11194   -11211   -11195 
  -11087   -11001   -10994   -11025   -11086   -11124   -11086   -11040 
  -11037   -11022   -10980   -10959   -10953   -10979   -11082   -11194 
  -11218   -11130   -11003   -10957   -10997   -11053   -11111   -11133 
  -11122   -11156   -11202   -11211   -11210   -11169   -11092   -11059 
  -11048   -11036   -11083   -11175   -11229   -11202   -11109   -11028 
  -11007   -11010   -11063   -11178   -11219   -11119   -10993   -10929 
  -10933   -11001   -11068   -11068   -11060   -11094   -11109   -11117 
  -11183   -11219   -11167   -11132   -11128   -11076   -11041   -11078 
  -11099   -11038   -10922   -10833   -10910   -11152   -11321   -11307 
  -11254   -11157   -10990   -10953   -11053   -11087   -11092   -11119 
  -11087   -11078   -11117   -11067   -11041   -11163   -11211   -11126 
  -11068   -11010   -10947   -10987   -11057   -11134   -11253   -11252 
  -11107   -11045   -11074   -11055   -11055   -11128   -11159   -11148 
  -11137   -11071   -10999   -11017   -11065   -11095   -11146   -11198 
  -11187   -11130   -11061   -11017   -11048   -11105   -11118   -11109 
  -11076   -11014   -10984   -11030   -11106   -11151   -11118   -11029 
  -10991   -11028   -11024   -11005   -11057   -11114   -11129   -11148 
  -11138   -11091   -11080   -11097   -11107   -11148   -11180   -11126 
  -11041   -11030   -11068   -11079   -11056   -11036   -11052   -11125 
  -11209   -11245   -11253   -11226   -11132   -11043   -11022   -11040 
  -11063   -11076   -11078   -11105   -11128   -11063   -10975   -10997 
  -11102   -11180   -11190   -11142   -11057   -10941   -10864   -10944 
  -11097   -11118   -11038   -11007   -11024   -11049   -11133   -11269 
  -11356   -11329   -11218   -11078   -10975   -10967   -11052   -11141 
  -11144   -11090   -11072   -11097   -11126   -11161   -11167   -11122 
  -11053   -10974   -10957   -11061   -11156   -11152   -11140   -11130 
  -11086   -11067   -11072   -11067   -11049   -10979   -10925   -10997 
  -11113   -11176   -11194   -11175   -11137   -11094   -11033   -11003 
  -11041   -11083   -11105   -11152   -11187   -11124   -10986   -10928 
  -11016   -11130   -11175   -11156   -11101   -11074   -11113   -11172 
  -11190   -11149   -11092   -11072   -11075   -11091   -11113   -11103 
  -11079   -11038   -10998   -11045   -11146   -11190   -11176   -11148 
  -11105   -11064   -11018   -10926   -10864   -10962   -11095   -11119 
  -11151   -11199   -11122   -11026   -11047   -11088   -11144   -11240 
  -11244   -11167   -11134   -11134   -11151   -11184   -11180   -11142 
  -11117   -11068   -10945   -10833   -10849   -10918   -10935   -10967 
  -11036   -11088   -11153   -11199   -11169   -11128   -11080   -11002 
  -11018   -11146   -11256   -11317   -11300   -11175   -11052   -11017 
  -11040   -11074   -11079   -11053   -11045   -11072   -11122   -11172 
  -11191   -11182   -11167   -11142   -11097   -11040   -11003   -11040 
  -11107   -11124   -11129   -11126   -11061   -10948   -10841   -10828 
  -10953   -11118   -11238   -11290   -11218   -11101   -11079   -11145 
  -11222   -11237   -11148   -11025   -10949   -10943   -11002   -11072 
  -11102   -11126   -11165   -11176   -11133   -11037   -10937   -10922 
  -10994   -11107   -11210   -11221   -11178   -11140   -11086   -11057 
  -11057   -11001   -10991   -11065   -11067   -11070   -11173   -11215 
  -11146   -11079   -11036   -11021   -11049   -11090   -11133   -11164 
  -11164   -11180   -11199   -11153   -11070   -10979   -10930   -11028 
  -11192   -11200   -11055   -10951   -10949   -11006   -11110   -11225 
  -11303   -11307   -11221   -11090   -10972   -10886   -10871   -10963 
  -11152   -11310   -11273   -11121   -11021   -10956   -10951   -11064 
  -11140   -11074   -11029   -11075   -11080   -11064   -11130   -11182 
  -11141   -11105   -11098   -11086   -11103   -11132   -11110   -11060 
  -11017   -10994   -11045   -11200   -11341   -11303   -11157   -11079 
  -11044   -11005   -11028   -11082   -11109   -11132   -11090   -11010 
  -11037   -11092   -11057   -11036   -11028   -10978   -11037   -11199 
  -11229   -11114   -11001   -10952   -11016   -11124   -11110   -11041 
  -11080   -11155   -11219   -11296   -11244   -11071   -10986   -11001 
  -11018   -11044   -11065   -11067   -11105   -11168   -11183   -11130 
  -11033   -10949   -10955   -11044   -11178   -11275   -11244   -11119 
  -11009   -10978   -11053   -11211   -11321   -11230   -10989   -10795 
  -10787   -10979   -11221   -11344   -11323   -11172   -10944   -10821 
  -10910   -11098   -11230   -11215   -11065   -10999   -11083   -11115 
  -11107   -11153   -11119   -11036   -11038   -11063   -11094   -11213 
  -11292   -11232   -11117   -10959   -10821   -10891   -11094   -11226 
  -11249   -11168   -11016   -10956   -11090   -11268   -11296   -11163 
  -10983   -10868   -10902   -11111   -11371   -11511   -11493   -11398 
  -11313   -11286   -11288   -11249   -11145   -10989   -10768   -10542 
  -10485   -10694   -10997   -11173   -11145   -10921   -10708   -10758 
  -11026   -11321   -11473   -11334   -10964   -10669   -10682   -11001 
  -11450   -11730   -11620   -11180   -10632   -10334   -10581   -11153 
  -11581   -11661   -11313   -10608   -10060   -10095   -10601   -11362 
  -12070   -12194   -11655   -10914   -10369   -10404   -11149   -11993 
  -12283   -11944   -11155   -10400   -10314   -10844   -11419   -11654 
  -11391   -10794   -10366   -10323   -10567   -11129   -11862   -12285 
  -12147   -11596   -10982   -10698   -10840   -11145   -11345   -11253 
  -10816   -10350   -10274   -10550   -10959   -11389   -11534   -11207 
  -10767   -10578   -10654   -10952   -11288   -11364   -11202   -10968 
  -10727   -10666   -10874   -11083   -11161   -11241   -11310   -11317 
  -11319   -11327   -11308   -11234   -11086   -10998   -11105   -11322 
  -11489   -11518   -11376   -11169   -11036   -10955   -10918   -10987 
  -11052   -10994   -10964   -11074   -11163   -11140   -11005   -10793 
  -10778   -11103   -11502   -11676   -11473   -10967   -10602   -10694 
  -11056   -11381   -11448   -11161   -10744   -10478   -10431   -10571 
  -10791   -10990   -11190   -11381   -11488   -11485   -11371   -11200 
  -11078   -11038   -11026   -11025   -11087   -11129   -11074   -11092 
  -11226   -11291   -11318   -11325   -11171   -11032   -11113   -11234 
  -11315   -11391   -11281   -11005   -10791   -10613   -10509   -10671 
  -10970   -11217   -11408   -11458   -11317   -11070   -10822   -10779 
  -11082   -11503   -11650   -11389   -10937   -10590   -10563   -10895 
  -11296   -11353   -11033   -10713   -10728   -11090   -11484   -11543 
  -11248   -10906   -10855   -11176   -11541   -11512   -11090   -10627 
  -10439   -10621   -10975   -11161   -11060   -10879   -10901   -11249 
  -11749   -11963   -11637   -10979   -10454   -10431   -10893   -11483 
  -11796   -11593   -11033   -10585   -10519   -10756   -11091   -11313 
  -11276   -11009   -10720   -10623   -10771   -11065   -11317   -11327 
  -11111   -10957   -10976   -11018   -11115   -11325   -11430   -11329 
  -11198   -11132   -11076   -10993   -10906   -10916   -11098   -11349 
  -11512   -11565   -11554   -11461   -11295   -11151   -11022   -10849 
  -10736   -10800   -10994   -11196   -11269   -11137   -10930   -10848 
  -10910   -11044   -11245   -11462   -11530   -11358   -11045   -10791 
  -10741   -10836   -10897   -10906   -10902   -10790   -10642   -10686 
  -10886   -11083   -11260   -11353   -11334   -11329   -11319   -11259 
  -11236   -11171   -10959   -10747   -10662   -10806   -11190   -11465 
  -11341   -11024   -10833   -10858   -11086   -11438   -11658   -11485 
  -10987   -10539   -10461   -10752   -11126   -11341   -11383   -11238 
  -10947   -10810   -11026   -11425   -11772   -11901   -11704   -11307 
  -11011   -10997   -11256   -11578   -11634   -11364   -11016   -10709 
  -10481   -10509   -10779   -10995   -10986   -10790   -10575   -10509 
  -10584   -10800   -11133   -11288   -11132   -10935   -10859   -10889 
  -11064   -11319   -11479   -11456   -11333   -11334   -11468   -11450 
  -11214   -10974   -10849   -10876   -11072   -11261   -11245   -11099 
  -11018   -11072   -11281   -11583   -11734   -11574   -11252   -10983 
  -10790   -10662   -10648   -10710   -10802   -10918   -10974   -10854 
  -10578   -10407   -10620   -11115   -11485   -11489   -11178   -10786 
  -10611   -10816   -11323   -11873   -12174   -12083   -11670   -11142 
  -10783   -10852   -11287   -11654   -11593   -11119   -10534   -10199 
  -10242   -10476   -10716   -10939   -11117   -11238   -11367   -11485 
  -11469   -11294   -11132   -11144   -11244   -11222   -11044   -10778 
  -10484   -10345   -10486   -10751   -10960   -11082   -11138   -11230 
  -11425   -11608   -11680   -11686   -11712   -11792   -11815   -11643 
  -11362   -11105   -10963   -11048   -11234   -11206   -10960   -10682 
  -10427   -10314   -10458   -10654   -10724   -10773   -10804   -10773 
  -10831   -10986   -11057   -11052   -11032   -10947   -10859   -10841 
  -10867   -11022   -11345   -11668   -11865   -11890   -11700   -11377 
  -11079   -10909   -10843   -10785   -10740   -10779   -10885   -11075 
  -11434   -11916   -12263   -12202   -11757   -11191   -10697   -10431 
  -10554   -10939   -11240   -11267   -11060   -10747   -10427   -10216 
  -10258   -10559   -10971   -11394   -11703   -11761   -11650   -11534 
  -11411   -11245   -11013   -10709   -10494   -10598   -11034   -11584 
  -11975   -11989   -11545   -10800   -10081    -9747    -9960   -10512 
  -10990   -11178   -11200   -11244   -11287   -11275   -11241   -11180 
  -11082   -11007   -11010   -11137   -11372   -11577   -11657   -11604 
  -11396   -11088   -10831   -10693   -10692   -10825   -10991   -11110 
  -11195   -11241   -11246   -11230   -11171   -11142   -11233   -11340 
  -11342   -11238   -11124   -11214   -11545   -11819   -11765   -11341 
  -10710   -10235   -10203   -10512   -10858   -10994   -10804   -10457 
  -10292   -10450   -10909   -11553   -12042   -12094   -11788   -11344 
  -10905   -10593   -10497   -10574   -10714   -10860   -10974   -11014 
  -10989   -10930   -10943   -11159   -11512   -11827   -12008   -11947 
  -11673   -11418   -11196   -10898   -10632   -10474   -10404   -10547 
  -10863   -11086   -11163   -11213   -11272   -11367   -11423   -11269 
  -10966   -10759   -10783   -11047   -11431   -11608   -11341   -10832 
  -10474   -10469   -10808   -11269   -11502   -11391   -11136   -10929 
  -10883   -11088   -11450   -11668   -11531   -11103   -10671   -10519 
  -10700   -11094   -11468   -11611   -11566   -11507   -11450   -11373 
  -11276   -11084   -10787   -10543   -10493   -10629   -10866   -11117 
  -11292   -11283   -11057   -10723   -10474   -10476   -10751   -11168 
  -11557   -11811   -11834   -11595   -11263   -11064   -11022   -11017 
  -10987   -10924   -10841   -10804   -10856   -10947   -10972   -10860 
  -10646   -10458   -10485   -10824   -11360   -11865   -12148   -12097 
  -11762   -11330   -11003   -10879   -10872   -10835   -10714   -10547 
  -10451   -10584   -10924   -11215   -11284   -11223   -11192   -11241 
  -11371   -11541   -11604   -11454   -11160   -10858   -10670   -10679 
  -10860   -11124   -11330   -11325   -11159   -11115   -11330   -11658 
  -11911   -11948   -11704   -11290   -10901   -10658   -10632   -10812 
  -11011   -11036   -10916   -10764   -10589   -10417   -10381   -10498 
  -10693   -10940   -11152   -11205   -11175   -11203   -11268   -11338 
  -11403   -11391   -11275   -11132   -11036   -11025   -11076   -11107 
  -11052   -10924   -10822   -10836   -10918   -11006   -11126   -11234 
  -11277   -11329   -11391   -11383   -11340   -11325   -11350   -11402 
  -11377   -11203   -10964   -10785   -10739   -10822   -10909   -10909 
  -10894   -10905   -10945   -11065   -11202   -11263   -11318   -11381 
  -11349   -11238   -11102   -10944   -10864   -10936   -11024   -11057 
  -11105   -11114   -11044   -11029   -11103   -11134   -11086   -11045 
  -11051   -11075   -11126   -11183   -11200   -11196   -11173   -11101 
  -11001   -10909   -10843   -10868   -11022   -11192   -11227   -11132 
  -11064   -11152   -11358   -11558   -11627   -11496   -11246   -11049 
  -10975   -10968   -10940   -10856   -10766   -10720   -10755   -10863 
  -10957   -10966   -10926   -10886   -10833   -10778   -10777   -10894 
  -11105   -11304   -11415   -11387   -11215   -11030   -10975   -11060 
  -11213   -11341   -11389   -11369   -11333   -11337   -11402   -11480 
  -11512   -11472   -11364   -11210   -11067   -10964   -10891   -10860 
  -10893   -10964   -11010   -10976   -10868   -10735   -10663   -10751 
  -10970   -11184   -11276   -11187   -10994   -10876   -10916   -11037 
  -11122   -11088   -10939   -10766   -10697   -10814   -11080   -11358 
  -11531   -11573   -11516   -11425   -11346   -11315   -11334   -11362 
  -11331   -11227   -11080   -10932   -10833   -10797   -10789   -10824 
  -10920   -11014   -11070   -11141   -11221   -11233   -11175   -11102 
  -11030   -10976   -10971   -11013   -11065   -11076   -11020   -10929 
  -10887   -10949   -11057   -11122   -11138   -11110   -11040   -11007 
  -11067   -11178   -11296   -11361   -11303   -11165   -11048   -10967 
  -10952   -11056   -11210   -11294   -11283   -11221   -11156   -11124 
  -11121   -11148   -11199   -11209   -11129   -11010   -10913   -10858 
  -10867   -10949   -11068   -11186   -11250   -11223   -11145   -11095 
  -11115   -11184   -11244   -11230   -11103   -10906   -10720   -10593 
  -10551   -10625   -10787   -10967   -11125   -11233   -11269   -11264 
  -11275   -11337   -11433   -11485   -11438   -11317   -11199   -11149 
  -11157   -11165   -11137   -11036   -10862   -10724   -10741   -10886 
  -11063   -11225   -11341   -11361   -11283   -11149   -11007   -10925 
  -10945   -11033   -11144   -11246   -11252   -11128   -10975   -10871 
  -10789   -10736   -10773   -10894   -11006   -11064   -11119   -11202 
  -11298   -11396   -11465   -11462   -11399   -11313   -11213   -11115 
  -11033   -10939   -10852   -10855   -10936   -11013   -11029   -10964 
  -10847   -10778   -10829   -10975   -11159   -11327   -11392   -11341 
  -11257   -11203   -11202   -11245   -11280   -11234   -11078   -10876 
  -10739   -10714   -10789   -10924   -11051   -11114   -11149   -11205 
  -11252   -11265   -11245   -11151   -10998   -10913   -10970   -11097 
  -11229   -11319   -11296   -11178   -11071   -11049   -11130   -11264 
  -11330   -11261   -11113   -10990   -10978   -11051   -11092   -11059 
  -10989   -10912   -10905   -11033   -11215   -11322   -11304   -11184 
  -11029   -10909   -10866   -10929   -11084   -11246   -11346   -11368 
  -11272   -11090   -10937   -10878   -10918   -11034   -11146   -11205 
  -11190   -11088   -10986   -10974   -11001   -11020   -11028   -11007 
  -10987   -11018   -11065   -11101   -11138   -11151   -11094   -11009 
  -10960   -10952   -10991   -11109   -11233   -11245   -11155   -11028 
  -10912   -10879   -10957   -11071   -11160   -11210   -11207   -11191 
  -11229   -11299   -11338   -11315   -11226   -11088   -10962   -10914 
  -10959   -11037   -11092   -11103   -11071   -11025   -11003   -11006 
  -11013   -11028   -11036   -11029   -11053   -11087   -11087   -11102 
  -11164   -11227   -11248   -11211   -11136   -11067   -11044   -11078 
