Origin Time       2021/08/14 22:38:00
Lat.              37.5
Long.             137.2
Depth. (km)       10
Mag.              4.1
Station Code      ISKH03
Station Lat.      37.3458
Station Long.     137.2436
Station Height(m) 19
Record Time       2021/08/14 22:38:11
Sampling Freq(Hz) 100Hz
Duration Time(s)  120
Dir.              6
Scale Factor      3920(gal)/6170801
Max. Acc. (gal)   5.176
Last Correction   2021/08/14 22:37:56
Memo.             
[...]
  -22443   -22443   -22444   -22443   -22442   -22442   -22441   -22443 
  -22446   -22443   -22439   -22440   -22444   -22446   -22445   -22445 
  -22443   -22441   -22442   -22442   -22441   -22443   -22445   -22444 
  -22446   -22446   -22443   -22442   -22442   -22440   -22441   -22441 
  -22441   -22442   -22444   -22445   -22447   -22447   -22442   -22442 
  -22442   -22442   -22441   -22440   -22444   -22446   -22443   -22444 
  -22448   -22445   -22440   -22440   -22442   -22442   -22443   -22443 
  -22441   -22444   -22447   -22443   -22440   -22440   -22440   -22440 
  -22443   -22446   -22446   -22445   -22445   -22443   -22442   -22444 
  -22442   -22442   -22445   -22444   -22443   -22445   -22444   -22441 
  -22444   -22445   -22443   -22444   -22445   -22443   -22443   -22444 
  -22443   -22442   -22441   -22442   -22442   -22443   -22445   -22445 
  -22443   -22442   -22444   -22445   -22442   -22442   -22444   -22444 
  -22444   -22445   -22444   -22443   -22443   -22443   -22443   -22443 
  -22443   -22443   -22444   -22446   -22445   -22442   -22441   -22441 
  -22440   -22440   -22440   -22441   -22442   -22443   -22444   -22444 
  -22443   -22442   -22441   -22441   -22443   -22443   -22441   -22442 
  -22443   -22442   -22445   -22444   -22442   -22442   -22442   -22443 
  -22444   -22443   -22443   -22443   -22444   -22443   -22442   -22443 
  -22444   -22443   -22442   -22443   -22445   -22444   -22442   -22442 
  -22443   -22442   -22443   -22443   -22443   -22444   -22446   -22444 
  -22441   -22441   -22443   -22443   -22444   -22445   -22443   -22441 
  -22443   -22446   -22444   -22443   -22443   -22443   -22446   -22445 
  -22441   -22444   -22444   -22442   -22445   -22444   -22442   -22443 
  -22443   -22444   -22445   -22445   -22443   -22443   -22444   -22443 
  -22444   -22446   -22444   -22442   -22443   -22445   -22445   -22443 
  -22443   -22443   -22440   -22444   -22447   -22443   -22441   -22445 
  -22445   -22444   -22444   -22445   -22444   -22441   -22442   -22444 
  -22444   -22444   -22441   -22439   -22441   -22443   -22442   -22443 
  -22445   -22445   -22443   -22441   -22442   -22444   -22444   -22443 
  -22443   -22442   -22442   -22443   -22443   -22442   -22444   -22444 
  -22442   -22441   -22443   -22443   -22441   -22442   -22444   -22441 
  -22439   -22443   -22443   -22442   -22444   -22444   -22443   -22442 
  -22442   -22442   -22441   -22440   -22441   -22442   -22443   -22443 
  -22445   -22445   -22438   -22440   -22444   -22440   -22440   -22443 
  -22441   -22442   -22441   -22439   -22441   -22442   -22442   -22441 
  -22440   -22443   -22445   -22443   -22441   -22442   -22440   -22439 
  -22444   -22444   -22440   -22441   -22443   -22444   -22443   -22442 
  -22443   -22441   -22440   -22446   -22447   -22442   -22441   -22444 
  -22442   -22441   -22444   -22443   -22441   -22444   -22444   -22442 
  -22443   -22444   -22442   -22441   -22443   -22444   -22441   -22442 
  -22444   -22443   -22443   -22443   -22443   -22445   -22444   -22441 
  -22441   -22443   -22444   -22445   -22445   -22444   -22443   -22445 
  -22445   -22443   -22442   -22443   -22445   -22446   -22444   -22443 
  -22444   -22445   -22446   -22442   -22441   -22444   -22444   -22443 
  -22444   -22441   -22440   -22445   -22444   -22441   -22441   -22439 
  -22439   -22443   -22444   -22442   -22441   -22442   -22442   -22442 
  -22443   -22443   -22441   -22440   -22441   -22443   -22445   -22443 
  -22441   -22439   -22440   -22443   -22444   -22443   -22443   -22444 
  -22443   -22442   -22443   -22441   -22439   -22441   -22443   -22442 
  -22443   -22443   -22443   -22443   -22444   -22444   -22442   -22442 
  -22444   -22445   -22443   -22441   -22443   -22443   -22441   -22442 
  -22443   -22440   -22438   -22441   -22443   -22443   -22444   -22444 
  -22444   -22445   -22444   -22443   -22442   -22440   -22440   -22442 
  -22444   -22442   -22441   -22444   -22445   -22444   -22445   -22445 
  -22443   -22444   -22443   -22443   -22443   -22443   -22443   -22445 
  -22445   -22443   -22442   -22441   -22442   -22444   -22444   -22443 
  -22442   -22442   -22443   -22444   -22443   -22440   -22440   -22443 
  -22444   -22442   -22442   -22446   -22445   -22442   -22442   -22442 
  -22442   -22443   -22441   -22442   -22443   -22443   -22442   -22441 
  -22442   -22443   -22442   -22442   -22443   -22442   -22442   -22444 
  -22444   -22443   -22444   -22443   -22441   -22443   -22443   -22443 
  -22444   -22442   -22441   -22443   -22444   -22444   -22443   -22441 
  -22443   -22443   -22441   -22442   -22444   -22445   -22445   -22444 
  -22443   -22442   -22443   -22442   -22443   -22445   -22443   -22440 
  -22443   -22443   -22443   -22444   -22443   -22444   -22444   -22442 
  -22443   -22446   -22444   -22442   -22443   -22444   -22444   -22444 
  -22442   -22442   -22442   -22442   -22443   -22445   -22445   -22444 
  -22444   -22443   -22443   -22443   -22442   -22443   -22444   -22444 
  -22445   -22444   -22444   -22442   -22441   -22444   -22443   -22442 
  -22443   -22443   -22443   -22444   -22442   -22439   -22441   -22442 
  -22441   -22443   -22444   -22441   -22440   -22442   -22446   -22445 
  -22443   -22445   -22444   -22443   -22445   -22444   -22442   -22445 
  -22446   -22444   -22445   -22444   -22443   -22444   -22445   -22445 
  -22446   -22444   -22442   -22445   -22446   -22443   -22443   -22445 
  -22444   -22444   -22444   -22443   -22442   -22442   -22443   -22444 
  -22444   -22444   -22445   -22445   -22444   -22445   -22446   -22444 
  -22446   -22446   -22444   -22444   -22446   -22444   -22444   -22444 
  -22444   -22446   -22446   -22442   -22443   -22445   -22444   -22444 
  -22444   -22445   -22446   -22447   -22447   -22447   -22444   -22444 
  -22444   -22444   -22445   -22445   -22444   -22444   -22445   -22445 
  -22443   -22444   -22445   -22443   -22442   -22443   -22444   -22443 
  -22443   -22444   -22445   -22445   -22444   -22443   -22445   -22445 
  -22444   -22443   -22443   -22442   -22444   -22445   -22444   -22443 
  -22443   -22442   -22443   -22444   -22444   -22442   -22442   -22444 
  -22444   -22444   -22444   -22444   -22444   -22444   -22441   -22441 
  -22443   -22442   -22443   -22443   -22443   -22444   -22443   -22442 
  -22444   -22444   -22443   -22443   -22444   -22443   -22442   -22442 
  -22443   -22446   -22445   -22443   -22442   -22443   -22444   -22443 
  -22443   -22446   -22445   -22442   -22443   -22444   -22443   -22442 
  -22443   -22443   -22444   -22443   -22441   -22442   -22446   -22446 
  -22446   -22446   -22444   -22445   -22446   -22443   -22442   -22445 
  -22445   -22444   -22443   -22443   -22444   -22447   -22448   -22447 
  -22445   -22444   -22445   -22447   -22446   -22445   -22447   -22446 
  -22444   -22444   -22446   -22445   -22444   -22445   -22448   -22446 
  -22444   -22446   -22446   -22445   -22446   -22446   -22443   -22444 
  -22445   -22444   -22445   -22445   -22445   -22445   -22444   -22444 
  -22444   -22443   -22443   -22443   -22442   -22445   -22448   -22446 
  -22444   -22446   -22446   -22443   -22443   -22445   -22443   -22441 
  -22444   -22444   -22444   -22446   -22444   -22444   -22444   -22443 
  -22443   -22443   -22443   -22445   -22446   -22445   -22444   -22446 
  -22445   -22443   -22444   -22443   -22444   -22446   -22445   -22445 
  -22447   -22446   -22445   -22445   -22444   -22444   -22445   -22445 
  -22446   -22447   -22445   -22445   -22445   -22444   -22444   -22443 
  -22443   -22445   -22446   -22444   -22444   -22445   -22447   -22446 
  -22444   -22444   -22444   -22445   -22446   -22444   -22443   -22445 
  -22445   -22444   -22444   -22446   -22446   -22446   -22445   -22445 
  -22445   -22446   -22446   -22445   -22445   -22447   -22446   -22444 
  -22445   -22445   -22445   -22447   -22447   -22444   -22445   -22447 
  -22446   -22445   -22445   -22445   -22444   -22446   -22447   -22447 
  -22446   -22445   -22446   -22447   -22444   -22444   -22445   -22443 
  -22443   -22446   -22444   -22444   -22446   -22445   -22444   -22446 
  -22445   -22444   -22443   -22444   -22447   -22448   -22446   -22444 
  -22442   -22443   -22445   -22445   -22446   -22447   -22446   -22445 
  -22445   -22446   -22447   -22445   -22443   -22446   -22447   -22445 
  -22444   -22445   -22444   -22443   -22444   -22447   -22448   -22444 
  -22441   -22443   -22447   -22446   -22444   -22444   -22445   -22446 
  -22445   -22443   -22443   -22445   -22448   -22448   -22446   -22446 
  -22445   -22443   -22442   -22445   -22446   -22445   -22443   -22445 
  -22446   -22445   -22444   -22444   -22444   -22445   -22445   -22444 
  -22446   -22447   -22445   -22444   -22443   -22444   -22444   -22444 
  -22445   -22446   -22446   -22446   -22445   -22444   -22443   -22444 
  -22445   -22447   -22445   -22442   -22445   -22446   -22444   -22445 
  -22445   -22446   -22446   -22444   -22444   -22444   -22444   -22444 
  -22444   -22442   -22442   -22445   -22445   -22442   -22444   -22446 
  -22446   -22445   -22445   -22446   -22444   -22443   -22443   -22444 
  -22447   -22446   -22444   -22442   -22443   -22444   -22445   -22445 
  -22446   -22444   -22444   -22446   -22445   -22444   -22443   -22445 
  -22446   -22446   -22445   -22445   -22445   -22445   -22445   -22446 
  -22445   -22446   -22447   -22444   -22444   -22447   -22448   -22446 
  -22445   -22447   -22447   -22446   -22445   -22445   -22445   -22445 
  -22444   -22444   -22445   -22447   -22448   -22445   -22444   -22445 
  -22445   -22445   -22446   -22444   -22444   -22448   -22449   -22446 
  -22445   -22446   -22446   -22445   -22445   -22447   -22445   -22444 
  -22443   -22445   -22447   -22446   -22446   -22445   -22445   -22445 
  -22444   -22445   -22446   -22444   -22444   -22446   -22447   -22445 
  -22444   -22444   -22445   -22444   -22443   -22444   -22445   -22445 
  -22445   -22446   -22445   -22445   -22444   -22445   -22446   -22445 
  -22447   -22447   -22445   -22444   -22444   -22445   -22446   -22445 
  -22445   -22444   -22443   -22444   -22444   -22446   -22447   -22444 
  -22443   -22444   -22446   -22447   -22447   -22446   -22446   -22445 
  -22446   -22446   -22446   -22447   -22447   -22445   -22446   -22448 
  -22447   -22445   -22445   -22445   -22446   -22447   -22447   -22446 
  -22446   -22448   -22457   -22483   -22548   -22660   -22789   -22868 
  -22829   -22684   -22536   -22439   -22289   -22010   -21845   -22124 
  -22612   -22652   -22227   -22000   -22082   -22062   -22054   -22142 
  -22113   -22478   -23096   -22619   -21884   -22760   -23585   -22358 
  -21286   -22408   -23409   -22524   -21980   -22532   -22356   -22322 
  -23146   -22538   -21407   -22798   -24439   -22852   -21008   -22726 
  -24376   -22017   -19945   -21974   -24456   -23771   -21266   -20487 
  -22494   -24016   -22708   -20997   -21529   -23362   -23985   -22393 
  -20625   -21213   -22790   -22734   -22427   -23585   -23529   -21317 
  -21245   -23877   -24018   -21266   -20941   -23473   -24060   -21980 
  -21051   -22623   -23989   -22999   -21111   -20963   -22478   -23303 
  -22749   -22269   -22181   -21729   -21447   -22315   -23539   -23253 
  -21693   -21288   -22943   -24642   -23877   -21474   -20995   -22146 
  -21706   -21405   -23841   -24986   -22326   -21255   -23757   -23814 
  -20580   -20255   -22892   -23134   -21327   -21478   -23116   -23291 
  -22347   -22730   -24097   -23672   -21578   -20740   -21571   -22657 
  -23766   -23655   -21184   -19697   -22342   -25468   -24486   -21363 
  -20256   -21305   -22380   -23021   -23881   -23786   -21773   -21053 
  -23712   -24854   -21507   -19636   -22317   -23663   -21767   -21438 
  -22873   -23102   -22684   -22052   -21285   -22457   -24079   -22241 
  -19516   -20843   -24166   -24971   -23480   -22471   -23126   -23863 
  -22409   -19880   -20363   -23705   -24056   -20859   -20494   -23527 
  -24948   -23562   -21457   -21043   -22859   -24128   -22952   -20922 
  -20358   -21821   -23770   -23975   -22126   -20778   -21815   -23014 
  -22250   -21769   -23050   -23840   -23217   -22535   -22395   -22558 
  -22525   -22025   -21809   -22407   -22655   -21850   -21548   -22315 
  -22665   -22760   -23474   -23429   -22164   -21809   -22799   -22863 
  -21143   -20052   -22152   -25691   -25566   -21507   -19979   -22481 
  -22755   -20532   -21269   -23049   -22125   -22000   -24300   -25053 
  -23516   -22437   -22217   -21907   -21699   -21594   -21328   -21600 
  -22680   -23184   -22640   -22652   -22969   -21953   -21317   -22691 
  -23173   -21321   -21056   -23708   -24813   -23149   -21840   -21618 
  -21923   -22087   -21494   -22542   -25473   -25162   -21420   -20446 
  -22227   -21756   -20505   -21421   -21673   -21082   -23351   -26371 
  -25740   -22666   -20465   -21599   -24832   -23809   -19249   -19859 
  -23996   -22632   -18862   -21310   -25055   -22214   -19554   -23301 
  -26459   -24745   -22794   -23012   -23171   -22517   -22571   -22872 
  -22225   -21520   -20670   -19716   -21166   -23724   -23358   -22433 
  -24430   -24933   -20793   -19218   -24584   -27240   -20691   -15001 
  -18909   -25480   -25205   -21555   -22844   -25156   -21826   -18930 
  -21237   -22921   -22096   -22628   -24109   -25179   -26934   -26127 
  -20073   -16230   -19237   -21903   -20966   -21385   -24359   -26791 
  -26645   -24171   -21683   -20182   -18707   -18078   -18874   -20367 
  -24596   -30592   -29985   -21810   -17328   -20254   -22669   -22027 
  -22064   -22436   -21915   -23465   -26315   -24215   -18400   -17250 
  -21156   -23391   -22840   -22413   -21936   -22141   -24690   -26146 
  -24139   -22903   -24204   -23771   -20098   -17030   -17675   -21521 
  -25414   -25568   -22412   -21565   -25111   -27349   -24565   -21214 
  -21231   -22017   -21556   -21970   -23115   -21801   -18325   -17290 
  -20922   -25018   -24302   -20238   -19134   -22283   -24705   -25049 
  -26531   -27762   -25141   -21283   -20222   -20723   -20869   -21556 
  -22519   -21713   -19893   -20359   -23963   -27481   -26921   -22437 
  -19108   -20498   -23085   -21585   -18271   -19377   -24170   -26864 
  -26094   -24274   -22110   -19647   -19197   -22453   -25308   -22780 
  -19098   -20672   -23535   -22346   -21077   -22962   -23530   -20910 
  -20304   -24018   -26542   -23243   -18925   -21280   -27239   -27299 
  -22087   -19569   -20715   -21799   -22081   -21408   -20185   -21178 
  -24278   -25583   -23821   -21668   -21099   -21462   -22440   -24464 
  -25282   -22757   -20382   -22165   -25064   -23935   -20691   -20747 
  -22197   -19840   -17098   -19495   -23981   -26395   -27669   -28012 
  -26064   -23269   -21428   -19043   -15772   -15628   -20016   -23473 
  -22341   -21077   -23513   -26030   -25534   -24522   -24552   -23858 
  -21897   -20556   -21174   -22255   -21432   -19757   -20300   -22268 
  -22614   -22244   -23417   -24743   -23868   -21511   -21286   -24497 
  -26596   -24095   -20105   -18526   -19378   -21578   -24596   -26304 
  -24606   -21983   -22255   -24379   -25243   -24430   -22383   -19723 
  -18665   -19755   -20838   -21050   -21359   -22709   -24614   -24508 
  -21983   -21074   -23321   -24891   -23781   -22229   -21487   -20802 
  -20680   -22079   -23310   -22411   -21203   -21859   -22693   -22162 
  -22058   -23465   -24579   -24484   -24540   -24458   -22723   -21094 
  -21390   -21483   -20491   -20907   -22918   -23153   -20889   -20317 
  -23032   -25101   -24780   -24152   -23444   -21765   -20479   -20749 
  -21273   -21154   -21119   -21031   -20790   -22048   -24897   -26538 
  -25164   -22069   -19939   -20078   -21067   -20911   -20047   -20411 
  -22523   -25263   -26884   -26189   -24481   -23808   -23520   -22489 
  -21619   -21209   -20225   -19463   -21032   -23938   -24691   -22837 
  -21508   -22078   -22134   -20394   -19618   -21502   -23719   -24694 
  -25632   -26608   -25580   -22759   -21256   -21404   -20814   -20322 
  -21967   -23712   -23278   -22148   -21637   -21344   -22003   -23900 
  -24318   -21242   -17734   -18149   -21402   -23142   -22743   -22685 
  -23361   -23570   -24046   -25581   -25729   -22816   -19998   -20294 
  -22284   -23648   -24052   -23447   -21809   -20831   -21731   -22741 
  -22099   -20539   -19808   -21060   -23540   -25048   -24978   -24425 
  -23331   -20981   -18600   -18136   -19431   -21353   -23281   -24007 
  -23324   -23565   -25457   -26442   -25170   -22767   -20250   -18542 
  -19225   -22532   -25872   -26591   -25050   -23232   -22136   -21628 
  -21625   -21868   -21184   -19873   -20193   -22122   -23350   -23240 
  -22858   -22750   -22793   -22928   -22702   -21510   -20395   -21047 
  -22723   -23310   -22538   -21864   -22366   -23442   -23690   -23118 
  -22807   -22690   -22092   -21556   -21764   -21945   -21770   -22681 
  -24479   -24566   -22626   -21113   -21386   -22834   -24043   -24013 
  -22931   -21449   -20536   -21350   -23019   -23036   -21520   -21279 
  -22705   -22994   -21545   -21148   -22560   -23522   -23289   -23035 
  -23094   -22923   -22240   -21311   -21048   -22026   -23256   -23525 
  -23079   -22700   -22511   -22321   -22320   -22595   -22220   -20937 
  -20463   -21159   -21249   -21238   -22737   -24053   -23616   -23245 
  -23820   -23844   -23028   -22315   -22006   -22285   -23054   -23279 
  -22749   -22442   -22420   -22178   -21908   -21487   -20930   -21569 
  -23423   -23983   -22363   -20967   -21296   -21903   -21982   -22534 
  -23244   -23232   -23314   -23682   -23247   -22502   -22703   -23036 
  -22147   -21154   -21933   -23459   -23604   -22854   -22393   -21804 
  -21165   -21456   -22538   -23567   -24171   -23969   -22877   -21791 
  -21379   -21257   -21179   -21472   -21989   -22190   -22273   -22890 
  -23698   -23641   -22988   -22878   -22844   -21970   -20978   -20624 
  -20914   -21958   -23054   -23039   -22449   -22660   -23332   -23041 
  -22038   -21969   -22649   -22547   -22326   -23273   -24119   -23471 
  -22057   -21117   -21258   -22030   -22091   -21069   -20380   -21397 
  -23440   -24423   -23724   -22853   -22688   -22357   -21712   -21975 
  -22955   -23046   -22371   -22422   -23197   -23498   -23038   -22389 
  -21812   -21254   -20948   -21160   -21628   -22296   -23532   -24415 
  -23803   -22955   -22898   -22328   -21434   -22179   -23472   -22777 
  -21468   -21926   -22969   -22900   -22343   -22405   -23048   -23405 
  -22994   -22209   -21671   -21651   -21949   -22206   -22168   -22009 
  -22355   -22844   -22294   -21207   -20976   -21303   -21422   -21783 
  -22918   -24298   -24656   -23566   -22423   -22662   -23499   -22994 
  -21677   -22141   -23761   -23524   -22161   -22228   -22685   -21697 
  -20681   -21226   -22094   -21869   -21533   -22603   -24235   -24253 
  -22863   -22358   -22958   -22738   -21560   -21117   -21915   -23037 
  -23423   -22571   -21283   -21169   -22373   -23096   -22552   -22175 
  -22800   -23400   -23122   -22189   -21242   -21192   -22256   -23153 
  -23077   -23012   -23469   -23293   -22172   -21497   -21686   -21738 
  -21834   -23175   -24774   -24045   -21523   -20346   -20783   -20780 
  -20610   -21692   -23245   -23969   -24277   -24593   -24117   -22642 
  -21216   -20646   -21157   -22463   -23296   -22757   -21941   -22384 
