Origin Time       2021/08/14 22:38:00
Lat.              37.5
Long.             137.2
Depth. (km)       10
Mag.              4.1
Station Code      ISKH03
Station Lat.      37.3458
Station Long.     137.2436
Station Height(m) 19
Record Time       2021/08/14 22:38:11
Sampling Freq(Hz) 100Hz
Duration Time(s)  120
Dir.              5
Scale Factor      3920(gal)/6170801
Max. Acc. (gal)   10.474
Last Correction   2021/08/14 22:37:56
Memo.             
[...]
   -5814    -5817    -5816    -5813    -5812    -5812    -5812    -5813 
   -5815    -5815    -5813    -5813    -5811    -5811    -5816    -5818 
   -5815    -5812    -5810    -5810    -5811    -5815    -5820    -5820 
   -5815    -5811    -5809    -5807    -5811    -5815    -5818    -5821 
   -5819    -5812    -5810    -5810    -5810    -5813    -5815    -5815 
   -5814    -5815    -5815    -5815    -5816    -5814    -5811    -5810 
   -5811    -5813    -5817    -5818    -5816    -5816    -5814    -5809 
   -5808    -5811    -5812    -5813    -5816    -5818    -5816    -5813 
   -5813    -5814    -5814    -5813    -5812    -5811    -5814    -5816 
   -5815    -5815    -5816    -5813    -5812    -5814    -5814    -5813 
   -5816    -5817    -5816    -5814    -5814    -5813    -5811    -5813 
   -5817    -5816    -5812    -5813    -5814    -5815    -5816    -5816 
   -5815    -5813    -5812    -5813    -5815    -5815    -5816    -5816 
   -5814    -5810    -5810    -5812    -5812    -5812    -5814    -5814 
   -5813    -5814    -5815    -5817    -5816    -5812    -5809    -5810 
   -5812    -5813    -5816    -5815    -5812    -5813    -5811    -5810 
   -5815    -5815    -5811    -5815    -5817    -5814    -5815    -5815 
   -5811    -5811    -5812    -5810    -5810    -5812    -5815    -5818 
   -5819    -5816    -5812    -5811    -5811    -5811    -5814    -5816 
   -5816    -5817    -5816    -5814    -5813    -5809    -5808    -5810 
   -5810    -5813    -5815    -5816    -5819    -5818    -5814    -5813 
   -5812    -5809    -5813    -5817    -5816    -5813    -5812    -5813 
   -5814    -5814    -5814    -5813    -5810    -5810    -5812    -5815 
   -5816    -5817    -5816    -5814    -5813    -5812    -5811    -5812 
   -5814    -5815    -5814    -5813    -5811    -5809    -5811    -5814 
   -5815    -5815    -5813    -5810    -5811    -5812    -5812    -5815 
   -5815    -5813    -5814    -5816    -5816    -5812    -5812    -5814 
   -5811    -5811    -5812    -5810    -5815    -5820    -5819    -5815 
   -5814    -5813    -5812    -5813    -5815    -5818    -5816    -5815 
   -5814    -5814    -5814    -5813    -5812    -5812    -5811    -5812 
   -5813    -5812    -5812    -5814    -5815    -5814    -5814    -5813 
   -5811    -5811    -5813    -5815    -5816    -5817    -5814    -5814 
   -5817    -5815    -5813    -5816    -5814    -5810    -5813    -5815 
   -5812    -5814    -5816    -5813    -5813    -5813    -5811    -5810 
   -5813    -5814    -5814    -5814    -5812    -5812    -5812    -5813 
   -5814    -5814    -5813    -5814    -5814    -5812    -5813    -5814 
   -5814    -5814    -5813    -5814    -5815    -5811    -5812    -5817 
   -5815    -5812    -5814    -5815    -5811    -5812    -5818    -5818 
   -5816    -5818    -5815    -5812    -5813    -5812    -5811    -5813 
   -5813    -5811    -5812    -5816    -5815    -5813    -5813    -5812 
   -5813    -5812    -5812    -5814    -5815    -5814    -5813    -5811 
   -5813    -5813    -5812    -5812    -5812    -5812    -5815    -5815 
   -5814    -5816    -5815    -5814    -5813    -5814    -5814    -5814 
   -5815    -5815    -5814    -5814    -5815    -5813    -5813    -5816 
   -5815    -5814    -5815    -5816    -5815    -5815    -5815    -5815 
   -5815    -5813    -5813    -5815    -5815    -5812    -5811    -5812 
   -5812    -5813    -5815    -5815    -5817    -5817    -5815    -5815 
   -5820    -5820    -5814    -5812    -5814    -5813    -5815    -5815 
   -5812    -5813    -5814    -5814    -5814    -5814    -5813    -5811 
   -5812    -5815    -5816    -5816    -5815    -5814    -5814    -5812 
   -5811    -5813    -5813    -5812    -5813    -5813    -5813    -5812 
   -5812    -5813    -5813    -5814    -5814    -5812    -5813    -5813 
   -5811    -5811    -5811    -5812    -5814    -5814    -5813    -5813 
   -5814    -5816    -5817    -5815    -5812    -5811    -5812    -5812 
   -5811    -5811    -5812    -5812    -5811    -5812    -5812    -5813 
   -5813    -5814    -5816    -5814    -5813    -5815    -5815    -5813 
   -5813    -5811    -5810    -5811    -5813    -5813    -5813    -5812 
   -5812    -5815    -5816    -5815    -5815    -5817    -5816    -5814 
   -5814    -5814    -5815    -5814    -5813    -5813    -5815    -5814 
   -5811    -5813    -5815    -5813    -5815    -5816    -5813    -5813 
   -5815    -5815    -5817    -5815    -5810    -5811    -5813    -5813 
   -5812    -5812    -5815    -5815    -5813    -5816    -5818    -5817 
   -5816    -5815    -5813    -5815    -5816    -5814    -5814    -5815 
   -5814    -5812    -5812    -5812    -5813    -5814    -5813    -5813 
   -5815    -5816    -5816    -5817    -5816    -5814    -5813    -5812 
   -5811    -5811    -5813    -5813    -5812    -5812    -5812    -5812 
   -5815    -5815    -5812    -5813    -5815    -5815    -5816    -5818 
   -5817    -5817    -5814    -5811    -5813    -5814    -5812    -5811 
   -5813    -5814    -5811    -5809    -5812    -5812    -5810    -5811 
   -5812    -5811    -5812    -5814    -5817    -5817    -5814    -5815 
   -5817    -5814    -5813    -5814    -5811    -5811    -5812    -5811 
   -5811    -5810    -5809    -5811    -5812    -5814    -5814    -5812 
   -5812    -5812    -5813    -5814    -5813    -5813    -5815    -5815 
   -5814    -5815    -5814    -5811    -5811    -5814    -5814    -5811 
   -5812    -5812    -5811    -5813    -5815    -5814    -5814    -5813 
   -5813    -5814    -5812    -5811    -5813    -5814    -5815    -5816 
   -5815    -5812    -5812    -5814    -5815    -5815    -5815    -5814 
   -5815    -5813    -5811    -5812    -5813    -5813    -5814    -5816 
   -5817    -5815    -5813    -5814    -5814    -5814    -5816    -5814 
   -5813    -5814    -5816    -5816    -5816    -5815    -5813    -5813 
   -5813    -5813    -5812    -5812    -5813    -5814    -5815    -5816 
   -5815    -5813    -5814    -5812    -5810    -5812    -5813    -5812 
   -5813    -5814    -5815    -5817    -5815    -5811    -5811    -5814 
   -5814    -5814    -5816    -5815    -5812    -5813    -5815    -5815 
   -5816    -5815    -5814    -5813    -5812    -5812    -5811    -5812 
   -5816    -5814    -5811    -5813    -5814    -5813    -5812    -5813 
   -5815    -5816    -5815    -5816    -5815    -5810    -5808    -5810 
   -5813    -5814    -5813    -5811    -5810    -5810    -5812    -5813 
   -5813    -5812    -5814    -5814    -5813    -5811    -5811    -5813 
   -5813    -5814    -5814    -5814    -5814    -5813    -5811    -5811 
   -5813    -5811    -5811    -5814    -5813    -5813    -5814    -5813 
   -5812    -5814    -5813    -5813    -5813    -5813    -5813    -5812 
   -5812    -5813    -5813    -5813    -5814    -5813    -5815    -5818 
   -5815    -5811    -5814    -5813    -5811    -5813    -5815    -5816 
   -5816    -5814    -5813    -5813    -5813    -5814    -5815    -5817 
   -5817    -5813    -5810    -5812    -5814    -5814    -5814    -5814 
   -5813    -5815    -5815    -5813    -5814    -5815    -5815    -5816 
   -5815    -5813    -5815    -5816    -5814    -5812    -5813    -5814 
   -5815    -5815    -5816    -5816    -5814    -5812    -5813    -5815 
   -5816    -5814    -5813    -5815    -5814    -5812    -5812    -5815 
   -5815    -5811    -5810    -5813    -5816    -5816    -5814    -5813 
   -5812    -5811    -5812    -5813    -5813    -5813    -5812    -5812 
   -5813    -5813    -5814    -5816    -5816    -5814    -5811    -5812 
   -5815    -5815    -5813    -5814    -5815    -5813    -5811    -5812 
   -5814    -5815    -5813    -5814    -5816    -5814    -5812    -5813 
   -5815    -5814    -5814    -5815    -5814    -5812    -5813    -5812 
   -5810    -5814    -5816    -5813    -5812    -5813    -5811    -5812 
   -5814    -5816    -5816    -5814    -5812    -5814    -5815    -5813 
   -5813    -5815    -5815    -5813    -5814    -5813    -5812    -5810 
   -5810    -5812    -5814    -5814    -5813    -5813    -5813    -5815 
   -5816    -5813    -5812    -5815    -5816    -5816    -5817    -5814 
   -5812    -5813    -5815    -5814    -5813    -5813    -5814    -5814 
   -5811    -5812    -5817    -5817    -5815    -5814    -5813    -5812 
   -5813    -5816    -5817    -5815    -5814    -5814    -5813    -5812 
   -5813    -5815    -5815    -5815    -5814    -5813    -5815    -5815 
   -5811    -5812    -5815    -5814    -5814    -5817    -5818    -5816 
   -5813    -5813    -5813    -5812    -5812    -5813    -5814    -5812 
   -5812    -5814    -5814    -5813    -5812    -5814    -5813    -5811 
   -5813    -5814    -5814    -5817    -5816    -5812    -5811    -5814 
   -5816    -5816    -5813    -5813    -5815    -5815    -5815    -5815 
   -5814    -5814    -5814    -5812    -5812    -5814    -5814    -5815 
   -5816    -5815    -5814    -5813    -5812    -5814    -5814    -5814 
   -5815    -5813    -5811    -5812    -5813    -5812    -5812    -5813 
   -5813    -5814    -5813    -5814    -5814    -5812    -5813    -5814 
   -5814    -5814    -5815    -5815    -5812    -5810    -5811    -5812 
   -5812    -5812    -5812    -5812    -5813    -5812    -5811    -5812 
   -5814    -5812    -5811    -5814    -5815    -5813    -5815    -5816 
   -5813    -5814    -5816    -5816    -5814    -5812    -5812    -5812 
   -5811    -5812    -5813    -5813    -5813    -5812    -5812    -5814 
   -5816    -5815    -5814    -5814    -5812    -5813    -5814    -5814 
   -5814    -5814    -5812    -5808    -5810    -5812    -5811    -5810 
   -5813    -5814    -5815    -5815    -5813    -5812    -5815    -5814 
   -5813    -5815    -5814    -5811    -5813    -5815    -5813    -5812 
   -5812    -5812    -5812    -5812    -5813    -5811    -5810    -5814 
   -5816    -5814    -5814    -5814    -5812    -5813    -5813    -5812 
   -5812    -5814    -5814    -5813    -5814    -5814    -5812    -5811 
   -5811    -5811    -5812    -5813    -5813    -5814    -5814    -5816 
   -5815    -5811    -5811    -5814    -5813    -5812    -5812    -5813 
   -5815    -5816    -5813    -5812    -5813    -5814    -5814    -5813 
   -5811    -5813    -5816    -5816    -5815    -5814    -5813    -5813 
   -5813    -5813    -5814    -5815    -5815    -5814    -5813    -5812 
   -5813    -5814    -5810    -5812    -5816    -5814    -5813    -5814 
   -5812    -5813    -5817    -5816    -5816    -5818    -5818    -5814 
   -5814    -5815    -5814    -5814    -5815    -5814    -5813    -5813 
   -5813    -5814    -5816    -5817    -5815    -5812    -5812    -5813 
   -5813    -5813    -5814    -5816    -5815    -5813    -5813    -5812 
   -5810    -5812    -5815    -5815    -5816    -5820    -5823    -5824 
   -5816    -5802    -5795    -5801    -5817    -5818    -5794    -5782 
   -5821    -5867    -5846    -5798    -5839    -5943    -5974    -5906 
   -5795    -5662    -5563    -5578    -5641    -5723    -6018    -6344 
   -6180    -5869    -5983    -5904    -5359    -5345    -5866    -5893 
   -5606    -5682    -5806    -5808    -6029    -6038    -5417    -5085 
   -5669    -6215    -6046    -5887    -6226    -6344    -5669    -4788 
   -4760    -6001    -7076    -6388    -5479    -5902    -5986    -5264 
   -5356    -5943    -6034    -6152    -6553    -6490    -5800    -5434 
   -5715    -5891    -5648    -5080    -4635    -5063    -6101    -6639 
   -6147    -5368    -5498    -6421    -6756    -6088    -5546    -5565 
   -5433    -5262    -5677    -6434    -7041    -7173    -6383    -4655 
   -3161    -3724    -6129    -7615    -6998    -5943    -5601    -5691 
   -5915    -5898    -5517    -5508    -5819    -5614    -5606    -6596 
   -7297    -6613    -5323    -4574    -4606    -5095    -5778    -6382 
   -6574    -6010    -4993    -4995    -6213    -6642    -5991    -6111 
   -6836    -6510    -5551    -5196    -5169    -5383    -6148    -6292 
   -5251    -4753    -5691    -6578    -5959    -4484    -4155    -5452 
   -6605    -6609    -6231    -5869    -5771    -6459    -6841    -6177 
   -6315    -7610    -7618    -5915    -4628    -4666    -5185    -5072 
   -4066    -3632    -4855    -6246    -6597    -6982    -7482    -6418 
   -4376    -3716    -4351    -5354    -7214    -8639    -8029    -7301 
   -7226    -6089    -4972    -5244    -5454    -5157    -4940    -4482 
   -4076    -4285    -4968    -5792    -6154    -5819    -5639    -6447 
   -7530    -7445    -6658    -6464    -6195    -5394    -5071    -5073 
   -4924    -5532    -7007    -7759    -6941    -5633    -4750    -4074 
   -3676    -3622    -4041    -5578    -7163    -7232    -6842    -6883 
   -6515    -6258    -6877    -7130    -6546    -5850    -4748    -4089 
   -5346    -6456    -5667    -5423    -6655    -6885    -5686    -4930 
   -4840    -4612    -4680    -5316    -5563    -5138    -5044    -5962 
   -7239    -7582    -7034    -7199    -8131    -7487    -4923    -3385 
   -3820    -4269    -4847    -6628    -7866    -7169    -5779    -4595 
   -3569    -3602    -5433    -7474    -8043    -7788    -6897    -4910 
   -3818    -4666    -5183    -5151    -6052    -6332    -5304    -5822 
   -7763    -7669    -6077    -5829    -6379    -6203    -4863    -3221 
   -4263    -7280    -7284    -5195    -5879    -7533    -5959    -3542 
   -4064    -5452    -5443    -6180    -7886    -8071    -7188    -6671 
   -6252    -5923    -5786    -6042    -7026    -7785    -7658    -7363 
   -7868    -9176    -9483    -8435    -7341    -4846     -329     3558 
    5463     4554     -632    -7429   -10652    -9987    -7531    -1663 
    5801     6292    -1563   -10122   -16882   -22301   -21169   -12023 
   -2622     1576     1086    -3503    -9681   -12385   -10504    -6064 
    -238     3835     2709    -2023    -6813    -9745    -9841    -7773 
   -5677    -6043    -9336   -11628   -10387    -8570    -7657    -5716 
   -3230    -2167    -2233    -2459    -2475    -1925    -1828    -4491 
   -9826   -14122   -14600   -12573    -9808    -6027    -2502    -1589 
   -2150    -3063    -5401    -6361    -2506     2875     5426     5068 
    1944    -4177   -10235   -12626   -12111   -10431    -6814    -3373 
   -5529   -12361   -17326   -18989   -19396   -16791    -9774    -1898 
    3421     6453     7157     3995    -2016    -7804   -10744    -8435 
   -2076     2366     1974     -961    -5425   -11424   -16589   -19066 
  -18641   -14853    -8801    -3900    -2256    -2560    -2490    -1437 
      -2      931      675      204      111    -2779    -9969   -15927 
  -16085   -12493    -7433    -1827     1478      934    -1572    -4373 
   -6903    -7664    -5343    -1397      289    -3127   -10341   -16698 
  -18318   -15989   -13538   -11783    -8400    -3573       -6     1687 
    2867     3496     2272    -1003    -5097    -8070    -8276    -6446 
   -5046    -4386    -3282    -3022    -5650   -10395   -14810   -16505 
  -13533    -6427      252     1559    -2555    -8102   -12231   -14531 
  -14214    -9955    -3479      536      407     -761     -835     -547 
      97     1662     3459     4181     2016    -4364   -12539   -17706 
  -18537   -16617   -12376    -7373    -5020    -6052    -8479   -10119 
   -9214    -5835    -1984      -31    -1464    -5252    -8881   -10813 
   -9498    -4135     1720     3015     -613    -5954   -10832   -14111 
  -14030    -9947    -4038      590     2155      970    -1141    -3097 
   -4963    -6320    -7393    -9543   -11962   -12298   -10589    -8285 
   -6275    -5331    -5104    -4482    -3856    -4101    -4910    -5592 
   -5866    -5760    -5398    -4669    -2740      367     1446    -2439 
   -9023   -13970   -15833   -14509    -9867    -4175     -490     1279 
    2169     1026    -2875    -7608   -10860   -11997   -11539    -9939 
   -7298    -4106    -1847    -1983    -4280    -7090    -8753    -8299 
   -6274    -4453    -3772    -3858    -4402    -5163    -5298    -4691 
   -4613    -5753    -7681    -9638   -10162    -8434    -5479    -2205 
     487      524    -2500    -6418    -9732   -11850   -11432    -8119 
   -4584    -3911    -5513    -6516    -6139    -5522    -5172    -4938 
   -4560    -3953    -3727    -4471    -6240    -8605   -10125    -9612 
   -7932    -6301    -4321    -1435     1369     2376      866    -2465 
   -6315    -9587   -11700   -12574   -12470   -11817   -11066   -10138 
   -8471    -6088    -3397     -672     1006      447    -1918    -4842 
   -7096    -7264    -5218    -2877    -2144    -3279    -5294    -7208 
   -8824    -9873    -9259    -6932    -5075    -5426    -7506   -10091 
  -11805   -11156    -7960    -3998    -1756    -2180    -3674    -4309 
   -3982    -3376    -2698    -2427    -3645    -6302    -8626    -9670 
  -10119    -9619    -6869    -2693      453     1396      386    -2236 
   -5825    -8813    -9868    -9230    -7893    -6529    -5989    -7224 
   -9755   -11657   -11359    -8766    -5297    -2916    -2495    -3249 
   -3736    -3390    -3007    -3402    -4346    -5344    -6204    -6531 
   -6079    -5288    -4609    -4257    -4622    -5827    -7391    -8719 
   -9319    -9033    -8291    -7548    -6723    -5545    -4252    -3469 
   -3455    -4020    -4661    -4662    -4057    -3924    -4791    -6027 
   -7376    -9006   -10346   -10969   -10954    -9766    -7148    -4015 
   -1463     -219     -178     -287      -11      181     -197    -1508 
   -3998    -7380   -10971   -13953   -15741   -16069   -14427   -10875 
   -7248    -5571    -5869    -6667    -6749    -5681    -3407     -490 
    1734     2233     1043    -1295    -4208    -6757    -7996    -7964 
   -7340    -6741    -6665    -7158    -7963    -8992    -9852    -9928 
   -9152    -7760    -5976    -4293    -3301    -3407    -4547    -5695 
   -5332    -3308    -1316     -404     -215     -943    -2811    -4915 
   -6812    -8596    -9623    -9959   -10874   -12293   -12671   -11380 
   -9118    -6879    -5457    -5137    -5097    -3855    -1387      678 
    1585     1500       19    -2645    -5149    -6656    -7144    -7165 
   -7710    -8984   -10244   -10964   -10933    -9876    -7829    -5513 
   -3844    -2963    -2638    -3356    -5258    -7100    -7768    -7076 
   -5086    -2486     -784    -1174    -3517    -6182    -7402    -7213 
   -6938    -7248    -7982    -8686    -8622    -7308    -5118    -3249 
   -3071    -5010    -8262   -11503   -13324   -12825   -10230    -6510 
   -2751      234     2052     2532     1886      740     -748    -2882 
   -5323    -7219    -8335    -9224   -10534   -12435   -14289   -14797 
  -13295   -10513    -7252    -3794    -1081     -243     -757    -1138 
   -1027    -1029    -1391    -2081    -3553    -6125    -8919   -10834 
  -11518   -10701    -8594    -6465    -5010    -3846    -3311    -4171 
   -5692    -6563    -6739    -6581    -6017    -5296    -4875    -4851 
   -4964    -4845    -4711    -5257    -6342    -7021    -6858    -5827 
   -4082    -2870    -3477    -5337    -7379    -9531   -11333   -11510 
   -9786    -7327    -5318    -4063    -3416    -3280    -3330    -3226 
   -3229    -3723    -4805    -6169    -6783    -6348    -5968    -5863 
   -5597    -6042    -7398    -8141    -7942    -7891    -8062    -7656 
   -6428    -4876    -3668    -2729    -1529     -640    -1323    -3484 
   -5842    -7678    -9029    -9807    -9824    -9327    -8691    -7787 
   -6591    -5718    -5272    -4513    -3348    -2591    -2561    -2807 
   -3231    -4378    -6225    -7723    -8155    -7827    -7179    -6280 
