Origin Time       2021/08/14 22:38:00
Lat.              37.5
Long.             137.2
Depth. (km)       10
Mag.              4.1
Station Code      ISKH02
Station Lat.      37.3644
Station Long.     137.0413
Station Height(m) 121
Record Time       2021/08/14 22:38:11
Sampling Freq(Hz) 100Hz
Duration Time(s)  120
Dir.              5
Scale Factor      7845(gal)/8223790
Max. Acc. (gal)   3.145
Last Correction   2021/08/14 22:38:11
Memo.             
[...]
    8664     8664     8662     8664     8664     8661     8660     8662 
    8662     8660     8661     8665     8664     8662     8662     8664 
    8667     8661     8658     8662     8664     8662     8662     8664 
    8662     8661     8662     8661     8662     8668     8664     8661 
    8664     8661     8658     8662     8664     8664     8661     8658 
    8662     8667     8667     8662     8660     8662     8665     8661 
    8660     8665     8664     8662     8664     8662     8661     8665 
    8665     8664     8665     8664     8661     8664     8665     8665 
    8664     8665     8662     8658     8661     8662     8660     8661 
    8665     8664     8658     8660     8665     8664     8661     8662 
    8661     8660     8662     8664     8664     8664     8662     8661 
    8661     8664     8661     8660     8665     8662     8660     8661 
    8661     8661     8664     8662     8661     8664     8665     8660 
    8661     8668     8664     8660     8665     8667     8664     8661 
    8661     8665     8664     8661     8664     8665     8665     8661 
    8658     8662     8665     8662     8664     8665     8664     8660 
    8661     8665     8662     8658     8661     8664     8660     8660 
    8664     8662     8662     8667     8662     8660     8664     8662 
    8661     8662     8664     8664     8661     8661     8665     8665 
    8667     8665     8662     8662     8661     8661     8664     8664 
    8662     8664     8664     8662     8661     8661     8661     8662 
    8662     8660     8660     8662     8661     8660     8661     8665 
    8662     8660     8662     8662     8662     8665     8662     8658 
    8664     8662     8660     8662     8665     8661     8658     8662 
    8668     8665     8661     8662     8664     8661     8664     8665 
    8660     8660     8662     8662     8665     8667     8660     8658 
    8664     8665     8662     8664     8662     8661     8665     8664 
    8661     8664     8662     8662     8665     8664     8662     8664 
    8660     8661     8665     8667     8664     8662     8660     8661 
    8667     8665     8661     8662     8664     8662     8660     8662 
    8665     8662     8658     8662     8664     8662     8661     8662 
    8665     8662     8660     8664     8664     8660     8661     8665 
    8664     8661     8661     8662     8662     8660     8662     8665 
    8661     8662     8662     8660     8662     8664     8661     8665 
    8662     8657     8662     8668     8664     8662     8664     8662 
    8662     8662     8662     8667     8664     8658     8661     8664 
    8664     8664     8661     8661     8662     8662     8665     8664 
    8660     8660     8664     8664     8665     8665     8661     8662 
    8664     8660     8660     8668     8668     8661     8661     8662 
    8664     8664     8661     8662     8667     8665     8661     8660 
    8662     8661     8662     8668     8667     8660     8661     8664 
    8662     8661     8661     8662     8661     8661     8661     8658 
    8661     8665     8662     8660     8664     8664     8661     8665 
    8668     8660     8657     8662     8661     8662     8665     8660 
    8660     8665     8664     8662     8667     8665     8661     8661 
    8661     8660     8661     8662     8664     8665     8664     8664 
    8662     8661     8664     8664     8662     8664     8665     8664 
    8664     8662     8662     8664     8660     8658     8665     8664 
    8657     8660     8662     8661     8664     8665     8664     8664 
    8660     8658     8664     8665     8661     8658     8660     8661 
    8664     8664     8661     8661     8665     8667     8661     8658 
    8662     8664     8661     8661     8664     8662     8661     8661 
    8660     8660     8664     8664     8660     8661     8664     8664 
    8662     8662     8664     8665     8664     8661     8664     8664 
    8662     8664     8660     8658     8660     8658     8661     8665 
    8660     8658     8662     8665     8664     8662     8661     8662 
    8665     8662     8658     8660     8662     8661     8662     8661 
    8661     8662     8658     8660     8667     8664     8661     8662 
    8660     8660     8664     8661     8660     8661     8660     8661 
    8665     8665     8664     8664     8661     8661     8665     8667 
    8661     8661     8667     8668     8664     8662     8664     8665 
    8664     8662     8660     8664     8665     8661     8662     8664 
    8660     8662     8667     8662     8660     8664     8662     8658 
    8660     8662     8662     8661     8664     8664     8660     8658 
    8664     8668     8662     8657     8658     8662     8665     8664 
    8660     8660     8665     8662     8660     8662     8662     8661 
    8661     8662     8664     8665     8662     8660     8662     8665 
    8667     8665     8660     8658     8665     8665     8661     8661 
    8660     8661     8665     8664     8661     8662     8661     8660 
    8662     8662     8661     8662     8664     8661     8660     8660 
    8662     8664     8662     8662     8664     8661     8658     8660 
    8662     8664     8662     8658     8661     8664     8661     8662 
    8664     8664     8664     8661     8661     8665     8661     8658 
    8664     8661     8654     8660     8665     8660     8660     8658 
    8656     8664     8668     8660     8661     8665     8661     8664 
    8664     8658     8658     8662     8665     8668     8667     8660 
    8658     8662     8664     8664     8664     8661     8661     8662 
    8662     8664     8664     8660     8658     8664     8664     8657 
    8661     8664     8660     8662     8664     8660     8660     8660 
    8661     8661     8660     8660     8662     8664     8664     8662 
    8661     8664     8661     8661     8665     8664     8660     8662 
    8664     8662     8665     8665     8661     8661     8662     8661 
    8662     8667     8667     8661     8658     8662     8664     8662 
    8662     8664     8664     8661     8661     8661     8664     8665 
    8661     8658     8664     8667     8661     8660     8664     8665 
    8662     8662     8661     8661     8662     8664     8662     8662 
    8661     8660     8660     8668     8669     8660     8660     8664 
    8665     8664     8661     8661     8667     8664     8661     8662 
    8662     8662     8658     8660     8667     8664     8660     8661 
    8662     8662     8662     8662     8664     8662     8662     8662 
    8664     8664     8660     8658     8658     8662     8665     8660 
    8660     8667     8665     8661     8661     8664     8664     8661 
    8660     8661     8662     8662     8662     8662     8661     8661 
    8662     8664     8665     8664     8661     8660     8661     8662 
    8662     8660     8661     8665     8664     8661     8660     8662 
    8662     8661     8662     8662     8661     8662     8664     8662 
    8661     8662     8664     8665     8664     8661     8662     8664 
    8660     8662     8667     8660     8658     8665     8662     8661 
    8662     8662     8662     8661     8661     8661     8660     8661 
    8662     8664     8667     8665     8661     8660     8658     8662 
    8668     8662     8658     8662     8661     8657     8661     8667 
    8664     8658     8660     8662     8661     8667     8665     8658 
    8661     8662     8658     8662     8665     8660     8660     8664 
    8664     8664     8664     8662     8661     8664     8668     8661 
    8656     8664     8667     8662     8661     8660     8661     8664 
    8662     8665     8665     8661     8661     8662     8664     8664 
    8662     8661     8661     8662     8665     8665     8664     8658 
    8661     8667     8667     8662     8658     8658     8662     8665 
    8665     8662     8661     8660     8660     8665     8667     8661 
    8660     8665     8665     8662     8664     8665     8661     8660 
    8664     8664     8660     8660     8661     8662     8664     8664 
    8661     8660     8662     8664     8665     8662     8660     8661 
    8664     8665     8664     8661     8660     8661     8664     8667 
    8662     8660     8660     8660     8662     8667     8665     8661 
    8662     8664     8662     8664     8664     8661     8662     8664 
    8662     8664     8668     8664     8658     8661     8668     8667 
    8661     8660     8662     8665     8664     8664     8664     8661 
    8661     8664     8667     8665     8662     8662     8662     8665 
    8667     8661     8660     8664     8662     8660     8661     8661 
    8662     8662     8658     8662     8667     8664     8664     8664 
    8664     8665     8664     8658     8657     8665     8667     8661 
    8660     8661     8662     8665     8667     8667     8664     8658 
    8661     8664     8662     8662     8664     8660     8661     8665 
    8664     8660     8664     8664     8660     8662     8664     8664 
    8664     8660     8660     8667     8665     8662     8661     8661 
    8665     8667     8664     8660     8660     8664     8667     8665 
    8661     8661     8664     8664     8661     8665     8669     8662 
    8658     8662     8664     8665     8664     8660     8660     8662 
    8660     8661     8665     8664     8661     8665     8665     8664 
    8662     8660     8664     8667     8662     8661     8664     8667 
    8664     8660     8664     8662     8660     8662     8664     8664 
    8665     8660     8660     8668     8664     8658     8664     8667 
    8661     8660     8660     8661     8662     8662     8658     8661 
    8665     8664     8658     8664     8668     8664     8661     8664 
    8664     8665     8662     8662     8665     8664     8662     8662 
    8662     8664     8664     8664     8664     8664     8661     8662 
    8664     8664     8664     8664     8662     8658     8660     8664 
    8665     8664     8661     8660     8664     8667     8662     8662 
    8664     8660     8661     8667     8669     8669     8675     8681 
    8692     8703     8725     8758     8746     8638     8518     8487 
    8571     8765     8904     8722     8303     8106     8413     9028 
    9304     8822     8235     8320     8799     9132     9173     8978 
    8700     8283     8051     8650     9340     8885     7933     7857 
    8689     9433     9170     8226     7859     8298     8781     9016 
    8988     8569     8094     8286     9188     9690     9020     8063 
    8087     8968     9459     8962     8232     8047     8455     9097 
    9225     8611     8152     8399     8843     8988     8845     8526 
    8259     8449     8930     8835     8162     8005     8544     8892 
    8843     8748     8658     8648     8789     8881     8700     8434 
    8590     9112     9223     8758     8448     8523     8598     8638 
    8692     8650     8599     8534     8486     8752     9077     8862 
    8318     8120     8583     9221     9047     8284     8024     8407 
    9096     9499     8957     8185     8174     8607     8951     8935 
    8522     8290     8515     8819     8980     8851     8430     8345 
    8845     9036     8634     8419     8502     8602     8892     9059 
    8568     8054     8384     9030     9024     8425     8067     8494 
    9201     9166     8394     8006     8482     9085     9043     8640 
    8706     9040     8829     8383     8475     8839     8849     8513 
    8367     8749     9090     8777     8278     8328     8757     8833 
    8533     8532     8833     8842     8484     8349     8830     9161 
    8603     8128     8594     9015     8727     8513     8580     8437 
    8390     8883     9321     8957     8251     8082     8426     8980 
    9425     9146     8390     8216     8700     8887     8417     8073 
    8402     8723     8544     8629     9181     9182     8541     8205 
    8482     9000     9020     8347     8253     9099     9467     9107 
    8579     7871     7796     8746     9146     8459     8144     8742 
    9462     9486     8559     7749     8364     9462     9040     7790 
    7981     9136     9271     8743     8824     9027     8413     7601 
    7920     9032     9385     8772     8201     8347     9007     9189 
    8725     8468     8449     8533     8856     8866     8546     8560 
    8939     9181     8691     7800     7739     8631     9162     8749 
    8542     9139     9509     9059     8375     8209     8482     8541 
    8503     8872     9092     8557     8127     8527     9132     9215 
    8594     7784     7773     8694     9369     8958     8371     8500 
    8820     8931     8932     8743     8469     8352     8507     8853 
    9061     8829     8456     8718     9190     8754     8019     8101 
    8673     8853     8491     8363     8658     8729     8807     9174 
    9061     8444     8257     8581     8810     8835     8772     8557 
    8363     8575     9057     8974     8202     7911     8619     9337 
    9136     8365     8098     8683     9236     8982     8483     8533 
    8920     9343     9830    10027     9628     9121     9319    10029 
    9863     8406     7103     6984     7570     7769     6972     6014 
    6026     6612     6926     7387     8480     9510    10072    10687 
   11244    10929     9667     8554     8787    10004    10524     9339 
    7213     5903     6342     7901     9321     9868     9552     8738 
    8151     8563     9995    11115    10053     7393     6238     7827 
    9963     9994     7808     5606     5366     7404    10099    11190 
   10300     8841     8033     8032     8766     9725     9381     8388 
    8488     8182     6957     7140     8806    10215    10663    10095 
    8613     7175     7365     9039    10230    10003     8849     7653 
    7414     8089     8402     7843     7631     8789    10223    10282 
    9258     8532     8456     8509     8328     8179     8658     9367 
    9552     9362     8758     7978     7929     8318     8398     8579 
    8928     8804     8303     7715     7284     7655     8787     9709 
    9427     8190     7734     8857    10454    11067    10122     8665 
    8031     8059     8209     8357     8264     8025     8151     8630 
    9055     9238     8942     8309     8144     8475     8559     8370 
    8317     8559     8772     8295     7541     7794     9007     9857 
    9585     8691     8286     8827     9634     9647     8785     8068 
    8224     9045     9706     9547     8868     8441     8434     8664 
    9066     8932     7990     7647     8314     8565     8100     7838 
    8154     8911     9466     9339     9216     9139     8326     7763 
    8453     8862     8013     7560     8413     9155     8799     8095 
    8224     9321     9995     9128     7893     7983     9205    10170 
    9709     8062     6855     6960     7921     8984     9306     8714 
    8333     8959     9855    10038     9498     8777     8203     7894 
    8054     8648     9270     9682     9551     8622     7597     7283 
    7827     8914     9560     9180     8538     8411     8615     8819 
    8915     8652     8131     7944     8321     8814     8788     8401 
    8411     8523     8024     7750     8540     9312     9234     8968 
    8815     8650     8822     9252     9267     8802     8482     8689 
    9366    10037     9769     8345     7321     8051     9180     8812 
    7767     7755     8727     9861    10566    10077     8320     6964 
    7491     8874     9111     7978     7061     7479     8546     9181 
    9151     8718     8363     8363     8409     8347     8421     8522 
    8738     9467     9994     9443     8671     8723     8981     8444 
    7611     7693     8572     9239     9479     9305     8793     8773 
    9120     8839     8230     7889     8028     8826     9288     8758 
    8536     9185     9498     8919     8118     7739     7846     7982 
    7842     7939     8410     8460     8305     8726     9108     8995 
    9049     9252     9135     8857     8576     8611     9209     9412 
    8870     8680     8737     8480     8613     9028     8746     8071 
    7950     8764    10012    10258     9144     8294     8457     8587 
    8218     7894     7700     7620     8133     8955     9192     9036 
    8982     8745     8351     8140     7998     7952     8256     8718 
    9022     9105     8783     8224     8199     8606     8714     8860 
    9394     9675     9293     8754     8845     9369     9269     8436 
    7770     7761     8208     8860     9351     9189     8687     8368 
    8086     8102     8590     8746     8388     8266     8550     8760 
    8679     8532     8541     8773     9096     9207     9040     8868 
    8876     8845     8361     7713     7873     8756     9084     8500 
    7998     8286     9022     9522     9572     9294     8941     8935 
    9167     8932     8225     7824     7944     8156     8382     8731 
    8945     8854     8704     8703     8694     8634     8799     8949 
    8641     8279     8395     8780     9058     9028     8664     8343 
    8446     8792     8953     8716     8266     8068     8257     8510 
    8695     8807     8688     8521     8634     8735     8618     8820 
    9479     9787     9223     8355     8006     8229     8677     9092 
    9005     8472     8357     8746     8847     8494     8154     8131 
    8550     9220     9333     8522     7699     7755     8523     9271 
    9354     8873     8514     8523     8758     8954     8743     8356 
    8279     8434     8677     8958     8964     8714     8671     8815 
    8721     8463     8409     8540     8788     9161     9285     9013 
    8837     8845     8675     8295     7936     7909     8164     8208 
    8137     8444     8841     8878     8850     8912     8711     8526 
    8839     9171     9059     8765     8538     8554     8868     8931 
    8433     8137     8553     9001     8950     8729     8661     8833 
    9078     8908     8430     8347     8623     8646     8475     8681 
    9042     8919     8706     8853     8764     8291     8071     8059 
    7947     8024     8418     8769     8918     9117     9300     9092 
    8672     8441     8538     8892     9053     8822     8540     8421 
    8548     8795     8676     8140     7736     7897     8595     9319 
    9432     8955     8540     8662     9108     9364     9321     9039 
    8673     8617     8696     8446     8259     8487     8596     8320 
    8087     8181     8500     8752     8885     9108     9107     8590 
    8098     8128     8572     9078     9140     8738     8592     8910 
    9099     8819     8243     7847     8112     8757     9061     9039 
    9146     9359     9282     8781     8352     8361     8426     8210 
    8058     8360     8888     9054     8777     8546     8479     8386 
    8433     8673     8822     8657     8303     8248     8653     9054 
    9066     8688     8243     8368     9024     9288     8887     8502 
    8598     8958     9163     8907     8194     7735     8112     8788 
    9003     8684     8302     8425     9007     9310     8911     8299 
    8205     8715     9296     9367     8858     8305     8217     8503 
    8723     8683     8653     8954     9362     9320     8741     8145 
    7971     8089     8160     8131     8264     8714     9031     8776 
    8432     8581     8937     9092     9055     8812     8495     8486 
