Origin Time       2021/08/14 22:38:00
Lat.              37.5
Long.             137.2
Depth. (km)       10
Mag.              4.1
Station Code      ISKH02
Station Lat.      37.3644
Station Long.     137.0413
Station Height(m) 121
Record Time       2021/08/14 22:38:11
Sampling Freq(Hz) 100Hz
Duration Time(s)  120
Dir.              6
Scale Factor      7845(gal)/8223790
Max. Acc. (gal)   1.507
Last Correction   2021/08/14 22:38:11
Memo.             
[...]
  -18613   -18616   -18617   -18616   -18616   -18616   -18615   -18616 
  -18616   -18615   -18615   -18617   -18619   -18616   -18613   -18616 
  -18617   -18616   -18615   -18616   -18616   -18615   -18616   -18613 
  -18613   -18617   -18617   -18615   -18615   -18615   -18617   -18616 
  -18615   -18615   -18612   -18616   -18617   -18615   -18616   -18615 
  -18613   -18615   -18615   -18615   -18619   -18617   -18616   -18619 
  -18615   -18613   -18619   -18617   -18615   -18616   -18615   -18615 
  -18616   -18616   -18616   -18613   -18616   -18617   -18613   -18613 
  -18616   -18617   -18615   -18615   -18616   -18615   -18616   -18616 
  -18615   -18617   -18617   -18615   -18617   -18616   -18616   -18615 
  -18613   -18615   -18615   -18615   -18616   -18615   -18613   -18615 
  -18616   -18615   -18613   -18613   -18615   -18617   -18617   -18615 
  -18616   -18616   -18613   -18615   -18615   -18615   -18617   -18615 
  -18612   -18616   -18616   -18612   -18616   -18617   -18613   -18611 
  -18613   -18616   -18613   -18613   -18615   -18616   -18615   -18612 
  -18616   -18619   -18616   -18613   -18616   -18617   -18615   -18616 
  -18619   -18616   -18615   -18617   -18615   -18613   -18615   -18616 
  -18617   -18616   -18613   -18612   -18613   -18616   -18615   -18615 
  -18617   -18615   -18612   -18615   -18616   -18619   -18617   -18615 
  -18615   -18615   -18615   -18613   -18613   -18615   -18615   -18615 
  -18617   -18615   -18612   -18615   -18617   -18615   -18613   -18616 
  -18619   -18617   -18613   -18616   -18616   -18613   -18616   -18616 
  -18613   -18616   -18616   -18613   -18616   -18616   -18615   -18615 
  -18617   -18617   -18613   -18612   -18616   -18619   -18617   -18617 
  -18620   -18617   -18615   -18615   -18616   -18613   -18613   -18616 
  -18615   -18615   -18613   -18615   -18617   -18616   -18613   -18616 
  -18616   -18613   -18616   -18619   -18616   -18615   -18616   -18616 
  -18616   -18615   -18617   -18617   -18613   -18615   -18617   -18616 
  -18616   -18615   -18617   -18616   -18615   -18616   -18617   -18616 
  -18615   -18616   -18615   -18612   -18617   -18619   -18613   -18613 
  -18616   -18616   -18616   -18616   -18615   -18612   -18615   -18616 
  -18615   -18615   -18613   -18615   -18617   -18613   -18615   -18617 
  -18613   -18611   -18616   -18619   -18616   -18613   -18612   -18616 
  -18616   -18613   -18615   -18620   -18615   -18612   -18616   -18617 
  -18613   -18612   -18612   -18615   -18615   -18616   -18616   -18613 
  -18616   -18616   -18615   -18616   -18616   -18617   -18617   -18616 
  -18613   -18615   -18616   -18613   -18615   -18617   -18613   -18613 
  -18619   -18617   -18615   -18616   -18616   -18613   -18613   -18616 
  -18616   -18616   -18613   -18617   -18617   -18609   -18613   -18617 
  -18613   -18613   -18613   -18613   -18615   -18615   -18616   -18619 
  -18616   -18616   -18617   -18617   -18615   -18615   -18615   -18613 
  -18617   -18615   -18612   -18615   -18617   -18616   -18615   -18617 
  -18619   -18615   -18617   -18620   -18617   -18612   -18613   -18616 
  -18617   -18620   -18619   -18613   -18615   -18615   -18613   -18616 
  -18617   -18617   -18615   -18613   -18617   -18616   -18616   -18617 
  -18615   -18615   -18616   -18619   -18617   -18616   -18619   -18617 
  -18616   -18613   -18615   -18617   -18615   -18615   -18619   -18616 
  -18615   -18616   -18617   -18616   -18613   -18615   -18616   -18616 
  -18617   -18615   -18615   -18616   -18617   -18615   -18615   -18619 
  -18620   -18617   -18616   -18616   -18615   -18613   -18613   -18615 
  -18616   -18617   -18619   -18619   -18617   -18617   -18616   -18615 
  -18615   -18616   -18617   -18615   -18615   -18616   -18617   -18620 
  -18617   -18615   -18616   -18619   -18617   -18615   -18616   -18615 
  -18613   -18616   -18615   -18613   -18617   -18617   -18615   -18616 
  -18616   -18617   -18619   -18617   -18616   -18613   -18612   -18616 
  -18617   -18616   -18616   -18616   -18617   -18620   -18619   -18617 
  -18616   -18615   -18615   -18617   -18615   -18613   -18616   -18615 
  -18613   -18616   -18617   -18616   -18615   -18617   -18619   -18615 
  -18615   -18615   -18616   -18617   -18616   -18616   -18616   -18617 
  -18616   -18612   -18613   -18616   -18615   -18613   -18616   -18617 
  -18615   -18617   -18619   -18615   -18613   -18616   -18616   -18615 
  -18615   -18616   -18616   -18612   -18615   -18616   -18613   -18615 
  -18615   -18613   -18616   -18615   -18612   -18617   -18621   -18616 
  -18613   -18613   -18615   -18617   -18619   -18620   -18616   -18613 
  -18615   -18613   -18613   -18616   -18613   -18612   -18615   -18616 
  -18616   -18617   -18616   -18613   -18615   -18615   -18613   -18615 
  -18615   -18615   -18617   -18617   -18616   -18617   -18615   -18612 
  -18616   -18619   -18619   -18619   -18617   -18617   -18616   -18613 
  -18615   -18616   -18615   -18615   -18615   -18617   -18617   -18616 
  -18615   -18615   -18612   -18612   -18616   -18616   -18613   -18616 
  -18617   -18615   -18615   -18615   -18616   -18616   -18616   -18616 
  -18615   -18616   -18617   -18615   -18613   -18616   -18616   -18617 
  -18617   -18617   -18616   -18615   -18616   -18617   -18615   -18616 
  -18617   -18613   -18612   -18615   -18615   -18615   -18616   -18615 
  -18613   -18617   -18620   -18617   -18616   -18619   -18617   -18616 
  -18620   -18617   -18613   -18616   -18619   -18617   -18617   -18616 
  -18617   -18617   -18615   -18617   -18620   -18616   -18616   -18616 
  -18615   -18619   -18619   -18615   -18615   -18615   -18616   -18615 
  -18615   -18615   -18615   -18616   -18617   -18613   -18616   -18617 
  -18615   -18613   -18615   -18616   -18616   -18616   -18619   -18617 
  -18613   -18615   -18616   -18613   -18615   -18617   -18615   -18613 
  -18615   -18616   -18615   -18615   -18616   -18616   -18619   -18619 
  -18616   -18617   -18619   -18616   -18617   -18616   -18616   -18617 
  -18617   -18615   -18615   -18616   -18613   -18613   -18616   -18616 
  -18615   -18615   -18616   -18619   -18616   -18613   -18616   -18617 
  -18616   -18619   -18617   -18612   -18616   -18617   -18615   -18616 
  -18617   -18616   -18613   -18613   -18617   -18617   -18615   -18613 
  -18616   -18616   -18616   -18620   -18617   -18616   -18617   -18617 
  -18617   -18617   -18616   -18615   -18613   -18616   -18617   -18615 
  -18616   -18617   -18617   -18616   -18613   -18616   -18617   -18613 
  -18615   -18620   -18621   -18616   -18615   -18619   -18619   -18616 
  -18613   -18616   -18619   -18617   -18616   -18616   -18616   -18617 
  -18616   -18613   -18617   -18620   -18617   -18615   -18615   -18619 
  -18616   -18616   -18620   -18616   -18613   -18616   -18620   -18619 
  -18615   -18616   -18617   -18617   -18617   -18615   -18616   -18617 
  -18615   -18616   -18617   -18619   -18619   -18619   -18620   -18616 
  -18615   -18616   -18616   -18616   -18616   -18616   -18616   -18613 
  -18616   -18619   -18613   -18616   -18619   -18616   -18615   -18617 
  -18620   -18617   -18617   -18617   -18615   -18617   -18617   -18617 
  -18617   -18613   -18612   -18615   -18617   -18616   -18613   -18616 
  -18615   -18615   -18619   -18619   -18617   -18617   -18615   -18616 
  -18619   -18620   -18619   -18615   -18615   -18619   -18620   -18616 
  -18615   -18616   -18616   -18616   -18615   -18613   -18617   -18619 
  -18615   -18617   -18619   -18616   -18615   -18616   -18620   -18617 
  -18616   -18617   -18615   -18612   -18617   -18617   -18615   -18612 
  -18613   -18617   -18617   -18615   -18615   -18616   -18617   -18616 
  -18616   -18617   -18616   -18613   -18616   -18619   -18617   -18613 
  -18615   -18620   -18620   -18616   -18617   -18616   -18613   -18615 
  -18619   -18619   -18615   -18612   -18617   -18619   -18616   -18620 
  -18619   -18613   -18616   -18619   -18619   -18616   -18615   -18617 
  -18616   -18615   -18617   -18617   -18616   -18617   -18617   -18615 
  -18619   -18619   -18612   -18615   -18620   -18616   -18615   -18616 
  -18616   -18617   -18617   -18616   -18619   -18619   -18615   -18615 
  -18617   -18617   -18616   -18617   -18617   -18617   -18620   -18616 
  -18612   -18615   -18619   -18620   -18620   -18617   -18616   -18616 
  -18617   -18619   -18616   -18615   -18617   -18617   -18615   -18617 
  -18620   -18617   -18613   -18615   -18620   -18617   -18613   -18616 
  -18619   -18616   -18615   -18617   -18619   -18617   -18616   -18617 
  -18619   -18620   -18619   -18615   -18615   -18620   -18619   -18615 
  -18617   -18619   -18619   -18616   -18613   -18616   -18619   -18616 
  -18613   -18617   -18621   -18617   -18616   -18620   -18617   -18617 
  -18619   -18615   -18612   -18615   -18616   -18619   -18619   -18616 
  -18615   -18613   -18615   -18619   -18617   -18613   -18616   -18617 
  -18615   -18619   -18623   -18617   -18613   -18613   -18617   -18617 
  -18616   -18617   -18616   -18617   -18619   -18617   -18617   -18615 
  -18617   -18619   -18615   -18615   -18615   -18613   -18619   -18619 
  -18613   -18617   -18619   -18615   -18616   -18619   -18615   -18616 
  -18620   -18616   -18617   -18619   -18615   -18616   -18619   -18619 
  -18616   -18613   -18617   -18617   -18613   -18613   -18617   -18621 
  -18616   -18615   -18620   -18617   -18615   -18620   -18619   -18616 
  -18620   -18619   -18616   -18619   -18617   -18613   -18617   -18619 
  -18616   -18617   -18616   -18616   -18619   -18616   -18616   -18616 
  -18616   -18619   -18619   -18617   -18617   -18617   -18619   -18619 
  -18619   -18617   -18615   -18616   -18619   -18616   -18615   -18616 
  -18617   -18616   -18617   -18619   -18613   -18615   -18621   -18619 
  -18615   -18616   -18617   -18617   -18617   -18617   -18617   -18617 
  -18617   -18619   -18617   -18617   -18623   -18636   -18659   -18696 
  -18742   -18814   -18943   -19048   -18970   -18679   -18289   -17902 
  -17807   -18257   -18797   -18821   -18441   -18018   -18018   -18625 
  -19044   -19089   -19129   -18504   -17726   -17952   -18657   -19507 
  -19734   -18759   -18476   -19075   -19047   -18824   -18594   -18247 
  -18395   -18600   -18439   -18531   -18729   -18337   -18033   -18536 
  -18910   -18578   -18374   -18663   -18778   -18638   -18642   -18458 
  -18297   -18554   -18663   -18692   -18709   -18539   -18721   -18762 
  -18472   -18740   -18860   -18608   -18743   -18744   -18692   -18669 
  -18262   -18387   -18844   -18724   -18661   -18657   -18434   -18458 
  -18605   -18769   -18856   -18763   -18770   -18634   -18374   -18384 
  -18511   -18665   -18711   -18793   -19067   -18882   -18312   -17992 
  -18094   -18655   -18850   -18441   -18462   -18659   -18526   -18636 
  -18858   -18785   -18708   -18635   -18577   -18667   -18598   -18686 
  -18955   -18651   -18481   -18814   -18744   -18539   -18547   -18399 
  -18284   -18650   -19022   -18688   -18349   -18441   -18441   -18446 
  -18476   -18486   -18590   -18708   -18820   -18833   -18928   -18835 
  -18385   -18551   -18867   -18528   -18499   -18455   -18087   -18621 
  -19072   -18531   -18496   -18971   -18971   -18613   -18439   -18715 
  -18859   -18727   -18640   -18449   -18612   -18875   -18339   -18044 
  -18439   -18608   -18688   -18565   -18608   -19317   -19075   -18164 
  -18254   -18315   -18050   -18202   -18488   -19018   -19265   -19109 
  -19160   -18621   -17933   -18208   -18526   -18616   -19017   -19024 
  -18493   -18604   -19199   -18964   -18310   -18257   -18333   -18296 
  -18555   -18681   -18544   -18813   -19174   -18736   -18017   -18342 
  -19035   -18430   -17813   -18604   -18643   -18022   -19094   -19656 
  -18728   -18840   -18652   -17694   -18422   -19365   -18991   -18793 
  -18890   -18684   -18686   -18874   -18326   -17271   -17211   -18310 
  -19471   -19712   -18759   -18252   -19080   -19082   -17937   -18064 
  -18972   -18581   -18030   -18847   -19681   -19103   -18121   -18404 
  -18897   -18434   -18758   -19090   -18064   -18378   -19199   -18274 
  -18229   -18858   -18284   -18357   -18921   -18499   -18065   -18262 
  -18905   -19364   -18985   -18751   -18991   -18562   -17913   -18238 
  -18971   -19017   -18627   -18642   -18582   -17988   -18253   -18952 
  -18619   -18755   -19296   -18625   -17883   -18025   -18690   -19179 
  -19076   -18846   -18396   -18090   -18395   -18613   -18885   -19041 
  -18289   -17853   -18503   -18897   -18685   -18643   -19003   -19500 
  -19302   -18146   -17648   -18454   -18837   -18623   -18819   -18812 
  -18316   -18083   -18470   -18894   -18715   -18655   -18906   -18669 
  -18341   -18499   -18733   -18738   -18949   -19136   -18558   -17871 
  -17747   -18335   -19403   -19515   -18666   -18439   -18481   -18075 
  -18507   -19623   -19500   -18709   -18424   -18099   -18187   -18647 
  -18180   -17820   -18285   -18214   -17883   -18056   -18492   -18922 
  -18782   -18616   -19395   -19888   -19392   -19145   -18925   -18427 
  -18748   -19336   -19164   -18586   -17856   -17637   -18422   -19010 
  -18686   -18114   -17847   -17957   -18202   -18577   -19256   -19630 
  -18755   -17655   -18110   -19064   -19365   -19584   -18952   -17559 
  -17451   -18567   -19489   -19569   -18747   -17988   -17775   -17886 
  -18585   -18967   -18405   -18122   -18179   -18142   -18952   -19944 
  -19765   -19654   -19653   -18654   -18162   -18696   -19003   -18762 
  -18142   -17554   -17037   -17131   -18501   -19364   -18727   -18339 
  -18354   -18021   -18416   -19614   -19934   -19064   -18482   -18613 
  -18530   -18555   -18832   -18520   -18509   -19210   -19191   -19089 
  -19653   -19232   -18284   -17992   -17433   -17327   -17952   -17957 
  -18281   -19106   -19002   -18777   -19116   -19098   -18562   -17703 
  -17180   -17841   -18666   -19120   -19685   -19373   -18621   -18893 
  -19017   -18466   -18596   -19369   -19673   -19275   -19311   -19720 
  -18879   -17780   -17774   -17662   -17670   -18188   -18203   -18270 
  -18441   -18353   -18585   -18378   -18049   -18567   -18592   -18149 
  -18636   -19273   -19192   -18894   -18524   -18175   -18281   -18636 
  -18998   -19364   -19051   -18337   -18445   -18793   -18705   -18806 
  -18769   -18418   -18432   -18648   -18855   -18951   -18808   -18782 
  -18905   -18837   -18373   -18056   -18382   -18538   -18495   -19018 
  -19203   -18574   -18434   -18582   -18081   -17878   -18361   -18812 
  -18952   -18746   -18658   -18516   -17840   -17791   -18690   -19053 
  -18704   -18527   -18752   -19248   -19724   -19768   -19140   -18315 
  -18150   -18361   -18207   -18243   -18624   -18384   -18050   -18385 
  -18696   -18878   -18948   -18671   -18389   -18276   -18473   -18881 
  -19221   -19429   -19035   -18234   -17953   -18042   -18173   -18459 
  -18562   -18755   -19160   -18898   -18485   -18509   -18261   -18268 
  -18825   -18805   -18463   -18643   -18862   -18705   -18420   -18219 
  -18202   -18326   -18231   -17926   -18268   -19202   -19612   -19538 
  -19487   -19279   -18785   -18198   -18075   -18370   -18274   -18208 
  -18870   -19294   -19043   -18917   -18832   -18543   -18391   -18360 
  -18296   -18184   -18223   -18549   -18840   -18897   -18628   -18076 
  -17937   -18419   -18561   -18366   -18863   -19232   -18794   -19124 
  -19745   -19229   -18867   -18854   -18146   -17510   -17659   -18235 
  -18539   -18478   -18742   -19101   -19161   -19388   -19306   -18436 
  -18057   -18376   -18229   -18118   -18596   -18812   -18513   -18412 
  -18756   -18993   -19003   -18709   -17984   -17699   -18026   -18534 
  -19251   -19481   -19036   -18900   -18979   -18534   -18123   -18358 
  -18503   -18172   -18117   -18527   -18886   -18960   -18751   -18615 
  -18748   -18747   -18877   -19242   -19024   -18635   -18642   -18431 
  -18354   -18839   -18801   -18013   -17842   -18368   -18508   -18547 
  -18897   -18894   -18447   -18287   -18524   -18588   -18573   -18663 
  -18708   -18959   -18881   -18239   -18246   -18802   -18833   -18442 
  -18364   -18559   -18435   -18474   -19018   -19203   -18895   -18627 
  -18499   -18399   -18446   -18843   -19049   -18810   -18607   -18347 
  -18355   -18987   -19184   -18705   -18393   -18295   -18235   -18307 
  -18539   -18661   -18544   -18577   -18755   -18875   -18935   -18850 
  -18628   -18388   -18459   -18624   -18380   -18355   -18616   -18480 
  -18476   -18666   -18469   -18528   -19005   -19078   -18805   -18547 
  -18265   -18227   -18713   -19102   -18960   -18913   -18960   -18721 
  -18482   -18202   -17998   -18118   -18301   -18621   -18841   -18666 
  -18562   -18684   -18947   -19053   -18739   -18540   -18607   -18689 
  -18877   -18810   -18318   -18050   -18268   -18485   -18446   -18582 
  -18941   -18738   -18307   -18705   -18982   -18450   -18586   -19157 
  -18731   -18231   -18480   -18615   -18523   -18763   -18985   -18651 
  -18366   -18416   -18226   -18345   -18873   -18920   -18863   -18858 
  -18674   -18632   -18462   -18384   -18612   -18469   -18323   -18621 
  -18754   -18705   -18925   -19029   -18793   -18798   -18885   -18674 
  -18544   -18466   -18372   -18690   -19076   -18773   -18199   -18081 
  -18179   -18333   -18555   -18388   -18134   -18318   -18495   -18625 
  -18777   -18669   -18638   -18787   -18904   -18939   -18885   -19098 
  -19253   -18894   -18671   -18744   -18786   -18825   -18716   -18546 
  -18523   -18469   -18295   -18177   -18226   -18349   -18405   -18431 
  -18451   -18424   -18580   -18778   -18555   -18513   -18850   -18696 
  -18419   -18528   -18692   -18870   -18719   -18522   -18847   -18952 
  -18844   -18879   -18651   -18598   -18628   -18121   -17964   -18427 
  -18549   -18470   -18719   -18968   -18960   -18782   -18520   -18420 
  -18387   -18277   -18473   -18652   -18441   -18554   -18987   -19087 
  -19080   -19269   -19242   -18766   -18414   -18345   -18168   -18111 
  -18296   -18468   -18611   -18643   -18627   -18789   -18967   -18893 
  -18559   -18291   -18345   -18335   -18192   -18462   -18770   -18565 
  -18538   -18941   -19064   -18932   -18735   -18399   -18459   -18794 
  -18783   -18767   -18705   -18303   -18075   -18257   -18608   -18925 
  -19064   -19024   -18897   -18719   -18493   -18482   -18582   -18396 
  -18260   -18320   -18372   -18590   -18705   -18563   -18504   -18477 
  -18596   -18814   -18756   -18608   -18586   -18801   -19066   -18868 
  -18559   -18526   -18416   -18299   -18457   -18607   -18688   -19102 
  -19391   -18917   -18462   -18431   -18156   -18076   -18558   -18627 
  -18357   -18540   -18785   -18630   -18424   -18558   -18850   -19006 
  -19090   -18902   -18432   -18362   -18550   -18434   -18515   -18943 
  -19037   -18746   -18515   -18459   -18393   -18319   -18445   -18559 
  -18438   -18562   -18987   -19003   -18681   -18530   -18549   -18503 
  -18339   -18505   -18851   -18723   -18578   -18652   -18508   -18481 
  -18620   -18598   -18559   -18415   -18360   -18720   -19035   -18962 
  -18704   -18585   -18661   -18746   -18828   -18679   -18355   -18441 
  -18669   -18403   -18058   -18291   -18586   -18333   -18256   -18549 
  -18522   -18505   -18701   -18770   -18933   -19097   -19001   -18900 
  -18794   -18638   -18593   -18609   -18678   -18690   -18526   -18597 
