Origin Time       2021/08/14 22:38:00
Lat.              37.5
Long.             137.2
Depth. (km)       10
Mag.              4.1
Station Code      ISKH03
Station Lat.      37.3458
Station Long.     137.2436
Station Height(m) 19
Record Time       2021/08/14 22:38:11
Sampling Freq(Hz) 100Hz
Duration Time(s)  120
Dir.              4
Scale Factor      3920(gal)/6170801
Max. Acc. (gal)   12.199
Last Correction   2021/08/14 22:37:56
Memo.             
[...]
    4838     4838     4840     4842     4843     4842     4841     4841 
    4839     4837     4836     4836     4838     4842     4842     4841 
    4842     4841     4840     4840     4837     4834     4834     4837 
    4840     4842     4841     4840     4838     4838     4838     4840 
    4841     4840     4841     4845     4844     4840     4839     4841 
    4839     4837     4838     4838     4839     4843     4844     4842 
    4840     4839     4837     4837     4839     4842     4843     4841 
    4840     4842     4844     4842     4837     4837     4841     4841 
    4839     4840     4840     4842     4844     4842     4838     4839 
    4839     4839     4842     4842     4841     4840     4839     4839 
    4840     4840     4841     4840     4841     4842     4839     4838 
    4839     4838     4838     4841     4840     4838     4841     4843 
    4840     4840     4841     4841     4839     4836     4838     4841 
    4841     4841     4842     4841     4839     4838     4838     4837 
    4838     4843     4843     4842     4844     4843     4840     4839 
    4841     4840     4839     4840     4840     4838     4839     4838 
    4837     4840     4843     4841     4840     4842     4842     4841 
    4842     4841     4839     4840     4839     4838     4839     4837 
    4836     4837     4837     4839     4841     4838     4837     4842 
    4844     4843     4845     4847     4843     4838     4838     4840 
    4839     4838     4840     4839     4837     4841     4843     4839 
    4839     4845     4847     4842     4840     4841     4839     4839 
    4844     4843     4840     4838     4837     4839     4838     4836 
    4841     4841     4838     4841     4842     4841     4841     4840 
    4838     4839     4841     4839     4837     4837     4841     4843 
    4843     4840     4839     4839     4838     4839     4841     4839 
    4838     4841     4841     4842     4844     4842     4840     4840 
    4840     4840     4841     4841     4838     4838     4839     4839 
    4837     4839     4843     4843     4843     4843     4842     4842 
    4842     4840     4841     4843     4840     4839     4841     4841 
    4838     4837     4837     4839     4841     4841     4841     4843 
    4845     4843     4844     4845     4839     4836     4840     4838 
    4834     4837     4840     4838     4838     4839     4838     4836 
    4839     4843     4843     4843     4844     4842     4841     4841 
    4840     4842     4842     4838     4836     4838     4838     4837 
    4837     4839     4839     4840     4843     4843     4840     4841 
    4843     4843     4842     4841     4841     4841     4843     4842 
    4839     4838     4838     4836     4837     4841     4841     4840 
    4841     4841     4841     4842     4842     4842     4843     4841 
    4840     4843     4843     4839     4839     4842     4841     4839 
    4837     4837     4840     4843     4841     4840     4842     4841 
    4841     4842     4840     4840     4842     4842     4840     4838 
    4835     4834     4838     4840     4838     4840     4843     4842 
    4840     4843     4846     4844     4841     4841     4841     4840 
    4843     4841     4836     4836     4838     4839     4841     4841 
    4840     4841     4842     4842     4842     4842     4841     4840 
    4842     4843     4842     4840     4837     4836     4838     4840 
    4838     4839     4841     4842     4843     4843     4842     4841 
    4842     4842     4840     4841     4840     4839     4842     4844 
    4842     4841     4841     4840     4843     4844     4842     4841 
    4840     4841     4844     4840     4837     4843     4844     4839 
    4840     4843     4840     4840     4842     4842     4843     4842 
    4840     4840     4841     4843     4841     4837     4839     4842 
    4840     4839     4839     4840     4841     4841     4841     4842 
    4840     4837     4839     4843     4841     4839     4841     4840 
    4838     4838     4838     4839     4841     4839     4838     4841 
    4842     4839     4838     4839     4841     4840     4839     4841 
    4841     4839     4839     4838     4838     4839     4842     4843 
    4841     4841     4840     4838     4839     4839     4838     4841 
    4843     4839     4839     4842     4839     4838     4838     4838 
    4839     4841     4843     4842     4841     4843     4843     4843 
    4842     4841     4840     4840     4841     4840     4840     4839 
    4837     4839     4843     4844     4842     4843     4845     4843 
    4841     4840     4840     4840     4840     4839     4840     4841 
    4840     4840     4839     4839     4840     4840     4840     4841 
    4840     4840     4842     4841     4840     4841     4842     4841 
    4841     4841     4840     4839     4838     4839     4840     4841 
    4840     4840     4842     4841     4840     4842     4842     4840 
    4840     4841     4841     4841     4840     4838     4840     4843 
    4842     4842     4841     4839     4839     4839     4838     4840 
    4842     4843     4842     4843     4843     4842     4840     4840 
    4840     4839     4839     4840     4840     4838     4837     4837 
    4838     4839     4839     4841     4843     4842     4841     4842 
    4842     4841     4840     4838     4837     4839     4839     4839 
    4841     4840     4839     4842     4843     4843     4845     4843 
    4839     4841     4841     4839     4841     4843     4843     4841 
    4841     4841     4841     4843     4844     4842     4841     4841 
    4839     4840     4842     4843     4842     4840     4840     4843 
    4843     4841     4842     4843     4843     4843     4843     4842 
    4841     4842     4843     4841     4841     4839     4839     4841 
    4841     4840     4839     4839     4840     4842     4843     4844 
    4843     4842     4841     4842     4842     4841     4840     4840 
    4840     4842     4842     4839     4838     4842     4842     4841 
    4842     4842     4841     4841     4843     4841     4840     4842 
    4842     4841     4841     4841     4840     4840     4839     4839 
    4842     4843     4840     4842     4842     4839     4840     4842 
    4841     4842     4843     4841     4842     4843     4841     4841 
    4840     4840     4840     4840     4840     4841     4841     4840 
    4841     4842     4841     4841     4843     4843     4843     4842 
    4840     4839     4839     4840     4843     4841     4840     4842 
    4842     4839     4838     4839     4842     4843     4842     4841 
    4840     4840     4842     4842     4840     4839     4841     4842 
    4840     4839     4841     4841     4839     4840     4839     4839 
    4840     4841     4841     4841     4840     4840     4841     4841 
    4842     4842     4843     4840     4840     4841     4841     4843 
    4844     4840     4838     4841     4840     4840     4841     4842 
    4841     4841     4843     4842     4840     4842     4843     4842 
    4841     4841     4840     4840     4841     4841     4841     4842 
    4842     4840     4839     4841     4843     4843     4842     4843 
    4841     4840     4841     4839     4841     4843     4842     4840 
    4839     4840     4839     4838     4842     4843     4840     4840 
    4839     4837     4840     4842     4839     4839     4842     4842 
    4840     4840     4840     4841     4843     4843     4843     4843 
    4841     4840     4841     4841     4841     4841     4841     4841 
    4840     4839     4838     4839     4841     4841     4841     4841 
    4841     4841     4839     4839     4841     4841     4839     4841 
    4841     4839     4839     4840     4840     4840     4840     4840 
    4840     4841     4840     4839     4841     4843     4841     4840 
    4843     4843     4841     4842     4841     4839     4840     4840 
    4839     4838     4838     4840     4842     4842     4841     4839 
    4840     4840     4840     4842     4840     4839     4841     4842 
    4841     4842     4843     4843     4843     4841     4840     4841 
    4841     4838     4839     4840     4839     4840     4841     4840 
    4841     4842     4841     4841     4842     4841     4840     4841 
    4842     4842     4843     4843     4841     4838     4837     4839 
    4839     4839     4842     4841     4840     4840     4841     4842 
    4842     4842     4843     4842     4841     4844     4844     4841 
    4839     4839     4839     4841     4842     4838     4840     4843 
    4841     4841     4843     4841     4839     4841     4844     4842 
    4839     4839     4840     4842     4842     4840     4840     4842 
    4842     4842     4842     4841     4842     4842     4842     4840 
    4838     4840     4842     4841     4841     4840     4837     4837 
    4839     4840     4843     4842     4840     4841     4842     4843 
    4841     4839     4840     4841     4839     4840     4842     4842 
    4842     4840     4839     4841     4842     4842     4844     4843 
    4841     4841     4844     4845     4842     4842     4843     4841 
    4840     4840     4842     4841     4839     4841     4842     4841 
    4841     4841     4841     4841     4841     4840     4841     4842 
    4841     4840     4841     4840     4840     4841     4842     4841 
    4841     4843     4845     4843     4841     4841     4841     4839 
    4839     4840     4838     4841     4851     4865     4881     4890 
    4883     4861     4839     4829     4831     4829     4824     4860 
    4966     5055     5001     4855     4813     4888     4842     4648 
    4584     4661     4657     4664     4688     4564     4753     5223 
    4865     4233     4836     5557     5116     4815     5252     5338 
    4921     4665     4600     4581     5143     5977     5362     4044 
    4604     5458     4028     2905     4256     5435     5029     4697 
    4801     4810     4895     4615     3977     4482     6077     6399 
    5143     4672     5334     5291     4488     4531     5454     5597 
    4733     4397     4710     4390     3765     4052     4617     4337 
    4008     4837     6124     6301     5043     3371     2738     3736 
    5261     5960     6327     7364     7553     5405     3341     3529 
    4286     4322     4436     4679     4675     4852     5127     4902 
    4523     4459     4312     4275     4878     5263     4988     4919 
    4613     3768     4290     6035     6415     5839     5925     5451 
    3850     3029     3720     4770     5263     4970     4215     4158 
    5527     6797     5835     3564     3016     4458     5195     4401 
    4082     5247     6440     6241     5158     4711     5572     6335 
    5297     3760     3565     3644     3746     5103     5783     4294 
    3604     4687     4982     4421     4433     4702     5037     5611 
    5491     4636     4931     6273     5842     3925     3729     4705 
    4737     4807     5423     5838     6200     5775     4335     4064 
    5380     5565     3692     2228     2840     4335     5195     5320 
    5361     5907     6457     5573     3525     2769     4252     5943 
    6101     5474     5439     5999     6056     4771     3067     2861 
    4212     5351     5347     4602     3925     4185     4891     4809 
    4710     5396     5745     5355     4715     4164     4706     6033 
    6184     5332     4705     4183     4243     4568     3631     3144 
    4827     5808     4995     5308     6495     5836     4398     4328 
    4298     3502     3778     4891     5108     5393     6578     6858 
    5962     5523     4881     3323     2873     3794     3788     3189 
    4105     5313     4445     3390     4819     6785     7075     6828 
    6234     4742     4046     4391     4280     4753     6206     6101 
    4699     4518     4239     2483     1938     3031     3736     5119 
    6965     6359     4532     4356     4702     4537     4985     5528 
    5684     6498     6651     5264     5545     7530     6730     3996 
    4033     5331     4230     2787     2958     2878     2633     3552 
    3992     3246     3621     4835     4646     4716     6808     7819 
    6481     5893     5481     3187     2464     5327     7862     7882 
    7390     6722     3720      -16     -323     2618     6488    10008 
   11505    10219     6151     -331    -5997    -7135    -3212     3803 
    9602    10789     9837     8936     5243      910     2704     8923 
   13468    14912    12508     7174     3435     1366    -2076    -4491 
   -2111     3357     6771     5421     2838     3684     6476     7334 
    6148     5273     5916     7128     7459     6468     4423     2507 
    2831     4134     1925    -1911    -1076     2681     4027     4062 
    4707     5014     6304     9324    10422     8903     9669    12812 
   12129     7879     6015     5977     4525     3446     3755     3151 
    1969     2067     1314    -1821    -3643    -3009    -3706    -5425 
   -4005      690     5955    11106    16409    20751    21836    17981 
   10760     4396     1094     -112      502     3913     8269     9554 
    7396     4084     -676    -6728   -10030    -8035    -2308     4766 
    9929    10455     8349     6458     3769      818     1703     6465 
   10584    12688    14120    14001    11571     9158     8770     9155 
    8284     5854     2373    -1567    -4588    -5250    -4026    -2458 
    -294     3284     6263     5857     2699     -493    -1539     1066 
    6691    13064    19280    24044    23612    16277     5629    -2784 
   -5859    -5114    -4540    -4677    -2708     1066     3039     2527 
    2464     4081     6190     8926    12767    15575    15221    12817 
   10394     7757     3719     -741    -3319    -4291    -5177    -4792 
   -2051     1480     5208     9554    12584    12469    10753     8994 
    5970     1737       24     2676     6252     7811     8497     9193 
    9036     7713     4891      844    -2156    -2706    -1458     1248 
    4742     7146     7963     8308     7935     5750     3169     3037 
    5462     7869     8109     6411     5098     5238     5553     6017 
    6878     5966     2901      153    -1191     -791     1691     4894 
    7537     9416    10103     9239     6716     3430     1590     1726 
    2195     2584     4119     6827     8435     7368     5545     5369 
    6387     7298     7409     5638     1625    -3079    -6394    -6826 
   -3476     3153    10297    14810    15790    13867    10180     7144 
    6679     7212     5681     2482      973     2047     3339     3487 
    3459     4225     5168     5010     3925     3359     3938     5191 
    6094     5513     3921     2805     1921      873     1132     3155 
    5689     8400    11174    12804    12705    11757    10454     7920 
    3921     -252    -3700    -5860    -5869    -4129    -1656     1382 
    4337     6340     7688     8835     9946    11121    11631    10320 
    7104     3660     2180     2880     4286     5788     7440     8480 
    8175     6664     4552     2804     2163     2412     2984     3388 
    3328     3444     4171     4435     3832     3441     3517     3782 
    4597     5895     7325     8749     9383     8417     6225     3751 
    1657      251     -321      222     1778     3261     4066     5036 
    6731     8536     9788    10199     9280     6989     4972     5101 
    6682     7785     8251     8206     6616     3377     -461    -3757 
   -5294    -5029    -4215    -3056     -511     3721     8563    12332 
   14035    14340    14582    14700    13179     9675     5831     2561 
    -340    -1967    -1456      207     1853     3003     3119     2138 
    1063     1388     3546     6257     8370    10074    11422    11430 
    9622     6877     4169     1933      467      -34      522     2068 
    3861     4756     4404     3661     3758     5062     6757     8095 
    9073     9562     8959     6989     4351     2225     1170      891 
    1034     1685     2891     4401     6043     7479     7953     7217 
    6266     5966     5477     4049     3100     3943     5723     7277 
    8238     7846     5428     2162      167     -132      150      694 
    2125     4312     6200     7018     6847     6489     6831     7829 
    8617     8868     8749     7795     5751     3493     1867     1040 
     907     1243     1864     2740     3796     4813     5420     5526 
    5794     6298     5790     4305     3445     3363     3619     5021 
    7266     8897    10075    10837     9372     5569     2098      540 
     267      734     1753     2703     3498     4462     4953     4666 
    4989     6629     8188     8633     8298     7420     6471     6168 
    5816     4538     3302     2781     1901      494      -53      761 
    2138     3549     5161     6868     8129     8759     8531     7220 
    5885     5512     5102     3865     2768     2343     2175     2442 
    3460     4706     5477     5517     5009     4784     5750     7637 
    9344    10212     9843     7696     4055      454    -1576    -1899 
   -1429     -449     1314     3326     4846     6006     7104     7882 
    8203     8731     9964    11363    12310    12367    10502     6423 
    1766    -1874    -4096    -4544    -3063     -476     2081     3806 
    4513     4603     4504     4840     6296     8401    10125    11367 
   12097    11510     9372     6707     4772     4136     4380     4491 
    3737     1853     -874    -3454    -4946    -4561    -1606     3012 
    7371    11064    14075    14839    12732     9700     7213     5208 
    4062     3973     4157     4099     3411     1601     -671    -2056 
   -2023     -703     1443     3719     5887     8016     9809    10540 
    9635     7855     6687     6273     5923     5618     5451     5247 
    4826     3976     3241     3505     4359     5172     6108     6452 
    5107     2796      977       77      306     1952     4257     5925 
    6489     6224     5534     4742     4247     4722     6514     9008 
   10857    10754     8429     4989     1885     -276    -1433    -1054 
    1468     5178     7856     8549     7826     6140     4344     3644 
    3686     3475     3458     4029     4213     3739     3794     4873 
    6249     7704     9502    10878    10705     9133     6935     4126 
     700    -2136    -3059    -1966      640     3882     6242     6910 
    6574     5818     4664     3942     4642     6306     7855     8873 
    9186     8598     7363     6006     4924     4347     4185     3852 
    2782     1172     -350    -1289    -1099      507     2971     5319 
    6899     7425     6888     5941     5635     6165     7043     8216 
    9301     9253     7908     6016     4111     2816     3082     4961 
    7039     7766     6774     4711     2285     -179    -2156    -2582 
    -817     2355     5469     7857     9475    10101     9812     9004 
    7754     6542     6023     5630     4787     3846     2455      139 
   -1746    -1708     -187     2100     5101     7753     8812     8836 
    8486     7121     5032     3839     3847     4072     4305     4627 
    4566     4269     4475     5069     5560     6257     7474     8502 
    8437     7318     5781     4179     2679     1732     1731     2521 
    3626     4658     5382     5620     5379     4922     4407     3788 
    3164     2824     3030     3952     5404     6467     6332     5495 
