Origin Time       2021/08/14 22:38:00
Lat.              37.5
Long.             137.2
Depth. (km)       10
Mag.              4.1
Station Code      ISKH06
Station Lat.      37.0533
Station Long.     136.8206
Station Height(m) 20
Record Time       2021/08/14 22:38:25
Sampling Freq(Hz) 100Hz
Duration Time(s)  120
Dir.              4
Scale Factor      7845(gal)/8223790
Max. Acc. (gal)   0.844
Last Correction   2021/08/14 22:38:25
Memo.             
[...]
   -6442    -6440    -6440    -6442    -6442    -6440    -6440    -6440 
   -6439    -6439    -6442    -6443    -6440    -6439    -6440    -6442 
   -6442    -6442    -6442    -6439    -6439    -6442    -6442    -6442 
   -6440    -6440    -6442    -6439    -6439    -6442    -6439    -6440 
   -6443    -6442    -6440    -6440    -6440    -6442    -6442    -6440 
   -6442    -6443    -6440    -6442    -6443    -6440    -6440    -6443 
   -6440    -6442    -6444    -6443    -6440    -6439    -6442    -6443 
   -6443    -6443    -6443    -6442    -6443    -6442    -6440    -6442 
   -6443    -6442    -6442    -6442    -6442    -6442    -6440    -6440 
   -6442    -6440    -6442    -6442    -6442    -6442    -6442    -6438 
   -6438    -6440    -6442    -6440    -6440    -6442    -6443    -6442 
   -6442    -6443    -6443    -6440    -6440    -6443    -6443    -6442 
   -6440    -6440    -6442    -6444    -6442    -6440    -6440    -6442 
   -6442    -6442    -6440    -6442    -6442    -6443    -6440    -6438 
   -6440    -6443    -6439    -6438    -6442    -6439    -6440    -6443 
   -6440    -6443    -6444    -6443    -6446    -6444    -6439    -6440 
   -6440    -6440    -6440    -6439    -6440    -6442    -6440    -6440 
   -6442    -6443    -6442    -6440    -6443    -6443    -6440    -6440 
   -6440    -6440    -6443    -6442    -6439    -6440    -6443    -6444 
   -6443    -6442    -6442    -6443    -6443    -6442    -6440    -6439 
   -6440    -6442    -6442    -6440    -6440    -6442    -6440    -6440 
   -6442    -6442    -6439    -6439    -6440    -6443    -6442    -6440 
   -6440    -6442    -6443    -6440    -6439    -6442    -6442    -6440 
   -6440    -6439    -6438    -6440    -6440    -6440    -6443    -6442 
   -6439    -6439    -6439    -6442    -6442    -6438    -6440    -6442 
   -6440    -6440    -6440    -6439    -6439    -6439    -6440    -6440 
   -6440    -6440    -6440    -6440    -6443    -6442    -6439    -6440 
   -6440    -6439    -6439    -6440    -6440    -6439    -6439    -6440 
   -6440    -6439    -6439    -6438    -6439    -6439    -6438    -6439 
   -6442    -6439    -6439    -6439    -6439    -6440    -6440    -6442 
   -6443    -6442    -6442    -6440    -6442    -6444    -6444    -6440 
   -6440    -6442    -6440    -6443    -6442    -6440    -6440    -6440 
   -6440    -6442    -6439    -6438    -6442    -6443    -6439    -6442 
   -6443    -6438    -6440    -6446    -6440    -6439    -6440    -6443 
   -6444    -6436    -6436    -6446    -6442    -6439    -6443    -6443 
   -6444    -6444    -6442    -6440    -6440    -6444    -6444    -6439 
   -6440    -6444    -6443    -6440    -6440    -6442    -6440    -6440 
   -6443    -6442    -6440    -6439    -6439    -6443    -6442    -6438 
   -6440    -6443    -6442    -6443    -6443    -6442    -6440    -6439 
   -6440    -6440    -6440    -6439    -6439    -6438    -6438    -6439 
   -6439    -6442    -6443    -6443    -6443    -6444    -6442    -6443 
   -6444    -6443    -6444    -6446    -6442    -6440    -6443    -6439 
   -6436    -6439    -6436    -6440    -6446    -6443    -6443    -6444 
   -6439    -6434    -6439    -6446    -6442    -6436    -6438    -6438 
   -6436    -6438    -6432    -6430    -6444    -6459    -6461    -6455 
   -6443    -6432    -6428    -6431    -6442    -6450    -6446    -6439 
   -6439    -6450    -6448    -6428    -6419    -6434    -6463    -6469 
   -6431    -6415    -6447    -6466    -6446    -6417    -6404    -6407 
   -6420    -6446    -6475    -6481    -6458    -6432    -6426    -6439 
   -6459    -6450    -6409    -6432    -6493    -6450    -6394    -6440 
   -6458    -6405    -6401    -6435    -6455    -6469    -6469    -6453 
   -6421    -6397    -6394    -6416    -6471    -6478    -6386    -6363 
   -6450    -6488    -6482    -6512    -6528    -6469    -6389    -6372 
   -6417    -6498    -6540    -6482    -6397    -6373    -6374    -6390 
   -6454    -6511    -6493    -6423    -6385    -6397    -6413    -6435 
   -6462    -6463    -6446    -6428    -6432    -6443    -6443    -6466 
   -6507    -6497    -6423    -6377    -6443    -6496    -6438    -6413 
   -6461    -6434    -6385    -6430    -6478    -6457    -6439    -6454 
   -6470    -6465    -6400    -6355    -6421    -6458    -6401    -6416 
   -6484    -6450    -6378    -6407    -6469    -6444    -6415    -6447 
   -6475    -6488    -6477    -6401    -6328    -6381    -6488    -6532 
   -6551    -6546    -6431    -6316    -6366    -6478    -6501    -6477 
   -6467    -6463    -6448    -6376    -6285    -6359    -6547    -6548 
   -6408    -6397    -6440    -6409    -6416    -6416    -6361    -6423 
   -6543    -6516    -6470    -6502    -6447    -6372    -6470    -6552 
   -6439    -6358    -6415    -6431    -6420    -6457    -6458    -6427 
   -6397    -6354    -6393    -6509    -6509    -6428    -6438    -6463 
   -6408    -6392    -6454    -6489    -6494    -6455    -6343    -6319 
   -6423    -6480    -6521    -6590    -6516    -6370    -6377    -6431 
   -6415    -6453    -6519    -6458    -6351    -6359    -6466    -6505 
   -6426    -6390    -6489    -6555    -6475    -6377    -6354    -6370 
   -6465    -6574    -6498    -6367    -6407    -6458    -6407    -6392 
   -6417    -6442    -6490    -6498    -6459    -6463    -6482    -6421 
   -6346    -6396    -6485    -6475    -6475    -6534    -6493    -6389 
   -6363    -6382    -6413    -6466    -6475    -6432    -6385    -6378 
   -6457    -6531    -6469    -6377    -6396    -6431    -6408    -6426 
   -6473    -6439    -6407    -6448    -6432    -6390    -6442    -6477 
   -6458    -6520    -6577    -6448    -6330    -6430    -6521    -6465 
   -6430    -6453    -6462    -6473    -6493    -6512    -6502    -6432 
   -6349    -6327    -6358    -6413    -6455    -6432    -6384    -6362 
   -6331    -6351    -6508    -6658    -6617    -6448    -6343    -6340 
   -6374    -6430    -6458    -6458    -6502    -6505    -6390    -6323 
   -6404    -6501    -6501    -6436    -6404    -6463    -6534    -6529 
   -6524    -6544    -6486    -6338    -6242    -6313    -6471    -6535 
   -6457    -6366    -6346    -6362    -6416    -6482    -6474    -6440 
   -6459    -6478    -6431    -6365    -6399    -6507    -6551    -6555 
   -6562    -6513    -6428    -6331    -6266    -6328    -6480    -6559 
   -6478    -6376    -6440    -6529    -6459    -6386    -6448    -6505 
   -6439    -6350    -6372    -6409    -6351    -6354    -6486    -6556 
   -6515    -6485    -6469    -6390    -6332    -6421    -6517    -6463 
   -6399    -6436    -6467    -6447    -6439    -6453    -6467    -6423 
   -6347    -6381    -6500    -6546    -6497    -6421    -6372    -6372 
   -6408    -6465    -6525    -6524    -6434    -6381    -6453    -6520 
   -6469    -6386    -6394    -6431    -6374    -6308    -6407    -6543 
   -6515    -6453    -6474    -6450    -6376    -6390    -6428    -6393 
   -6417    -6548    -6566    -6436    -6397    -6442    -6419    -6424 
   -6493    -6486    -6448    -6478    -6477    -6380    -6331    -6390 
   -6423    -6409    -6426    -6453    -6470    -6462    -6431    -6435 
   -6435    -6407    -6443    -6494    -6469    -6438    -6427    -6424 
   -6459    -6473    -6430    -6393    -6377    -6373    -6423    -6527 
   -6589    -6551    -6486    -6424    -6355    -6373    -6477    -6512 
   -6465    -6432    -6435    -6415    -6346    -6316    -6392    -6512 
   -6544    -6457    -6411    -6434    -6397    -6396    -6475    -6457 
   -6400    -6463    -6505    -6435    -6407    -6434    -6400    -6366 
   -6434    -6496    -6478    -6494    -6535    -6489    -6421    -6381 
   -6340    -6366    -6453    -6496    -6494    -6492    -6507    -6507 
   -6448    -6358    -6313    -6354    -6430    -6444    -6403    -6416 
   -6496    -6494    -6400    -6358    -6408    -6486    -6527    -6481 
   -6416    -6404    -6415    -6457    -6542    -6569    -6508    -6453 
   -6431    -6432    -6417    -6347    -6319    -6388    -6458    -6478 
   -6474    -6480    -6482    -6463    -6426    -6384    -6393    -6436 
   -6440    -6455    -6496    -6470    -6401    -6374    -6386    -6436 
   -6524    -6550    -6482    -6428    -6384    -6335    -6372    -6434 
   -6450    -6500    -6517    -6388    -6336    -6512    -6637    -6596 
   -6539    -6423    -6251    -6253    -6397    -6447    -6396    -6390 
   -6432    -6428    -6409    -6447    -6515    -6566    -6552    -6444 
   -6340    -6349    -6440    -6513    -6519    -6492    -6434    -6362 
   -6381    -6462    -6501    -6525    -6535    -6496    -6426    -6334 
   -6293    -6355    -6462    -6525    -6515    -6473    -6428    -6380 
   -6385    -6419    -6439    -6493    -6498    -6385    -6313    -6396 
   -6502    -6486    -6424    -6427    -6439    -6434    -6469    -6485 
   -6439    -6434    -6458    -6411    -6363    -6430    -6524    -6509 
   -6436    -6412    -6405    -6407    -6462    -6520    -6523    -6444 
   -6309    -6232    -6307    -6463    -6556    -6561    -6542    -6502 
   -6453    -6428    -6394    -6345    -6372    -6473    -6527    -6507 
   -6474    -6423    -6373    -6390    -6457    -6507    -6521    -6494 
   -6436    -6376    -6362    -6416    -6430    -6361    -6350    -6432 
   -6470    -6459    -6508    -6551    -6475    -6396    -6397    -6377 
   -6355    -6403    -6457    -6484    -6531    -6571    -6525    -6419 
   -6373    -6413    -6474    -6508    -6463    -6369    -6324    -6335 
   -6363    -6415    -6515    -6608    -6597    -6482    -6346    -6308 
   -6399    -6459    -6446    -6484    -6554    -6524    -6377    -6268 
   -6313    -6396    -6376    -6372    -6517    -6596    -6462    -6380 
   -6434    -6434    -6382    -6419    -6513    -6539    -6517    -6509 
   -6462    -6428    -6488    -6532    -6450    -6347    -6377    -6462 
   -6454    -6386    -6332    -6313    -6340    -6404    -6466    -6471 
   -6446    -6409    -6365    -6457    -6679    -6774    -6675    -6529 
   -6412    -6312    -6262    -6324    -6438    -6494    -6467    -6374 
   -6278    -6291    -6431    -6567    -6606    -6551    -6440    -6373 
   -6409    -6482    -6512    -6512    -6569    -6646    -6667    -6670 
   -6655    -6589    -6498    -6363    -6262    -6328    -6421    -6349 
   -6169    -6081    -6134    -6177    -6181    -6265    -6432    -6556 
   -6544    -6473    -6462    -6496    -6508    -6529    -6628    -6714 
   -6617    -6399    -6300    -6316    -6234    -6189    -6390    -6574 
   -6521    -6439    -6428    -6346    -6219    -6223    -6339    -6407 
   -6455    -6571    -6643    -6631    -6691    -6847    -6843    -6492 
   -6035    -5886    -6108    -6427    -6578    -6539    -6513    -6528 
   -6351    -6089    -6168    -6497    -6702    -6863    -6991    -6782 
   -6359    -6129    -6112    -6172    -6334    -6593    -6826    -6835 
   -6528    -6200    -6145    -6249    -6382    -6559    -6586    -6359 
   -6227    -6374    -6454    -6264    -6173    -6408    -6635    -6704 
   -6782    -6687    -6340    -6118    -6169    -6311    -6403    -6407 
   -6444    -6574    -6558    -6335    -6285    -6516    -6637    -6554 
   -6521    -6531    -6509    -6482    -6421    -6439    -6608    -6677 
   -6482    -6265    -6313    -6505    -6520    -6401    -6386    -6393 
   -6226    -6079    -6224    -6440    -6517    -6631    -6758    -6713 
   -6559    -6435    -6427    -6540    -6562    -6386    -6281    -6377 
   -6462    -6490    -6589    -6682    -6612    -6421    -6327    -6354 
   -6274    -6120    -6158    -6336    -6432    -6474    -6552    -6594 
   -6544    -6488    -6454    -6397    -6411    -6538    -6562    -6380 
   -6281    -6381    -6305    -6018    -6003    -6249    -6326    -6259 
   -6318    -6528    -6818    -7022    -6891    -6527    -6351    -6501 
   -6710    -6714    -6600    -6616    -6713    -6620    -6359    -6199 
   -6201    -6362    -6647    -6666    -6284    -6006    -6072    -6237 
   -6394    -6539    -6592    -6556    -6417    -6166    -6041    -6211 
   -6467    -6621    -6675    -6590    -6394    -6197    -6129    -6363 
   -6650    -6525    -6246    -6268    -6492    -6694    -6778    -6681 
   -6481    -6280    -6083    -5984    -6156    -6558    -6836    -6743 
   -6540    -6516    -6501    -6301    -6103    -6177    -6328    -6308 
   -6403    -6691    -6812    -6691    -6426    -6143    -6187    -6592 
   -6898    -6806    -6554    -6342    -6007    -5756    -6166    -6979 
   -7238    -6799    -6330    -6115    -6091    -6327    -6685    -6848 
   -6779    -6552    -6285    -6234    -6299    -6145    -5995    -6192 
   -6493    -6714    -6990    -7106    -6774    -6253    -5999    -6118 
   -6358    -6481    -6505    -6571    -6666    -6589    -6311    -6115 
   -6169    -6359    -6496    -6532    -6623    -6775    -6790    -6620 
   -6354    -6141    -6172    -6443    -6752    -6810    -6490    -6111 
   -5950    -5886    -5910    -6207    -6606    -6686    -6462    -6296 
   -6261    -6304    -6466    -6620    -6619    -6544    -6494    -6477 
   -6455    -6340    -6201    -6292    -6588    -6735    -6651    -6532 
   -6424    -6382    -6477    -6524    -6446    -6482    -6671    -6767 
   -6736    -6739    -6781    -6737    -6567    -6446    -6556    -6651 
   -6400    -6066    -6029    -6164    -6269    -6440    -6691    -6728 
   -6409    -6041    -5926    -6054    -6308    -6594    -6694    -6426 
   -6030    -5883    -6018    -6284    -6517    -6644    -6727    -6686 
   -6448    -6253    -6281    -6492    -6849    -7209    -7245    -6813 
   -6124    -5593    -5556    -6019    -6542    -6642    -6401    -6254 
   -6345    -6508    -6552    -6431    -6313    -6376    -6504    -6534 
   -6625    -6848    -6880    -6629    -6420    -6324    -6192    -6211 
   -6467    -6582    -6459    -6444    -6571    -6615    -6470    -6165 
   -5981    -6208    -6608    -6702    -6450    -6276    -6431    -6651 
   -6656    -6538    -6442    -6318    -6104    -6012    -6273    -6708 
   -6964    -6936    -6678    -6319    -6079    -6050    -6184    -6434 
   -6650    -6617    -6324    -5999    -5952    -6323    -6847    -7088 
   -6959    -6822    -6848    -6713    -6340    -6116    -6222    -6466 
   -6579    -6501    -6474    -6563    -6527    -6336    -6130    -5883 
   -5687    -5809    -6223    -6605    -6748    -6706    -6689    -6781 
   -6768    -6562    -6434    -6480    -6459    -6390    -6500    -6687 
   -6717    -6543    -6253    -6110    -6286    -6463    -6319    -6068 
   -6085    -6377    -6637    -6642    -6485    -6343    -6243    -6307 
   -6677    -7056    -6982    -6507    -6122    -6122    -6324    -6451 
   -6535    -6700    -6820    -6720    -6469    -6181    -5913    -5794 
   -5863    -5969    -6112    -6431    -6754    -6758    -6589    -6628 
   -6781    -6782    -6727    -6678    -6463    -6131    -6026    -6274 
   -6542    -6543    -6415    -6296    -6192    -6173    -6295    -6540 
   -6822    -6941    -6735    -6349    -6143    -6288    -6628    -6878 
   -6899    -6781    -6619    -6424    -6243    -6183    -6259    -6266 
   -6042    -5761    -5749    -6119    -6650    -7042    -7145    -6920 
   -6507    -6126    -5931    -6058    -6459    -6879    -7078    -6953 
   -6617    -6261    -6031    -6089    -6372    -6529    -6442    -6291 
   -6201    -6226    -6413    -6640    -6694    -6581    -6446    -6361 
   -6358    -6431    -6502    -6527    -6551    -6566    -6446    -6184 
   -5985    -5971    -6089    -6277    -6480    -6613    -6596    -6517 
   -6596    -6797    -6901    -6880    -6775    -6539    -6309    -6273 
   -6359    -6477    -6588    -6562    -6369    -6157    -6066    -6137 
   -6288    -6440    -6602    -6737    -6755    -6619    -6401    -6300 
   -6443    -6650    -6656    -6474    -6319    -6288    -6324    -6350 
   -6312    -6212    -6149    -6156    -6111    -6031    -6062    -6185 
   -6331    -6531    -6717    -6760    -6721    -6712    -6685    -6606 
   -6566    -6650    -6832    -6934    -6797    -6532    -6365    -6296 
   -6197    -6135    -6210    -6288    -6281    -6239    -6126    -5984 
   -6003    -6230    -6567    -6870    -6959    -6801    -6574    -6492 
   -6556    -6656    -6755    -6732    -6528    -6409    -6521    -6644 
   -6593    -6403    -6220    -6151    -6197    -6313    -6465    -6598 
   -6602    -6432    -6200    -6084    -6165    -6332    -6455    -6544 
   -6651    -6741    -6716    -6543    -6342    -6208    -6111    -6053 
   -6107    -6249    -6407    -6562    -6593    -6439    -6349    -6484 
   -6646    -6669    -6608    -6550    -6473    -6326    -6216    -6300 
   -6516    -6652    -6589    -6394    -6269    -6312    -6430    -6551 
   -6675    -6716    -6582    -6385    -6284    -6274    -6259    -6237 
   -6282    -6399    -6509    -6579    -6588    -6525    -6474    -6515 
   -6563    -6446    -6243    -6220    -6369    -6458    -6467    -6515 
   -6554    -6478    -6374    -6415    -6610    -6809    -6849    -6710 
   -6502    -6296    -6122    -6068    -6135    -6196    -6215    -6230 
   -6285    -6412    -6474    -6355    -6242    -6304    -6416    -6431 
   -6421    -6520    -6691    -6775    -6681    -6500    -6455    -6628 
   -6779    -6708    -6542    -6455    -6440    -6469    -6558    -6623 
   -6573    -6448    -6311    -6160    -6025    -5998    -6080    -6178 
   -6247    -6323    -6474    -6716    -6893    -6859    -6691    -6534 
   -6451    -6446    -6454    -6471    -6574    -6702    -6702    -6573 
   -6426    -6349    -6346    -6359    -6338    -6242    -6134    -6170 
   -6319    -6396    -6370    -6345    -6385    -6442    -6428    -6409 
   -6455    -6469    -6427    -6459    -6552    -6583    -6531    -6493 
   -6519    -6490    -6358    -6280    -6334    -6403    -6394    -6380 
   -6463    -6525    -6423    -6316    -6330    -6336    -6326    -6438 
   -6588    -6561    -6409    -6367    -6412    -6357    -6253    -6288 
   -6498    -6732    -6829    -6804    -6736    -6646    -6567    -6515 
   -6457    -6399    -6338    -6293    -6331    -6413    -6415    -6342 
   -6312    -6373    -6430    -6399    -6373    -6420    -6439    -6365 
   -6297    -6362    -6515    -6597    -6556    -6470    -6430    -6443 
   -6407    -6264    -6137    -6146    -6272    -6438    -6601    -6728 
   -6745    -6642    -6520    -6458    -6440    -6453    -6485    -6486 
   -6440    -6412    -6436    -6446    -6423    -6428    -6424    -6351 
   -6274    -6265    -6307    -6332    -6345    -6421    -6534    -6588 
   -6620    -6681    -6709    -6660    -6566    -6455    -6354    -6326 
   -6372    -6424    -6450    -6436    -6407    -6400    -6381    -6326 
   -6332    -6432    -6527    -6543    -6470    -6339    -6245    -6245 
   -6319    -6407    -6431    -6377    -6331    -6365    -6424    -6434 
   -6428    -6467    -6509    -6521    -6547    -6586    -6593    -6546 
   -6497    -6529    -6581    -6552    -6535    -6593    -6651    -6647 
   -6555    -6405    -6242    -6104    -6085    -6191    -6309    -6409 
   -6493    -6544    -6542    -6465    -6369    -6339    -6376    -6443 
   -6513    -6529    -6490    -6446    -6453    -6529    -6583    -6532 
   -6427    -6358    -6334    -6311    -6305    -6349    -6376    -6346 
   -6313    -6300    -6307    -6362    -6428    -6454    -6465    -6488 
   -6492    -6462    -6469    -6539    -6582    -6590    -6629    -6654 
   -6612    -6544    -6508    -6511    -6508    -6453    -6365    -6301 
