Origin Time       2021/08/14 22:38:00
Lat.              37.5
Long.             137.2
Depth. (km)       10
Mag.              4.1
Station Code      ISKH02
Station Lat.      37.3644
Station Long.     137.0413
Station Height(m) 19
Record Time       2021/08/14 22:38:11
Sampling Freq(Hz) 100Hz
Duration Time(s)  120
Dir.              2
Scale Factor      3923(gal)/8224838
Max. Acc. (gal)   3.569
Last Correction   2021/08/14 22:38:11
Memo.             
[...]
   13252    13251    13255    13255    13252    13252    13254    13254 
   13254    13251    13251    13252    13254    13257    13255    13251 
   13251    13252    13254    13254    13254    13255    13255    13254 
   13255    13254    13251    13252    13254    13252    13252    13254 
   13254    13252    13252    13254    13252    13252    13255    13255 
   13254    13254    13255    13255    13252    13252    13252    13251 
   13252    13254    13255    13254    13251    13252    13254    13252 
   13254    13255    13254    13252    13254    13254    13255    13254 
   13251    13254    13254    13252    13252    13255    13254    13254 
   13255    13252    13255    13255    13252    13255    13257    13254 
   13254    13252    13254    13255    13254    13251    13252    13255 
   13254    13252    13252    13252    13252    13251    13251    13255 
   13255    13255    13255    13254    13252    13252    13252    13254 
   13257    13255    13251    13254    13255    13254    13254    13254 
   13251    13254    13255    13252    13252    13257    13252    13251 
   13252    13252    13251    13254    13255    13255    13252    13251 
   13252    13254    13255    13255    13255    13252    13251    13255 
   13255    13254    13255    13258    13255    13252    13255    13255 
   13254    13254    13254    13255    13255    13252    13252    13254 
   13257    13258    13257    13255    13254    13252    13254    13254 
   13254    13254    13255    13254    13254    13255    13257    13255 
   13254    13254    13255    13255    13254    13254    13254    13252 
   13254    13255    13255    13255    13255    13252    13251    13251 
   13254    13252    13251    13252    13254    13255    13252    13252 
   13252    13252    13252    13254    13251    13251    13254    13254 
   13252    13251    13252    13254    13255    13255    13254    13251 
   13254    13255    13254    13252    13254    13254    13254    13252 
   13252    13254    13254    13254    13255    13255    13254    13254 
   13252    13251    13252    13252    13252    13254    13252    13254 
   13254    13252    13254    13255    13255    13255    13255    13252 
   13252    13254    13252    13252    13251    13250    13251    13255 
   13255    13254    13252    13252    13250    13251    13252    13252 
   13255    13255    13251    13254    13255    13254    13252    13254 
   13252    13252    13252    13252    13254    13255    13254    13255 
   13255    13254    13255    13257    13255    13254    13251    13250 
   13252    13254    13255    13255    13252    13254    13254    13254 
   13254    13255    13254    13254    13254    13251    13251    13255 
   13255    13254    13255    13254    13252    13251    13252    13258 
   13257    13254    13254    13251    13250    13252    13255    13255 
   13254    13252    13254    13252    13251    13252    13251    13250 
   13252    13255    13252    13252    13254    13254    13252    13251 
   13252    13255    13255    13255    13254    13254    13251    13251 
   13252    13252    13254    13252    13251    13252    13254    13254 
   13254    13255    13254    13252    13252    13254    13252    13254 
   13254    13254    13251    13250    13254    13254    13251    13252 
   13255    13255    13252    13251    13251    13252    13252    13252 
   13252    13252    13255    13257    13255    13252    13255    13257 
   13252    13251    13254    13254    13252    13254    13252    13251 
   13254    13255    13252    13252    13255    13257    13254    13252 
   13251    13252    13257    13255    13254    13254    13254    13252 
   13254    13255    13252    13251    13254    13254    13254    13257 
   13255    13254    13254    13252    13252    13252    13252    13254 
   13257    13255    13251    13252    13255    13254    13251    13252 
   13255    13252    13252    13257    13257    13254    13257    13255 
   13252    13254    13254    13252    13254    13257    13255    13254 
   13257    13257    13254    13257    13254    13250    13252    13258 
   13257    13255    13255    13254    13252    13254    13255    13254 
   13255    13254    13251    13252    13255    13254    13252    13257 
   13257    13254    13254    13254    13251    13252    13254    13251 
   13252    13255    13254    13252    13255    13257    13252    13252 
   13255    13255    13254    13255    13257    13252    13251    13255 
   13257    13254    13250    13251    13255    13258    13257    13254 
   13254    13255    13251    13252    13257    13254    13251    13252 
   13255    13251    13250    13252    13254    13257    13255    13252 
   13252    13254    13254    13254    13254    13252    13254    13254 
   13254    13254    13254    13254    13255    13255    13255    13255 
   13254    13252    13251    13252    13255    13255    13254    13255 
   13255    13252    13252    13252    13254    13254    13255    13255 
   13255    13255    13254    13252    13252    13254    13255    13257 
   13255    13254    13254    13252    13255    13254    13251    13255 
   13257    13254    13254    13255    13254    13254    13252    13251 
   13252    13254    13252    13252    13254    13254    13252    13252 
   13255    13257    13255    13255    13252    13252    13255    13254 
   13254    13254    13254    13254    13254    13255    13255    13254 
   13254    13254    13255    13255    13251    13252    13257    13255 
   13254    13257    13255    13252    13254    13255    13252    13251 
   13255    13252    13250    13255    13255    13252    13252    13251 
   13251    13255    13254    13251    13252    13252    13251    13251 
   13254    13255    13252    13254    13255    13254    13252    13255 
   13255    13252    13252    13255    13255    13254    13254    13255 
   13254    13255    13257    13255    13254    13255    13257    13255 
   13255    13255    13254    13252    13254    13255    13254    13252 
   13252    13255    13254    13251    13252    13255    13255    13254 
   13252    13251    13254    13254    13251    13252    13255    13254 
   13251    13252    13255    13252    13250    13252    13254    13252 
   13254    13257    13255    13252    13252    13254    13254    13251 
   13252    13255    13257    13254    13254    13257    13255    13252 
   13255    13255    13252    13251    13251    13254    13257    13255 
   13252    13254    13254    13254    13255    13257    13257    13257 
   13255    13252    13254    13255    13255    13254    13252    13254 
   13251    13250    13254    13258    13255    13254    13254    13252 
   13252    13252    13254    13254    13254    13254    13255    13254 
   13254    13252    13252    13252    13254    13252    13252    13254 
   13254    13254    13257    13255    13255    13257    13255    13255 
   13255    13254    13255    13254    13252    13254    13255    13255 
   13255    13254    13251    13251    13255    13257    13257    13255 
   13252    13252    13254    13255    13257    13255    13251    13254 
   13254    13251    13252    13255    13257    13255    13252    13254 
   13255    13255    13254    13251    13251    13255    13257    13254 
   13252    13254    13254    13254    13252    13252    13255    13254 
   13252    13255    13255    13255    13255    13252    13251    13252 
   13255    13254    13252    13255    13255    13254    13257    13258 
   13254    13252    13254    13254    13251    13251    13254    13252 
   13252    13255    13252    13251    13255    13255    13252    13255 
   13254    13251    13252    13252    13248    13252    13255    13254 
   13252    13252    13254    13254    13251    13252    13255    13255 
   13254    13254    13255    13255    13254    13254    13254    13254 
   13254    13254    13254    13255    13254    13252    13254    13255 
   13255    13255    13254    13254    13254    13254    13252    13252 
   13254    13252    13252    13254    13255    13252    13255    13255 
   13252    13252    13255    13257    13255    13254    13252    13255 
   13257    13257    13255    13255    13255    13254    13252    13255 
   13255    13254    13252    13252    13252    13252    13252    13254 
   13257    13254    13252    13257    13255    13252    13252    13254 
   13255    13255    13252    13254    13255    13255    13257    13255 
   13252    13252    13254    13254    13255    13255    13252    13254 
   13255    13254    13254    13251    13251    13251    13252    13257 
   13257    13255    13255    13255    13255    13255    13252    13254 
   13255    13254    13254    13254    13255    13255    13255    13255 
   13252    13252    13252    13255    13255    13255    13255    13255 
   13254    13252    13252    13254    13254    13252    13255    13255 
   13252    13252    13252    13251    13252    13255    13255    13257 
   13257    13255    13257    13257    13255    13254    13252    13252 
   13252    13252    13252    13255    13257    13254    13255    13257 
   13252    13251    13254    13255    13255    13255    13257    13254 
   13254    13257    13255    13254    13255    13252    13252    13258 
   13259    13254    13254    13255    13255    13257    13258    13257 
   13254    13255    13255    13254    13255    13254    13251    13254 
   13257    13254    13252    13255    13255    13252    13254    13257 
   13254    13254    13255    13255    13254    13254    13254    13254 
   13252    13252    13255    13258    13255    13252    13254    13257 
   13254    13252    13254    13254    13254    13254    13254    13255 
   13254    13254    13254    13254    13255    13257    13255    13255 
   13255    13257    13258    13258    13255    13254    13252    13254 
   13257    13255    13252    13254    13255    13252    13254    13255 
   13254    13254    13257    13257    13254    13255    13254    13254 
   13257    13257    13254    13257    13257    13254    13252    13255 
   13257    13255    13254    13254    13252    13254    13257    13255 
   13252    13254    13255    13252    13255    13257    13254    13252 
   13255    13254    13254    13258    13257    13252    13252    13254 
   13258    13269    13278    13286    13305    13343    13383    13379 
   13311    13203    13096    13050    13111    13189    13174    13100 
   13078    13248    13543    13601    13387    13289    13400    13389 
   13097    12949    13261    13510    13186    12773    13065    13672 
   13518    12881    12868    13432    13618    13015    12563    13130 
   13711    13404    13269    13865    13986    13130    12575    13358 
   14349    13636    12087    12141    13404    13720    12947    12789 
   13678    14065    13301    12633    13097    13834    13327    12251 
   12525    13668    13695    12787    12723    13768    14304    13327 
   12278    12856    14143    14235    13020    12295    13232    14343 
   14027    12985    12685    13194    13184    12663    12965    13842 
   13890    12841    12147    12903    13956    13738    12835    12891 
   13759    13945    13190    12599    12970    13821    13944    13254 
   12749    12837    13352    13717    13371    12734    12563    13035 
   13680    13933    13651    13165    12924    12895    13092    13549 
   13663    13402    13242    13100    12982    13166    13494    13429 
   13069    13046    13437    13744    13427    12688    12553    13397 
   13979    13250    12360    12708    13756    14025    13207    12606 
   12980    13547    13618    13576    13772    13486    12469    12181 
   13338    14233    13706    12974    13138    13514    13041    12451 
   13232    14467    14203    12764    12089    12818    13493    13232 
   13076    13680    13867    12950    12568    13278    13385    12838 
   13015    13652    13541    13085    13556    14351    13851    12432 
   12112    13348    14509    13927    12128    11929    13531    13940 
   12715    11982    12866    14393    14585    13227    12267    13042 
   14328    14245    13279    12831    12860    12831    12687    12885 
   13532    13786    13379    12980    13036    13574    14057    13711 
   12869    12619    13019    13329    13207    13005    13398    13895 
   13192    12102    12542    14013    14608    13655    12421    12749 
   13979    13795    12407    12178    13570    14327    13413    12746 
   13409    13905    13242    12579    12920    13207    12783    12991 
   13846    13633    12602    12696    14037    14584    13473    12557 
   13100    13429    12563    12486    14014    14683    12951    11430 
   12969    15110    14026    11881    12582    14338    13644    11776 
   12087    14026    14405    13128    12580    13246    13567    13015 
   13147    14146    14050    12985    12927    13753    13667    12502 
   12104    13261    14316    13936    12885    12561    13030    13158 
   12900    13143    13761    13950    13240    12152    12091    13504 
   14607    13944    12691    12625    13767    14214    13105    12295 
   12945    13994    13859    12645    12486    13614    13780    12685 
   12298    13174    14168    14366    14035    14669    15867    15195 
   13490    13468    14164    13363    11896    11554    12286    12337 
   10508     8842     9906    12301    13070    12456    12785    14179 
   14987    15009    15410    16472    16599    14411    11902    12032 
   13887    14666    13216    10192     8687    11389    15776    17433 
   16063    13853    12206    12108    13203    13953    14755    15304 
   12560     7537     5772     9224    14111    15469    13562    13173 
   14440    14573    15094    16434    15886    13544    11997    12957 
   14809    14592    12492    10393     9535     9937    11184    14455 
   18330    17801    13003     9748    11092    14389    15672    14512 
   12753    11618    11855    13038    14287    15098    14600    13451 
   13054    13150    13230    13116    12650    12025    12205    13338 
   13236    12248    13041    14663    14898    12781    10176    11916 
   16683    17300    13113    10631    12748    14224    11033     8658 
   12771    18492    17788    11659     8540    12376    16818    15487 
   12333    13323    15993    15317    12478    11844    13471    13911 
   12421    11367    11863    12939    13122    11955    11427    12668 
   13707    13585    13225    13126    13327    13308    12879    13138 
   14350    14972    14230    13764    14542    14315    12282    11677 
   13401    14382    13713    12843    12221    11831    11757    12730 
   15028    15965    13594    11152    12438    15352    15147    12081 
   10493    11789    13308    13351    13096    13981    15083    14303 
   12509    12626    14754    15685    13805    11701    11539    12214 
   12178    11751    12982    16006    17001    13486     9386    10135 
   14283    16332    15129    13394    12461    11215     9639     9940 
   12401    14706    15477    15020    14841    15410    14409    12164 
   12290    14030    13757    11588    10381    11931    14628    14929 
   13169    13236    14750    13918    11535    11205    13147    14717 
   14033    12784    13639    14952    13544    10867    11159    14404 
   15940    13836    11416    11839    13851    13914    12330    12820 
   14840    14721    12660    11344    12312    14180    14366    14195 
   14991    14215    11674    10334    11157    12557    13317    14098 
   15090    14794    12831    11230    12015    14160    14825    13774 
   12860    12870    13657    14532    14727    14053    12771    12043 
   12483    13045    13435    14185    14388    13142    11539    11410 
   13166    14895    15120    14669    13745    12118    11041    11487 
   13176    14127    12563    11249    13014    14966    14651    13603 
   13215    13736    13824    12367    11319    12042    13657    15134 
   14851    12451    11010    12533    14661    14629    13073    13146 
   15175    15186    12432    11233    12943    13659    11618    10210 
   11842    14611    15134    13198    12390    13851    14997    14636 
   13489    12484    12364    13100    13902    13855    13250    13196 
   13200    12231    11276    12187    14520    15383    14121    13414 
   14015    13817    12198    11323    12634    14222    14048    13479 
   14008    13834    12082    11681    13788    15090    13247    10712 
   11400    14513    15657    14103    12762    12630    12229    11299 
   11943    14515    15886    14215    11989    12310    14130    14339 
   12814    11858    12603    13602    13207    12661    13829    15380 
   14951    12997    11736    12058    12995    13421    13458    13574 
   13059    11751    11470    12908    14308    14315    13508    13327 
   14027    14339    13896    13559    13138    12459    12334    12671 
   12961    12993    12814    13124    13988    14756    14570    12873 
   11304    12017    14165    14611    12650    11704    13373    14589 
   13188    11452    12433    14611    14332    12696    13170    15049 
   15361    13819    12660    12982    13392    12772    12010    12268 
   13196    13684    13693    13863    13753    12802    12274    13090 
   13721    13000    12198    12870    14049    13298    11240    11307 
   13772    15179    14386    13672    13882    13513    12249    11877 
   13477    15257    14960    13572    13486    14154    13491    11962 
   11481    12349    13563    14148    13841    12937    11886    11746 
   12987    14156    14083    13524    13169    12657    12370    13279 
   14400    13969    12762    12772    13761    13587    12147    12518 
   15136    15597    12530    10440    12132    14696    14497    12731 
   12773    13991    13635    12460    12826    14119    14192    13089 
   12717    13306    12930    11699    12133    14156    14763    13231 
   12333    13423    14426    14131    13694    13386    12529    11846 
   12403    13521    13770    12874    12097    12702    13799    13791 
   13277    13567    14300    14237    13024    11982    12303    13159 
   13196    12286    11900    13436    15261    15125    13711    12973 
   13614    14029    12811    11704    12521    14044    14108    12845 
   12606    13852    14153    13109    12928    14011    14519    13329 
   11881    12098    13185    13354    12815    12723    12955    12783 
   12641    13038    13383    13320    13239    13360    13340    13246 
   13521    13745    13610    13475    13516    13687    13740    13751 
   13802    13321    12225    11429    11880    13293    14359    14612 
   14395    13710    12897    12781    13400    13917    13433    12222 
   12023    13360    14386    13541    11611    11236    13296    14751 
   13757    12834    13954    15498    15018    13046    12274    12664 
   12172    11485    12376    13969    14305    13252    12490    12928 
   13339    13173    13581    14457    14486    13490    12610    12789 
   13470    13616    13030    12078    11844    13120    14631    14504 
   13055    12449    13459    14292    13601    12414    12252    12982 
   13393    13286    13351    13355    12745    12252    12685    13419 
   13416    12735    12664    13863    14932    14500    13382    13032 
   13315    13022    12108    12087    13622    15286    15333    13770 
   12379    12351    13059    13562    13429    12850    12542    12707 
   12885    12907    13028    13346    13477    13211    13323    14141 
