Origin Time       2021/08/14 22:38:00
Lat.              37.5
Long.             137.2
Depth. (km)       10
Mag.              4.1
Station Code      ISKH06
Station Lat.      37.0533
Station Long.     136.8206
Station Height(m) -180.45
Record Time       2021/08/14 22:38:25
Sampling Freq(Hz) 100Hz
Duration Time(s)  120
Dir.              2
Scale Factor      3923(gal)/8224838
Max. Acc. (gal)   0.547
Last Correction   2021/08/14 22:38:25
Memo.             
[...]
   -9509    -9512    -9509    -9509    -9513    -9513    -9510    -9512 
   -9512    -9510    -9510    -9512    -9510    -9510    -9510    -9510 
   -9513    -9512    -9510    -9514    -9512    -9508    -9510    -9512 
   -9509    -9510    -9512    -9509    -9510    -9512    -9509    -9509 
   -9510    -9510    -9510    -9509    -9509    -9513    -9509    -9506 
   -9512    -9512    -9508    -9509    -9510    -9509    -9510    -9513 
   -9513    -9512    -9510    -9510    -9508    -9510    -9513    -9509 
   -9510    -9514    -9513    -9512    -9513    -9513    -9512    -9510 
   -9510    -9510    -9512    -9512    -9510    -9510    -9512    -9509 
   -9509    -9509    -9512    -9512    -9509    -9512    -9513    -9512 
   -9510    -9512    -9512    -9510    -9512    -9510    -9512    -9512 
   -9509    -9512    -9516    -9513    -9510    -9512    -9512    -9509 
   -9510    -9510    -9509    -9509    -9514    -9514    -9508    -9510 
   -9514    -9510    -9509    -9509    -9508    -9510    -9510    -9508 
   -9512    -9513    -9510    -9512    -9513    -9510    -9508    -9513 
   -9513    -9506    -9509    -9514    -9513    -9510    -9510    -9512 
   -9510    -9509    -9510    -9512    -9510    -9512    -9510    -9510 
   -9510    -9510    -9513    -9513    -9509    -9509    -9513    -9512 
   -9509    -9510    -9510    -9510    -9510    -9510    -9509    -9509 
   -9510    -9510    -9512    -9514    -9514    -9512    -9513    -9512 
   -9508    -9510    -9514    -9512    -9510    -9510    -9509    -9509 
   -9510    -9512    -9512    -9512    -9512    -9510    -9512    -9514 
   -9510    -9508    -9510    -9512    -9512    -9512    -9512    -9510 
   -9510    -9514    -9512    -9506    -9509    -9513    -9513    -9512 
   -9512    -9516    -9513    -9510    -9510    -9509    -9510    -9510 
   -9508    -9510    -9512    -9510    -9513    -9513    -9509    -9509 
   -9510    -9512    -9513    -9513    -9512    -9512    -9512    -9509 
   -9510    -9512    -9514    -9512    -9510    -9512    -9513    -9510 
   -9510    -9512    -9513    -9512    -9508    -9509    -9513    -9513 
   -9512    -9512    -9510    -9509    -9510    -9510    -9509    -9510 
   -9512    -9513    -9510    -9509    -9510    -9509    -9506    -9514 
   -9514    -9508    -9509    -9510    -9509    -9509    -9510    -9513 
   -9513    -9509    -9510    -9513    -9508    -9508    -9513    -9512 
   -9512    -9512    -9510    -9513    -9510    -9506    -9512    -9514 
   -9510    -9509    -9509    -9510    -9512    -9509    -9508    -9508 
   -9510    -9510    -9510    -9512    -9513    -9512    -9510    -9512 
   -9512    -9509    -9512    -9512    -9509    -9510    -9512    -9510 
   -9512    -9513    -9510    -9510    -9512    -9510    -9509    -9512 
   -9509    -9509    -9513    -9510    -9509    -9512    -9510    -9509 
   -9512    -9512    -9513    -9512    -9508    -9510    -9514    -9512 
   -9509    -9509    -9509    -9509    -9512    -9510    -9508    -9508 
   -9509    -9510    -9513    -9512    -9508    -9509    -9513    -9510 
   -9509    -9509    -9512    -9512    -9510    -9510    -9512    -9512 
   -9509    -9506    -9508    -9508    -9504    -9501    -9502    -9510 
   -9518    -9521    -9517    -9514    -9518    -9520    -9520    -9521 
   -9521    -9516    -9512    -9509    -9506    -9504    -9502    -9495 
   -9493    -9499    -9513    -9525    -9528    -9522    -9508    -9493 
   -9499    -9514    -9524    -9520    -9495    -9481    -9482    -9478 
   -9493    -9524    -9528    -9548    -9568    -9531    -9510    -9525 
   -9489    -9475    -9518    -9504    -9481    -9539    -9551    -9499 
   -9505    -9477    -9431    -9509    -9589    -9558    -9497    -9479 
   -9498    -9502    -9525    -9547    -9495    -9475    -9522    -9564 
   -9580    -9518    -9437    -9463    -9524    -9516    -9478    -9491 
   -9543    -9547    -9483    -9454    -9505    -9528    -9510    -9532 
   -9551    -9543    -9547    -9525    -9450    -9405    -9413    -9437 
   -9532    -9640    -9594    -9481    -9481    -9532    -9532    -9553 
   -9571    -9495    -9466    -9526    -9513    -9485    -9514    -9490 
   -9464    -9487    -9445    -9428    -9547    -9598    -9502    -9477 
   -9543    -9597    -9628    -9560    -9425    -9400    -9486    -9553 
   -9583    -9563    -9481    -9427    -9417    -9386    -9386    -9478 
   -9632    -9699    -9553    -9391    -9436    -9563    -9614    -9598 
   -9574    -9563    -9537    -9489    -9418    -9408    -9477    -9460 
   -9429    -9517    -9558    -9548    -9578    -9566    -9502    -9460 
   -9471    -9494    -9529    -9574    -9532    -9463    -9464    -9439 
   -9418    -9494    -9541    -9545    -9567    -9556    -9536    -9544 
   -9562    -9566    -9545    -9520    -9490    -9510    -9555    -9467 
   -9360    -9385    -9417    -9495    -9610    -9544    -9413    -9428 
   -9493    -9563    -9655    -9629    -9514    -9528    -9628    -9633 
   -9563    -9450    -9362    -9445    -9572    -9485    -9306    -9350 
   -9526    -9572    -9548    -9553    -9497    -9420    -9504    -9641 
   -9595    -9508    -9544    -9576    -9524    -9429    -9420    -9545 
   -9607    -9508    -9400    -9386    -9417    -9472    -9593    -9641 
   -9549    -9509    -9544    -9528    -9498    -9499    -9536    -9589 
   -9574    -9494    -9472    -9495    -9448    -9383    -9433    -9514 
   -9537    -9593    -9624    -9518    -9385    -9335    -9425    -9630 
   -9725    -9625    -9512    -9482    -9470    -9464    -9509    -9525 
   -9444    -9408    -9518    -9624    -9602    -9544    -9494    -9435 
   -9455    -9505    -9464    -9432    -9444    -9493    -9659    -9737 
   -9518    -9302    -9418    -9655    -9586    -9359    -9386    -9520 
   -9555    -9598    -9574    -9441    -9448    -9574    -9583    -9517 
   -9506    -9517    -9518    -9521    -9516    -9521    -9572    -9570 
   -9463    -9429    -9462    -9433    -9466    -9556    -9524    -9466 
   -9514    -9520    -9441    -9479    -9606    -9606    -9494    -9455 
   -9514    -9556    -9544    -9470    -9374    -9427    -9572    -9589 
   -9499    -9445    -9486    -9595    -9622    -9513    -9458    -9524 
   -9564    -9525    -9458    -9410    -9458    -9574    -9605    -9543 
   -9493    -9462    -9447    -9478    -9552    -9601    -9533    -9433 
   -9431    -9481    -9516    -9491    -9459    -9533    -9593    -9540 
   -9528    -9529    -9427    -9405    -9532    -9594    -9598    -9597 
   -9520    -9495    -9558    -9501    -9413    -9474    -9541    -9521 
   -9501    -9493    -9502    -9525    -9489    -9432    -9456    -9481 
   -9475    -9555    -9587    -9486    -9441    -9478    -9494    -9481 
   -9483    -9591    -9684    -9622    -9541    -9502    -9445    -9443 
   -9502    -9522    -9497    -9459    -9429    -9459    -9505    -9505 
   -9522    -9572    -9597    -9593    -9555    -9535    -9549    -9463 
   -9378    -9482    -9544    -9428    -9418    -9536    -9548    -9533 
   -9549    -9508    -9498    -9520    -9463    -9452    -9560    -9621 
   -9585    -9566    -9540    -9470    -9462    -9491    -9462    -9466 
   -9524    -9494    -9458    -9551    -9553    -9423    -9447    -9529 
   -9493    -9528    -9597    -9514    -9459    -9510    -9505    -9497 
   -9535    -9551    -9568    -9532    -9418    -9418    -9568    -9656 
   -9614    -9582    -9559    -9447    -9362    -9420    -9490    -9468 
   -9463    -9520    -9526    -9508    -9517    -9479    -9486    -9598 
   -9594    -9468    -9396    -9390    -9445    -9537    -9602    -9621 
   -9594    -9564    -9560    -9529    -9471    -9440    -9455    -9474 
   -9459    -9472    -9535    -9551    -9549    -9570    -9506    -9410 
   -9450    -9551    -9555    -9559    -9629    -9599    -9504    -9483 
   -9454    -9432    -9474    -9505    -9524    -9493    -9451    -9522 
   -9579    -9495    -9394    -9389    -9470    -9512    -9521    -9613 
   -9647    -9543    -9494    -9485    -9402    -9414    -9571    -9629 
   -9582    -9574    -9547    -9529    -9545    -9448    -9364    -9447 
   -9483    -9467    -9558    -9613    -9574    -9552    -9529    -9498 
   -9510    -9487    -9381    -9375    -9537    -9597    -9501    -9489 
   -9558    -9580    -9582    -9556    -9490    -9487    -9524    -9467 
   -9436    -9541    -9551    -9418    -9398    -9466    -9505    -9594 
   -9626    -9509    -9464    -9537    -9563    -9510    -9396    -9285 
   -9319    -9508    -9670    -9676    -9591    -9521    -9526    -9553 
   -9535    -9568    -9644    -9632    -9548    -9393    -9258    -9339 
   -9517    -9564    -9494    -9431    -9445    -9526    -9605    -9632 
   -9605    -9539    -9479    -9486    -9521    -9535    -9547    -9532 
   -9477    -9447    -9439    -9428    -9479    -9522    -9485    -9536 
   -9640    -9602    -9506    -9437    -9397    -9454    -9566    -9605 
   -9545    -9475    -9437    -9425    -9483    -9583    -9648    -9633 
   -9493    -9342    -9350    -9478    -9607    -9666    -9626    -9528 
   -9435    -9391    -9459    -9620    -9674    -9552    -9456    -9445 
   -9439    -9491    -9583    -9589    -9536    -9464    -9360    -9325 
   -9420    -9531    -9580    -9609    -9597    -9555    -9522    -9463 
   -9429    -9483    -9543    -9552    -9522    -9536    -9576    -9506 
   -9456    -9552    -9591    -9558    -9575    -9560    -9481    -9429 
   -9447    -9499    -9536    -9532    -9490    -9460    -9436    -9385 
   -9383    -9378    -9331    -9418    -9574    -9601    -9620    -9680 
   -9649    -9591    -9621    -9622    -9510    -9428    -9448    -9468 
   -9452    -9456    -9525    -9594    -9594    -9566    -9531    -9518 
   -9513    -9437    -9385    -9440    -9493    -9470    -9470    -9571 
   -9661    -9639    -9551    -9454    -9377    -9316    -9339    -9508 
   -9626    -9603    -9562    -9526    -9495    -9483    -9520    -9583 
   -9580    -9551    -9510    -9464    -9501    -9544    -9520    -9514 
   -9508    -9439    -9417    -9533    -9678    -9691    -9551    -9386 
   -9351    -9455    -9572    -9552    -9429    -9396    -9463    -9585 
   -9698    -9648    -9504    -9439    -9444    -9471    -9436    -9348 
   -9350    -9396    -9378    -9378    -9482    -9562    -9478    -9360 
   -9356    -9474    -9737    -9926    -9794    -9671    -9733    -9645 
   -9481    -9505    -9506    -9418    -9516    -9657    -9524    -9313 
   -9371    -9499    -9404    -9406    -9738    -9915    -9775    -9678 
   -9558    -9332    -9254    -9270    -9300    -9462    -9648    -9759 
   -9756    -9518    -9265    -9282    -9373    -9408    -9471    -9435 
   -9340    -9405    -9504    -9539    -9649    -9711    -9579    -9494 
   -9567    -9630    -9603    -9528    -9482    -9437    -9354    -9321 
   -9324    -9375    -9676   -10023    -9933    -9552    -9369    -9378 
   -9385    -9246    -8968    -9076    -9591    -9722    -9525    -9531 
   -9541    -9483    -9624    -9886   -10056   -10008    -9759    -9440 
   -9097    -8910    -9136    -9544    -9803    -9884    -9713    -9404 
   -9269    -9323    -9456    -9657    -9760    -9653    -9610    -9643 
   -9467    -9263    -9186    -9177    -9462    -9880    -9838    -9576 
   -9603    -9551    -9404    -9606    -9595    -9124    -8993    -9238 
   -9397    -9629    -9958    -9923    -9587    -9482    -9499    -9369 
   -9342    -9441    -9451    -9514    -9656    -9594    -9394    -9391 
   -9585    -9610    -9405    -9450    -9705    -9510    -9157    -9336 
   -9670    -9699    -9570    -9413    -9387    -9498    -9567    -9640 
   -9688    -9553    -9364    -9356    -9474    -9548    -9513    -9396 
   -9379    -9494    -9549    -9545    -9547    -9551    -9686    -9941 
   -9984    -9663    -9331    -9275    -9333    -9397    -9508    -9468 
   -9373    -9634    -9938    -9751    -9444    -9404    -9329    -9113 
   -9076    -9267    -9491    -9609    -9502    -9354    -9452    -9598 
   -9501    -9375    -9491    -9626    -9597    -9633    -9763    -9837 
   -9857    -9757    -9531    -9198    -8920    -9078    -9566    -9845 
   -9648    -9247    -9278    -9699    -9844    -9682    -9448    -9188 
   -9190    -9509    -9840   -10058   -10061    -9730    -9328    -9292 
   -9562    -9706    -9582    -9340    -9220    -9317    -9293    -9120 
   -9238    -9555    -9783    -9805    -9526    -9410    -9678    -9680 
   -9288    -9074    -9281    -9734   -10084    -9976    -9552    -9364 
   -9405    -9328    -9436    -9837    -9910    -9609    -9454    -9418 
   -9267    -9189    -9225    -9180    -9313    -9749    -9896    -9567 
   -9290    -9239    -9302    -9532    -9755    -9859    -9914    -9626 
   -9040    -8911    -9302    -9587    -9676    -9664    -9483    -9355 
   -9369    -9397    -9441    -9468    -9633   -10010   -10126    -9761 
   -9362    -9310    -9513    -9637    -9603    -9624    -9742    -9728 
   -9537    -9437    -9477    -9466    -9363    -9227    -9170    -9283 
   -9371    -9316    -9336    -9502    -9613    -9575    -9543    -9594 
   -9640    -9738    -9734    -9359    -9080    -9304    -9555    -9576 
   -9626    -9656    -9613    -9721    -9840    -9626    -9339    -9414 
   -9672    -9697    -9504    -9379    -9347    -9310    -9374    -9583 
   -9811    -9895    -9744    -9509    -9355    -9263    -9262    -9381 
   -9555    -9628    -9373    -9045    -9153    -9510    -9711    -9714 
   -9498    -9240    -9256    -9452    -9599    -9722    -9786    -9718 
   -9667    -9612    -9405    -9200    -9027    -8806    -8937    -9594 
  -10274   -10658   -10624    -9975    -9135    -8862    -9084    -9305 
   -9448    -9583    -9640    -9655    -9616    -9359    -9130    -9366 
   -9811    -9915    -9612    -9194    -9047    -9398    -9921   -10021 
   -9664    -9348    -9320    -9489    -9732    -9868    -9784    -9541 
   -9297    -9225    -9363    -9526    -9506    -9400    -9435    -9475 
   -9340    -9211    -9275    -9512    -9805    -9990    -9896    -9531 
   -9143    -8947    -8945    -9171    -9605    -9917    -9902    -9733 
   -9575    -9512    -9591    -9748    -9922    -9998    -9790    -9351 
   -8974    -8849    -8942    -9030    -9049    -9343    -9864   -10134 
  -10116    -9880    -9433    -9130    -9154    -9379    -9695    -9879 
   -9805    -9640    -9425    -9144    -9080    -9367    -9707    -9826 
   -9695    -9491    -9425    -9382    -9207    -9109    -9258    -9543 
   -9786    -9742    -9463    -9383    -9624    -9876    -9950    -9875 
   -9714    -9587    -9568    -9495    -9394    -9516    -9675    -9529 
   -9211    -9069    -9197    -9468    -9810   -10153   -10241    -9915 
   -9499    -9301    -9201    -9073    -8927    -8860    -9036    -9371 
   -9597    -9613    -9521    -9518    -9728    -9938    -9809    -9410 
   -9112    -9105    -9373    -9699    -9856    -9826    -9672    -9493 
   -9410    -9466    -9622    -9733    -9659    -9472    -9294    -9175 
   -9219    -9504    -9818    -9880    -9713    -9491    -9369    -9429 
   -9495    -9396    -9313    -9346    -9432    -9648    -9807    -9634 
   -9379    -9298    -9319    -9360    -9383    -9377    -9477    -9825 
  -10183   -10098    -9701    -9470    -9351    -9096    -8824    -8753 
   -8984    -9499    -9996   -10135   -10002    -9815    -9639    -9612 
   -9684    -9661    -9637    -9539    -9235    -9090    -9339    -9672 
   -9772    -9630    -9428    -9270    -9177    -9190    -9270    -9370 
   -9478    -9541    -9597    -9668    -9672    -9606    -9589    -9706 
   -9836    -9798    -9655    -9436    -9157    -9101    -9296    -9379 
   -9342    -9413    -9443    -9336    -9423    -9737    -9936    -9911 
   -9853    -9925    -9958    -9695    -9293    -9049    -9078    -9327 
   -9531    -9547    -9494    -9456    -9463    -9576    -9744    -9742 
   -9525    -9285    -9104    -9008    -9086    -9350    -9722   -10017 
  -10039    -9844    -9651    -9580    -9533    -9389    -9205    -9150 
   -9309    -9559    -9686    -9659    -9563    -9396    -9273    -9325 
   -9398    -9412    -9459    -9541    -9713    -9958    -9915    -9560 
   -9431    -9607    -9674    -9567    -9499    -9452    -9332    -9313 
   -9479    -9609    -9598    -9509    -9391    -9298    -9324    -9462 
   -9467    -9325    -9358    -9556    -9695    -9748    -9652    -9448 
   -9367    -9379    -9378    -9435    -9531    -9567    -9564    -9630 
   -9745    -9776    -9709    -9598    -9493    -9486    -9579    -9649 
   -9610    -9533    -9504    -9464    -9391    -9359    -9371    -9342 
   -9240    -9236    -9404    -9529    -9525    -9578    -9728    -9807 
   -9786    -9732    -9643    -9567    -9547    -9526    -9475    -9371 
   -9235    -9184    -9269    -9364    -9366    -9348    -9400    -9531 
   -9699    -9802    -9744    -9591    -9497    -9482    -9514    -9602 
   -9713    -9806    -9783    -9549    -9277    -9155    -9148    -9213 
   -9296    -9360    -9531    -9744    -9749    -9639    -9652    -9710 
   -9655    -9506    -9352    -9324    -9477    -9610    -9580    -9518 
   -9441    -9324    -9315    -9445    -9597    -9684    -9695    -9630 
   -9494    -9401    -9436    -9516    -9560    -9622    -9701    -9624 
   -9427    -9381    -9497    -9572    -9556    -9462    -9325    -9275 
   -9344    -9406    -9418    -9454    -9477    -9505    -9576    -9543 
   -9452    -9558    -9759    -9798    -9703    -9613    -9520    -9432 
   -9463    -9589    -9666    -9628    -9547    -9531    -9493    -9358 
   -9256    -9251    -9369    -9594    -9738    -9742    -9629    -9409 
   -9288    -9319    -9317    -9316    -9436    -9609    -9748    -9813 
   -9721    -9467    -9273    -9296    -9414    -9514    -9612    -9671 
   -9653    -9601    -9544    -9478    -9463    -9521    -9556    -9498 
   -9427    -9444    -9512    -9525    -9497    -9485    -9481    -9501 
   -9555    -9564    -9549    -9543    -9487    -9435    -9460    -9509 
   -9532    -9501    -9468    -9539    -9639    -9617    -9535    -9543 
   -9612    -9593    -9495    -9455    -9456    -9421    -9413    -9412 
   -9366    -9420    -9560    -9568    -9497    -9498    -9489    -9421 
   -9390    -9414    -9497    -9591    -9579    -9532    -9602    -9701 
   -9718    -9732    -9713    -9574    -9431    -9366    -9286    -9212 
   -9274    -9454    -9603    -9620    -9502    -9379    -9371    -9448 
   -9552    -9667    -9744    -9783    -9752    -9626    -9490    -9369 
   -9296    -9347    -9459    -9533    -9524    -9460    -9468    -9533 
   -9532    -9535    -9599    -9570    -9463    -9470    -9529    -9528 
   -9545    -9567    -9504    -9432    -9452    -9526    -9516    -9408 
   -9329    -9352    -9439    -9540    -9628    -9674    -9667    -9655 
   -9617    -9516    -9459    -9497    -9540    -9547    -9532    -9478 
   -9405    -9417    -9516    -9551    -9505    -9482    -9474    -9445 
   -9428    -9475    -9531    -9497    -9474    -9545    -9593    -9552 
   -9466    -9389    -9387    -9487    -9651    -9726    -9671    -9628 
   -9628    -9587    -9510    -9437    -9369    -9300    -9304    -9444 
   -9602    -9617    -9540    -9528    -9571    -9552    -9463    -9412 
   -9470    -9563    -9613    -9621    -9564    -9479    -9463    -9509 
   -9551    -9551    -9499    -9460    -9440    -9373    -9332    -9398 
   -9501    -9586    -9607    -9521    -9440    -9448    -9486    -9537 
   -9602    -9591    -9513    -9520    -9617    -9675    -9661    -9591 
