Origin Time       2021/08/14 22:38:00
Lat.              37.5
Long.             137.2
Depth. (km)       10
Mag.              4.1
Station Code      ISKH06
Station Lat.      37.0533
Station Long.     136.8206
Station Height(m) -180.45
Record Time       2021/08/14 22:38:25
Sampling Freq(Hz) 100Hz
Duration Time(s)  120
Dir.              3
Scale Factor      3923(gal)/8224838
Max. Acc. (gal)   0.281
Last Correction   2021/08/14 22:38:25
Memo.             
[...]
   33431    33430    33431    33430    33424    33426    33431    33430 
   33427    33430    33430    33431    33432    33428    33426    33428 
   33431    33430    33430    33430    33431    33430    33430    33432 
   33432    33430    33428    33430    33431    33432    33430    33427 
   33430    33432    33431    33430    33430    33432    33434    33428 
   33426    33428    33430    33431    33431    33428    33427    33430 
   33431    33431    33430    33430    33432    33431    33428    33431 
   33432    33430    33431    33431    33427    33426    33428    33430 
   33430    33430    33430    33428    33427    33430    33432    33430 
   33427    33430    33431    33431    33431    33428    33428    33430 
   33427    33427    33431    33430    33426    33428    33431    33430 
   33431    33432    33428    33428    33430    33431    33430    33431 
   33431    33428    33430    33430    33426    33426    33431    33428 
   33427    33430    33431    33430    33427    33427    33428    33427 
   33426    33428    33431    33430    33427    33427    33428    33430 
   33431    33428    33427    33430    33430    33430    33431    33427 
   33428    33431    33426    33426    33428    33428    33428    33431 
   33430    33426    33426    33428    33427    33427    33430    33430 
   33426    33424    33424    33420    33413    33416    33428    33436 
   33439    33438    33436    33438    33446    33454    33450    33442 
   33438    33432    33428    33424    33420    33413    33405    33403 
   33413    33430    33434    33434    33435    33421    33407    33427 
   33451    33443    33430    33426    33432    33442    33405    33361 
   33385    33435    33492    33531    33465    33372    33385    33430 
   33408    33389    33419    33443    33453    33455    33454    33457 
   33408    33354    33411    33477    33428    33336    33338    33466 
   33563    33498    33374    33357    33439    33469    33432    33428 
   33446    33457    33488    33477    33412    33365    33349    33411 
   33528    33539    33431    33351    33403    33501    33455    33345 
   33361    33408    33392    33366    33367    33399    33430    33484 
   33552    33494    33354    33324    33361    33381    33494    33624 
   33546    33381    33366    33420    33442    33493    33547    33504 
   33372    33262    33253    33326    33417    33489    33543    33505 
   33332    33226    33357    33552    33574    33475    33396    33389 
   33444    33470    33439    33372    33340    33424    33462    33404 
   33413    33457    33457    33436    33420    33435    33427    33427 
   33489    33521    33477    33386    33381    33478    33424    33284 
   33338    33454    33432    33363    33370    33420    33412    33416 
   33496    33519    33504    33497    33427    33412    33459    33405 
   33366    33448    33516    33486    33386    33322    33358    33386 
   33361    33386    33493    33574    33515    33393    33373    33413 
   33389    33386    33480    33478    33381    33423    33457    33316 
   33307    33457    33450    33370    33457    33562    33496    33394 
   33453    33633    33647    33385    33208    33336    33447    33335 
   33316    33485    33484    33396    33463    33419    33308    33470 
   33581    33350    33230    33467    33652    33567    33423    33331 
   33309    33370    33373    33289    33303    33426    33512    33567 
   33561    33419    33370    33494    33524    33474    33463    33388 
   33286    33322    33471    33578    33496    33291    33259    33453 
   33544    33411    33273    33258    33354    33590    33758    33633 
   33420    33322    33373    33507    33453    33286    33346    33465 
   33436    33417    33435    33382    33349    33438    33492    33396 
   33326    33334    33323    33388    33569    33667    33601    33446 
   33282    33336    33575    33543    33299    33312    33455    33428 
   33374    33377    33331    33376    33540    33516    33353    33393 
   33534    33470    33369    33440    33475    33438    33434    33361 
   33342    33481    33535    33486    33454    33350    33323    33504 
   33528    33308    33235    33353    33485    33551    33511    33480 
   33475    33416    33377    33365    33442    33548    33404    33249 
   33381    33512    33486    33435    33392    33363    33374    33388 
   33357    33378    33517    33627    33582    33435    33390    33432 
   33323    33207    33355    33577    33505    33280    33351    33583 
   33575    33470    33454    33393    33286    33269    33326    33431 
   33590    33670    33573    33361    33205    33315    33481    33421 
   33411    33589    33658    33469    33211    33273    33563    33563 
   33397    33451    33475    33268    33141    33239    33367    33430 
   33488    33558    33520    33408    33450    33551    33505    33447 
   33516    33543    33416    33349    33446    33489    33427    33431 
   33427    33304    33200    33197    33301    33484    33581    33552 
   33471    33388    33390    33430    33450    33528    33566    33477 
   33386    33390    33440    33447    33408    33388    33380    33361 
   33377    33388    33338    33384    33555    33589    33490    33462 
   33463    33451    33454    33401    33353    33413    33440    33349 
   33307    33372    33408    33377    33392    33461    33443    33351 
   33374    33538    33635    33547    33426    33412    33471    33484 
   33403    33392    33507    33536    33426    33339    33334    33332 
   33349    33399    33399    33404    33440    33420    33427    33471 
   33486    33527    33519    33419    33334    33291    33342    33436 
   33459    33454    33390    33307    33363    33480    33540    33540 
   33446    33363    33430    33515    33480    33413    33385    33378 
   33421    33439    33392    33443    33573    33544    33385    33288 
   33295    33320    33367    33474    33489    33390    33401    33471 
   33500    33532    33459    33291    33264    33392    33470    33521 
   33646    33669    33512    33349    33274    33292    33377    33477 
   33509    33396    33257    33303    33450    33516    33531    33516 
   33443    33311    33215    33349    33551    33508    33358    33322 
   33370    33465    33535    33511    33473    33525    33592    33534 
   33373    33228    33230    33397    33512    33457    33376    33396 
   33420    33342    33372    33558    33563    33409    33388    33484 
   33562    33536    33386    33270    33330    33463    33466    33293 
   33218    33412    33590    33596    33547    33416    33262    33300 
   33444    33454    33413    33465    33457    33424    33521    33548 
   33365    33214    33336    33571    33606    33492    33411    33382 
   33376    33336    33323    33405    33440    33408    33439    33481 
   33423    33373    33438    33507    33543    33561    33485    33376 
   33308    33332    33467    33548    33473    33382    33415    33463 
   33358    33245    33284    33405    33546    33581    33443    33316 
   33297    33331    33434    33552    33544    33428    33336    33315 
   33393    33561    33644    33546    33419    33351    33265    33210 
   33311    33477    33569    33562    33455    33299    33270    33435 
   33602    33658    33637    33473    33254    33183    33188    33313 
   33627    33821    33691    33416    33234    33228    33339    33462 
   33447    33285    33228    33326    33369    33412    33547    33586 
   33523    33475    33447    33455    33432    33353    33413    33583 
   33586    33457    33393    33372    33384    33426    33380    33339 
   33393    33362    33296    33381    33478    33421    33322    33303 
   33372    33496    33543    33453    33424    33523    33612    33652 
   33573    33366    33234    33286    33377    33370    33404    33515 
   33440    33241    33242    33389    33458    33544    33662    33613 
   33540    33540    33386    33262    33382    33508    33531    33475 
   33282    33138    33258    33423    33444    33481    33520    33419 
   33297    33319    33399    33454    33552    33594    33481    33424 
   33435    33358    33336    33392    33388    33394    33447    33477 
   33546    33616    33481    33285    33289    33359    33392    33457 
   33509    33455    33251    33174    33463    33724    33651    33432 
   33246    33219    33362    33513    33555    33484    33385    33331 
   33322    33353    33455    33608    33616    33455    33316    33259 
   33335    33494    33601    33714    33700    33407    33143    33160 
   33354    33551    33621    33562    33385    33192    33250    33440 
   33400    33308    33454    33600    33513    33363    33374    33457 
   33443    33453    33570    33627    33475    33184    33065    33212 
   33396    33577    33658    33500    33363    33390    33470    33536 
   33471    33401    33408    33259    33200    33497    33694    33558 
   33407    33385    33322    33135    33096    33369    33610    33609 
   33582    33548    33408    33363    33535    33602    33351    33153 
   33272    33409    33438    33648    33926    33768    33372    33369 
   33556    33493    33424    33454    33301    33072    33061    33191 
   33307    33455    33570    33477    33199    33066    33366    33679 
   33610    33577    33714    33689    33581    33426    33197    33200 
   33399    33585    33698    33575    33327    33184    33110    33205 
   33481    33646    33589    33390    33251    33397    33625    33620 
   33536    33552    33489    33335    33313    33404    33405    33311 
   33305    33407    33430    33374    33366    33358    33276    33245 
   33338    33401    33485    33771    33924    33605    33224    33203 
   33377    33508    33511    33366    33204    33177    33332    33579 
   33644    33527    33524    33513    33253    33025    33216    33606 
   33604    33362    33409    33421    33224    33303    33467    33431 
   33601    33839    33654    33380    33365    33377    33339    33381 
   33488    33600    33612    33439    33342    33498    33548    33351 
   33210    33231    33320    33353    33305    33328    33459    33538 
   33492    33407    33378    33501    33736    33728    33328    33061 
   33228    33380    33447    33735    33839    33458    33120    33110 
   33184    33254    33378    33450    33428    33473    33627    33817 
   33890    33714    33459    33301    33195    33177    33308    33440 
   33426    33359    33363    33440    33601    33643    33374    33065 
   32998    33211    33573    33801    33793    33623    33405    33282 
   33258    33278    33273    33296    33492    33579    33413    33393 
   33466    33384    33390    33529    33542    33409    33231    33164 
   33303    33443    33525    33694    33745    33515    33274    33284 
   33444    33516    33571    33694    33624    33347    33211    33359 
   33525    33434    33272    33288    33347    33312    33259    33338 
   33492    33497    33500    33687    33744    33585    33556    33588 
   33434    33319    33351    33262    33107    33103    33200    33336 
   33450    33489    33590    33714    33597    33330    33262    33415 
   33554    33575    33521    33470    33508    33604    33512    33151 
   32879    32995    33332    33593    33698    33693    33543    33291 
   33151    33235    33426    33586    33583    33409    33276    33295 
   33427    33675    33841    33717    33547    33471    33340    33259 
   33258    33230    33297    33451    33555    33556    33407    33243 
   33282    33477    33554    33382    33212    33245    33380    33480 
   33534    33585    33647    33654    33474    33253    33264    33347 
   33350    33351    33280    33231    33369    33567    33639    33447 
   33191    33243    33521    33758    33845    33700    33458    33359 
   33363    33376    33397    33430    33520    33585    33358    32987 
   33019    33459    33760    33702    33466    33296    33286    33370 
   33527    33666    33670    33552    33307    33114    33184    33291 
   33289    33332    33331    33222    33280    33529    33648    33571 
   33505    33540    33573    33443    33261    33324    33535    33508 
   33338    33388    33574    33663    33585    33328    33154    33285 
   33497    33600    33621    33596    33637    33633    33411    33296 
   33345    33187    33006    33060    33146    33197    33308    33561 
   33882    33974    33805    33554    33262    33134    33268    33373 
   33396    33486    33547    33528    33477    33359    33278    33291 
   33285    33343    33500    33546    33453    33320    33205    33255 
   33453    33621    33755    33821    33717    33507    33311    33261 
   33319    33300    33304    33440    33505    33421    33347    33358 
   33419    33515    33571    33426    33181    33165    33292    33309 
   33421    33733    33876    33708    33505    33465    33454    33299 
   33219    33407    33569    33502    33420    33453    33397    33180 
   33103    33208    33183    33108    33227    33439    33593    33647 
   33621    33597    33539    33424    33421    33525    33516    33443 
   33453    33493    33579    33694    33620    33401    33281    33259 
   33318    33427    33403    33270    33224    33231    33231    33281 
   33354    33388    33396    33450    33592    33754    33886    33994 
   33964    33768    33511    33243    33087    33081    33151    33292 
   33323    33162    33130    33281    33301    33183    33200    33342 
   33370    33365    33482    33669    33889    34017    33920    33748 
   33613    33465    33411    33496    33481    33281    33115    33093 
   33124    33176    33282    33377    33412    33478    33517    33448 
   33431    33493    33501    33474    33462    33496    33575    33581 
   33482    33378    33326    33291    33205    33156    33259    33349 
   33305    33376    33620    33706    33589    33531    33493    33366 
   33335    33446    33569    33640    33575    33415    33277    33220 
   33331    33502    33521    33440    33408    33423    33442    33473 
   33505    33448    33282    33210    33355    33482    33399    33273 
   33291    33417    33489    33400    33299    33372    33538    33663 
   33656    33484    33357    33403    33484    33559    33594    33529 
   33470    33409    33332    33374    33439    33384    33331    33401 
   33566    33604    33426    33247    33154    33139    33250    33382 
   33467    33519    33477    33399    33447    33544    33536    33484 
   33450    33390    33363    33446    33552    33609    33646    33616 
   33458    33239    33115    33161    33297    33385    33404    33463 
   33601    33685    33623    33528    33538    33567    33494    33361 
   33272    33262    33286    33300    33308    33380    33502    33496 
   33369    33361    33434    33403    33320    33272    33313    33480 
   33625    33636    33585    33571    33583    33528    33442    33420 
   33431    33376    33262    33205    33253    33355    33450    33457 
   33359    33307    33394    33474    33428    33397    33462    33508 
   33524    33601    33656    33556    33389    33363    33494    33598 
   33570    33469    33373    33313    33304    33297    33289    33370 
   33484    33478    33353    33197    33099    33120    33268    33481 
   33691    33801    33721    33546    33447    33462    33539    33574 
   33489    33367    33297    33262    33289    33354    33403    33436 
   33415    33349    33382    33505    33540    33485    33435    33380 
   33350    33392    33447    33475    33520    33573    33543    33424 
   33374    33438    33493    33529    33534    33430    33289    33243 
   33328    33470    33517    33471    33413    33295    33191    33284 
   33446    33471    33444    33484    33544    33578    33565    33534 
   33492    33393    33291    33245    33205    33187    33232    33312 
   33427    33569    33659    33629    33507    33454    33550    33612 
   33546    33462    33338    33174    33145    33242    33370    33520 
   33601    33578    33516    33431    33342    33318    33426    33559 
   33534    33428    33386    33377    33404    33466    33461    33416 
   33442    33509    33582    33636    33596    33473    33374    33358 
   33405    33455    33438    33315    33185    33181    33246    33264 
   33291    33381    33480    33508    33450    33420    33450    33442 
   33443    33501    33540    33543    33565    33615    33615    33538 
   33459    33405    33349    33305    33319    33354    33378    33428 
   33480    33497    33531    33569    33529    33459    33454    33413 
   33296    33281    33342    33357    33408    33488    33478    33400 
   33353    33366    33376    33349    33276    33201    33253    33420 
   33552    33602    33588    33496    33381    33353    33442    33531 
   33505    33427    33396    33389    33366    33340    33338    33359 
   33388    33423    33477    33536    33558    33563    33585    33534 
   33397    33334    33354    33355    33372    33453    33535    33529 
   33454    33413    33439    33444    33366    33269    33242    33293 
   33389    33482    33540    33579    33596    33588    33581    33548 
   33439    33350    33396    33442    33396    33400    33420    33334 
   33285    33363    33443    33451    33426    33427    33434    33378 
   33326    33349    33401    33423    33413    33475    33589    33544 
   33417    33440    33467    33376    33349    33392    33373    33365 
   33438    33520    33563    33544    33474    33407    33351    33288 
   33266    33312    33362    33386    33417    33430    33386    33347 
   33403    33517    33563    33562    33583    33556    33507    33500 
   33477    33447    33413    33349    33331    33357    33335    33343 
   33404    33411    33374    33363    33372    33389    33436    33504 
   33528    33516    33516    33490    33457    33490    33534    33544 
   33590    33586    33457    33355    33342    33334    33353    33373 
   33346    33323    33308    33292    33330    33408    33474    33498 
   33467    33423    33423    33461    33486    33466    33419    33409 
   33420    33394    33393    33455    33516    33550    33546    33462 
   33354    33324    33346    33388    33466    33513    33461    33388 
   33390    33440    33480    33457    33390    33378    33423    33444 
   33436    33436    33454    33446    33393    33365    33386    33403 
   33399    33397    33403    33431    33469    33466    33453    33497 
   33555    33540    33454    33369    33343    33362    33381    33399 
   33423    33428    33393    33345    33324    33343    33384    33419 
   33469    33534    33538    33488    33489    33534    33548    33531 
   33484    33434    33431    33451    33408    33316    33316    33419 
   33480    33478    33469    33453    33457    33473    33430    33349 
   33315    33309    33299    33331    33413    33451    33438    33462 
   33507    33481    33411    33372    33370    33407    33477    33536 
   33561    33532    33432    33328    33305    33351    33408    33463 
   33516    33527    33490    33450    33420    33377    33365    33421 
   33458    33427    33382    33346    33330    33367    33424    33469 
   33500    33481    33423    33400    33440    33502    33511    33462 
   33432    33431    33430    33448    33450    33389    33328    33313 
