Origin Time       2021/08/14 22:38:00
Lat.              37.5
Long.             137.2
Depth. (km)       10
Mag.              4.1
Station Code      ISKH04
Station Lat.      37.1902
Station Long.     136.7176
Station Height(m) -60.5
Record Time       2021/08/14 22:38:24
Sampling Freq(Hz) 100Hz
Duration Time(s)  120
Dir.              3
Scale Factor      3923(gal)/8224838
Max. Acc. (gal)   0.323
Last Correction   2021/08/14 22:38:24
Memo.             
[...]
  -41866   -41864   -41862   -41862   -41863   -41863   -41866   -41868 
  -41866   -41864   -41867   -41866   -41863   -41864   -41863   -41862 
  -41866   -41867   -41866   -41864   -41864   -41864   -41863   -41863 
  -41863   -41863   -41863   -41863   -41862   -41862   -41863   -41866 
  -41867   -41862   -41860   -41867   -41867   -41866   -41866   -41864 
  -41863   -41864   -41863   -41864   -41867   -41866   -41866   -41867 
  -41866   -41863   -41863   -41863   -41862   -41863   -41863   -41862 
  -41863   -41864   -41863   -41863   -41863   -41860   -41863   -41868 
  -41867   -41864   -41864   -41864   -41864   -41863   -41863   -41863 
  -41863   -41863   -41864   -41866   -41863   -41863   -41866   -41863 
  -41863   -41864   -41866   -41864   -41864   -41866   -41867   -41866 
  -41864   -41864   -41866   -41866   -41866   -41866   -41864   -41864 
  -41867   -41864   -41863   -41866   -41866   -41864   -41864   -41863 
  -41864   -41867   -41867   -41866   -41864   -41864   -41867   -41868 
  -41866   -41863   -41866   -41867   -41866   -41864   -41864   -41863 
  -41863   -41866   -41866   -41864   -41867   -41867   -41866   -41867 
  -41866   -41864   -41864   -41863   -41863   -41866   -41864   -41863 
  -41863   -41863   -41866   -41866   -41864   -41866   -41867   -41866 
  -41864   -41864   -41866   -41866   -41863   -41864   -41866   -41863 
  -41864   -41867   -41867   -41864   -41864   -41867   -41866   -41864 
  -41866   -41866   -41864   -41863   -41863   -41863   -41862   -41863 
  -41867   -41866   -41866   -41868   -41867   -41863   -41862   -41863 
  -41864   -41864   -41866   -41864   -41863   -41866   -41866   -41863 
  -41864   -41866   -41866   -41864   -41863   -41863   -41866   -41866 
  -41864   -41866   -41868   -41867   -41864   -41864   -41866   -41866 
  -41866   -41866   -41864   -41866   -41867   -41864   -41864   -41864 
  -41863   -41863   -41864   -41866   -41864   -41863   -41866   -41866 
  -41863   -41864   -41866   -41863   -41862   -41866   -41866   -41864 
  -41864   -41867   -41866   -41864   -41866   -41866   -41864   -41864 
  -41864   -41864   -41862   -41862   -41866   -41864   -41862   -41866 
  -41866   -41864   -41864   -41863   -41863   -41866   -41863   -41860 
  -41864   -41867   -41863   -41863   -41864   -41866   -41866   -41867 
  -41867   -41867   -41864   -41866   -41866   -41862   -41863   -41867 
  -41866   -41866   -41866   -41864   -41866   -41866   -41863   -41863 
  -41866   -41866   -41863   -41863   -41864   -41866   -41863   -41862 
  -41863   -41866   -41866   -41864   -41866   -41868   -41868   -41864 
  -41864   -41866   -41864   -41864   -41866   -41864   -41866   -41866 
  -41863   -41864   -41866   -41866   -41866   -41864   -41864   -41867 
  -41866   -41866   -41864   -41863   -41864   -41864   -41864   -41867 
  -41864   -41864   -41866   -41863   -41863   -41867   -41867   -41866 
  -41864   -41864   -41864   -41866   -41867   -41867   -41867   -41867 
  -41867   -41866   -41864   -41866   -41866   -41868   -41867   -41862 
  -41862   -41867   -41868   -41866   -41864   -41866   -41867   -41866 
  -41863   -41863   -41863   -41864   -41868   -41867   -41864   -41866 
  -41864   -41863   -41864   -41864   -41866   -41866   -41863   -41860 
  -41864   -41867   -41864   -41863   -41863   -41863   -41864   -41864 
  -41863   -41863   -41863   -41864   -41868   -41867   -41863   -41864 
  -41867   -41866   -41863   -41863   -41866   -41866   -41864   -41866 
  -41866   -41866   -41866   -41866   -41864   -41866   -41867   -41864 
  -41864   -41867   -41867   -41864   -41864   -41866   -41866   -41866 
  -41866   -41864   -41867   -41866   -41864   -41867   -41864   -41862 
  -41863   -41866   -41866   -41867   -41867   -41867   -41864   -41864 
  -41867   -41866   -41863   -41864   -41867   -41866   -41863   -41864 
  -41866   -41863   -41863   -41867   -41864   -41864   -41866   -41867 
  -41867   -41864   -41862   -41864   -41868   -41867   -41863   -41862 
  -41864   -41864   -41863   -41866   -41866   -41866   -41864   -41864 
  -41866   -41866   -41864   -41864   -41864   -41863   -41863   -41863 
  -41864   -41864   -41863   -41864   -41866   -41866   -41867   -41867 
  -41866   -41864   -41863   -41863   -41866   -41866   -41864   -41863 
  -41863   -41864   -41864   -41863   -41864   -41866   -41864   -41862 
  -41864   -41866   -41864   -41866   -41866   -41863   -41867   -41870 
  -41867   -41864   -41863   -41864   -41867   -41866   -41864   -41864 
  -41867   -41867   -41864   -41864   -41867   -41864   -41864   -41868 
  -41866   -41863   -41866   -41867   -41864   -41864   -41863   -41862 
  -41862   -41863   -41864   -41866   -41864   -41863   -41864   -41866 
  -41866   -41864   -41863   -41863   -41863   -41863   -41867   -41867 
  -41864   -41866   -41866   -41864   -41864   -41864   -41864   -41864 
  -41863   -41860   -41863   -41864   -41864   -41866   -41866   -41866 
  -41863   -41863   -41867   -41868   -41864   -41867   -41868   -41863 
  -41862   -41867   -41866   -41866   -41867   -41864   -41864   -41867 
  -41866   -41864   -41864   -41863   -41863   -41863   -41864   -41867 
  -41864   -41862   -41866   -41866   -41862   -41863   -41864   -41863 
  -41864   -41864   -41864   -41864   -41863   -41864   -41866   -41863 
  -41863   -41866   -41866   -41864   -41864   -41864   -41867   -41866 
  -41864   -41864   -41864   -41864   -41866   -41867   -41868   -41868 
  -41866   -41866   -41866   -41864   -41863   -41863   -41867   -41867 
  -41863   -41864   -41867   -41863   -41864   -41866   -41863   -41863 
  -41866   -41866   -41864   -41866   -41866   -41864   -41863   -41864 
  -41866   -41867   -41867   -41867   -41868   -41866   -41864   -41866 
  -41866   -41863   -41864   -41866   -41864   -41866   -41866   -41864 
  -41864   -41866   -41864   -41862   -41866   -41868   -41866   -41863 
  -41864   -41866   -41866   -41864   -41864   -41864   -41863   -41863 
  -41866   -41866   -41863   -41862   -41863   -41867   -41867   -41866 
  -41862   -41864   -41867   -41866   -41866   -41864   -41863   -41862 
  -41866   -41868   -41866   -41864   -41864   -41864   -41866   -41867 
  -41866   -41863   -41864   -41864   -41863   -41862   -41863   -41866 
  -41866   -41864   -41864   -41864   -41866   -41867   -41867   -41866 
  -41866   -41866   -41867   -41866   -41864   -41864   -41866   -41864 
  -41864   -41863   -41864   -41867   -41866   -41862   -41863   -41867 
  -41867   -41864   -41866   -41867   -41866   -41864   -41864   -41864 
  -41866   -41867   -41867   -41867   -41866   -41863   -41868   -41885 
  -41905   -41931   -41953   -41945   -41901   -41845   -41820   -41831 
  -41851   -41845   -41809   -41794   -41864   -41966   -41974   -41877 
  -41760   -41689   -41702   -41748   -41752   -41779   -41847   -41850 
  -41825   -41912   -42088   -42145   -41908   -41527   -41442   -41839 
  -42313   -42334   -41855   -41486   -41696   -42156   -42387   -42097 
  -41515   -41407   -41860   -42264   -42169   -41702   -41623   -41967 
  -41958   -41736   -41754   -41850   -41905   -41863   -41724   -41682 
  -41890   -42219   -42144   -41639   -41422   -41677   -41959   -42009 
  -41904   -41787   -41708   -41802   -42030   -42053   -41960   -41987 
  -41866   -41669   -41797   -41971   -41931   -41863   -41731   -41710 
  -42022   -42115   -41845   -41794   -41906   -41872   -41810   -41750 
  -41732   -41856   -41970   -42009   -41943   -41777   -41754   -41858 
  -41922   -41944   -41862   -41841   -41997   -42029   -41859   -41654 
  -41571   -41739   -42002   -42103   -41983   -41835   -41872   -41955 
  -41890   -41721   -41661   -41841   -41970   -41887   -41841   -41866 
  -41848   -41844   -41848   -41805   -41793   -41844   -41882   -41905 
  -41910   -41852   -41790   -41794   -41844   -41916   -41956   -41959 
  -41975   -41883   -41710   -41779   -42010   -41995   -41809   -41824 
  -41959   -41925   -41810   -41769   -41814   -41909   -41935   -41920 
  -41932   -41922   -41940   -41929   -41737   -41532   -41566   -41845 
  -42129   -42095   -41859   -41835   -41933   -41816   -41669   -41771 
  -41887   -41908   -41972   -41928   -41773   -41746   -41868   -41951 
  -41812   -41710   -41893   -42018   -41963   -41943   -41939   -41897 
  -41841   -41779   -41759   -41829   -41947   -41932   -41766   -41710 
  -41897   -42149   -42140   -41816   -41607   -41744   -41916   -41921 
  -41893   -41820   -41743   -41916   -42120   -41945   -41710   -41735 
  -41754   -41790   -41974   -42037   -41952   -41894   -41916   -41885 
  -41658   -41588   -41798   -41897   -41978   -42110   -41943   -41648 
  -41709   -41999   -42036   -41798   -41658   -41739   -41890   -41990 
  -41982   -41916   -41855   -41800   -41790   -41868   -41952   -41929 
  -41828   -41802   -41877   -41898   -41870   -41871   -41789   -41715 
  -41856   -42033   -42040   -41862   -41706   -41860   -42083   -42009 
  -41812   -41727   -41804   -41994   -42007   -41764   -41706   -41899 
  -41868   -41746   -41883   -41925   -41774   -41897   -42083   -41866 
  -41652   -41809   -41964   -41897   -41747   -41662   -41821   -42140 
  -42191   -41897   -41721   -41859   -41945   -41875   -41825   -41721 
  -41709   -41994   -42076   -41825   -41764   -41809   -41831   -41951 
  -41897   -41732   -41755   -41895   -41963   -41851   -41746   -41759 
  -41808   -41940   -42037   -41974   -41841   -41813   -41918   -41878 
  -41769   -41902   -42003   -41878   -41835   -41924   -41924   -41901 
  -41893   -41759   -41709   -41841   -41881   -41856   -41835   -41760 
  -41774   -41956   -42152   -42067   -41723   -41582   -41732   -41882 
  -41971   -41971   -41894   -41895   -41978   -42022   -41883   -41631 
  -41604   -41798   -41933   -41980   -41971   -41939   -41983   -41968 
  -41805   -41727   -41774   -41746   -41719   -41906   -42078   -41935 
  -41770   -41813   -41913   -41951   -41918   -41910   -41810   -41584 
  -41690   -42040   -42022   -41801   -41835   -41980   -41999   -41937 
  -41885   -41781   -41631   -41710   -41974   -42012   -41864   -41850 
  -41966   -41985   -41823   -41715   -41827   -41971   -41940   -41739 
  -41696   -41979   -42078   -41867   -41756   -41685   -41715   -41971 
  -42016   -41794   -41731   -41881   -42087   -42129   -41901   -41747 
  -41746   -41686   -41755   -41895   -41872   -41924   -42026   -41922 
  -41827   -41852   -41839   -41813   -41889   -42001   -41989   -41854 
  -41732   -41713   -41769   -41852   -41917   -41848   -41747   -41843 
  -42003   -42024   -41886   -41683   -41659   -41832   -41982   -42002 
  -41963   -42055   -42087   -41821   -41613   -41619   -41809   -42120 
  -42056   -41710   -41612   -41804   -42132   -42159   -41820   -41706 
  -41805   -41893   -42071   -42061   -41694   -41422   -41575   -41917 
  -42114   -42175   -42080   -41736   -41546   -41866   -42155   -41956 
  -41654   -41631   -41866   -42079   -42033   -41918   -41847   -41690 
  -41634   -41781   -41821   -41756   -41964   -42257   -42121   -41810 
  -41754   -41816   -41862   -41877   -41839   -41766   -41685   -41740 
  -41959   -42129   -42093   -41898   -41727   -41708   -41828   -41935 
  -41864   -41725   -41690   -41828   -42091   -42152   -41868   -41628 
  -41742   -42045   -42120   -41881   -41655   -41648   -41814   -41928 
  -41891   -41856   -41808   -41798   -41962   -42059   -41958   -41790 
  -41650   -41685   -41852   -42056   -42241   -42107   -41733   -41648 
  -41854   -41918   -41778   -41729   -41806   -41840   -41966   -42223 
  -42225   -41843   -41562   -41643   -41774   -41878   -42030   -41983 
  -41836   -41812   -41766   -41831   -42024   -41995   -41789   -41575 
  -41623   -42047   -42191   -41885   -41623   -41473   -41611   -42097 
  -42333   -42066   -41748   -41744   -41882   -41893   -41881   -41802 
  -41574   -41719   -42264   -42364   -41928   -41621   -41616   -41717 
  -41885   -42078   -41989   -41671   -41785   -42152   -42033   -41733 
  -41666   -41750   -41951   -41990   -41881   -41890   -41856   -41800 
  -41823   -41835   -41835   -41755   -41793   -42010   -41951   -41763 
  -41810   -41841   -41764   -41790   -41991   -42086   -41839   -41814 
  -42074   -41882   -41640   -41797   -41813   -41808   -42029   -42063 
  -41878   -41824   -41997   -42072   -41813   -41596   -41716   -41917 
  -41975   -41945   -41860   -41760   -41854   -42016   -41886   -41602 
  -41550   -41859   -42202   -42114   -41867   -41825   -41875   -42061 
  -42125   -41767   -41419   -41436   -41820   -42207   -42133   -41868 
  -41800   -41871   -41897   -41823   -41839   -41843   -41750   -41850 
  -41910   -41756   -41809   -42020   -42061   -41909   -41700   -41681 
  -41848   -41962   -42010   -41926   -41678   -41697   -42056   -42187 
  -41920   -41611   -41553   -41786   -42032   -42068   -41920   -41775 
  -41929   -42192   -42078   -41739   -41654   -41769   -41729   -41710 
  -41947   -42086   -42012   -41898   -41725   -41735   -42039   -42120 
  -41796   -41602   -41732   -41868   -41993   -42118   -41995   -41727 
  -41694   -41926   -42034   -41867   -41754   -41809   -41904   -41998 
  -41910   -41647   -41561   -41670   -41756   -41875   -42120   -42182 
  -41936   -41827   -41777   -41544   -41615   -41967   -42056   -41971 
  -41933   -41777   -41590   -41709   -41960   -42083   -42126   -42018 
  -41774   -41598   -41624   -41883   -42153   -42144   -41885   -41754 
  -41821   -41763   -41689   -41758   -41918   -42288   -42460   -42039 
  -41445   -41189   -41528   -42163   -42327   -41951   -41719   -41863 
  -41991   -41918   -41663   -41439   -41696   -42110   -42148   -42080 
  -41971   -41754   -41800   -41976   -42007   -42080   -42036   -41781 
  -41727   -41856   -41937   -41987   -41883   -41635   -41466   -41408 
  -41474   -41638   -41737   -41856   -42045   -42066   -41966   -41925 
  -41948   -42047   -42076   -42047   -42051   -41863   -41639   -41783 
  -42048   -41989   -41824   -41879   -41897   -41833   -41924   -41940 
  -41825   -41797   -41805   -41781   -41705   -41655   -41716   -41801 
  -41987   -42206   -42133   -41905   -41754   -41652   -41727   -42005 
  -42256   -42222   -41983   -41875   -41827   -41713   -41688   -41720 
  -41760   -41868   -41894   -41655   -41435   -41566   -41835   -42067 
  -42169   -41991   -41781   -41743   -41933   -42184   -42037   -41802 
  -41851   -41881   -41951   -42021   -41817   -41635   -41678   -41793 
  -41877   -41932   -41931   -41774   -41620   -41708   -41906   -42036 
  -42095   -42045   -41952   -41944   -41893   -41752   -41754   -41871 
  -41889   -41866   -41898   -41967   -41968   -41800   -41724   -41883 
  -42043   -42036   -41791   -41521   -41554   -41810   -41971   -41909 
  -41845   -41866   -41948   -42147   -42043   -41689   -41663   -41725 
  -41833   -42156   -42182   -41887   -41607   -41519   -41789   -42009 
  -41966   -41987   -41933   -41712   -41740   -41970   -41972   -41905 
  -41983   -41883   -41639   -41670   -41905   -42030   -42012   -41912 
  -41742   -41613   -41766   -42109   -42160   -41909   -41885   -42071 
  -41967   -41682   -41607   -41692   -41872   -42045   -42022   -41829 
  -41609   -41656   -41879   -41868   -41716   -41611   -41667   -41925 
  -42045   -41963   -41925   -41916   -41862   -41843   -41891   -41925 
  -41962   -41982   -41862   -41832   -42013   -42040   -41953   -42010 
  -42037   -41975   -41904   -41823   -41790   -41700   -41590   -41754 
  -42009   -42032   -41881   -41770   -41847   -41913   -41864   -41855 
  -41814   -41802   -41864   -41879   -41910   -41921   -41922   -41872 
  -41698   -41785   -41995   -41824   -41621   -41736   -41879   -41859 
  -41787   -41755   -41804   -41953   -41958   -41791   -41754   -41796 
  -41855   -41968   -41970   -41953   -42043   -42020   -41872   -41786 
  -41809   -41947   -42051   -41944   -41845   -41833   -41790   -41893 
  -42030   -41943   -41759   -41673   -41790   -41943   -41966   -42010 
  -41951   -41683   -41615   -41791   -41904   -41947   -41932   -41855 
  -41769   -41704   -41758   -41823   -41775   -41760   -41790   -41809 
  -41841   -41827   -41837   -41975   -42118   -42105   -41945   -41886 
  -41959   -41904   -41804   -41836   -41844   -41816   -41812   -41845 
  -41991   -42047   -41962   -41974   -41878   -41655   -41759   -42032 
  -42006   -41836   -41841   -41953   -41958   -41860   -41828   -41814 
  -41812   -41944   -42028   -41922   -41817   -41754   -41694   -41710 
  -41791   -41794   -41647   -41546   -41686   -41990   -42159   -42016 
  -41863   -41935   -41983   -41864   -41725   -41706   -41810   -41949 
  -42105   -42080   -41808   -41746   -41904   -41882   -41810   -41843 
  -41928   -42006   -41986   -41921   -41743   -41532   -41629   -41837 
  -41894   -41899   -41898   -41955   -41983   -41928   -41910   -41809 
  -41720   -41847   -41952   -41955   -41972   -41917   -41782   -41709 
  -41804   -41891   -41806   -41800   -41883   -41883   -41971   -42098 
  -42070   -42001   -41948   -41854   -41793   -41852   -41893   -41801 
  -41725   -41663   -41569   -41654   -41881   -41952   -41948   -42039 
  -42060   -41963   -41924   -41909   -41791   -41670   -41702   -41752 
  -41685   -41702   -41827   -41922   -42029   -42025   -41864   -41800 
  -41858   -41958   -42120   -42192   -42039   -41831   -41810   -41867 
  -41756   -41638   -41705   -41760   -41777   -41985   -42196   -42090 
  -41877   -41806   -41802   -41844   -41850   -41756   -41760   -41855 
  -41859   -41816   -41779   -41719   -41640   -41609   -41744   -41936 
  -42016   -42086   -42187   -42241   -42168   -41895   -41590   -41424 
  -41454   -41758   -42115   -42282   -42252   -42056   -41862   -41755 
  -41704   -41763   -41874   -41943   -41991   -41982   -41905   -41847 
  -41760   -41647   -41666   -41791   -41871   -41899   -41901   -41886 
  -41902   -42014   -42102   -41974   -41758   -41616   -41569   -41670 
  -41779   -41782   -41817   -41918   -42006   -41989   -41771   -41521 
  -41542   -41851   -42169   -42288   -42161   -41914   -41823   -41944 
  -42051   -41974   -41781   -41716   -41797   -41805   -41774   -41805 
  -41823   -41889   -42067   -42113   -41875   -41605   -41594   -41737 
  -41759   -41747   -41840   -41944   -42043   -42118   -42075   -41962 
  -41926   -42016   -42028   -41908   -41845   -41796   -41688   -41661 
  -41729   -41740   -41612   -41561   -41840   -42179   -42205   -41993 
  -41698   -41497   -41625   -41897   -41993   -41914   -41755   -41736 
  -41985   -42192   -42219   -42155   -41964   -41800   -41820   -41928 
  -41989   -41918   -41774   -41671   -41681   -41783   -41800   -41764 
  -41813   -41823   -41829   -41902   -41886   -41850   -41908   -41844 
  -41666   -41682   -41836   -41921   -41998   -42051   -42007   -41966 
  -41994   -42036   -41993   -41856   -41789   -41874   -41964   -41933 
  -41805   -41638   -41566   -41644   -41708   -41762   -41879   -41970 
  -42072   -42110   -41924   -41732   -41755   -41925   -42026   -41929 
  -41816   -41762   -41636   -41570   -41652   -41733   -41787   -41856 
  -41948   -42010   -42013   -42070   -42088   -41937   -41863   -41952 
  -41974   -41935   -41963   -41955   -41828   -41732   -41797   -41913 
  -41878   -41739   -41706   -41783   -41925   -42110   -42107   -41908 
  -41791   -41804   -41808   -41736   -41683   -41774   -41925   -42037 
