Origin Time       2021/08/14 22:38:00
Lat.              37.5
Long.             137.2
Depth. (km)       10
Mag.              4.1
Station Code      ISKH04
Station Lat.      37.1902
Station Long.     136.7176
Station Height(m) 56
Record Time       2021/08/14 22:38:24
Sampling Freq(Hz) 100Hz
Duration Time(s)  120
Dir.              6
Scale Factor      7845(gal)/8223790
Max. Acc. (gal)   0.602
Last Correction   2021/08/14 22:38:24
Memo.             
[...]
  -30177   -30176   -30173   -30177   -30179   -30175   -30173   -30177 
  -30179   -30179   -30177   -30177   -30180   -30179   -30177   -30177 
  -30177   -30179   -30179   -30177   -30177   -30177   -30176   -30175 
  -30180   -30181   -30176   -30176   -30177   -30176   -30177   -30180 
  -30179   -30175   -30176   -30177   -30177   -30180   -30180   -30176 
  -30179   -30181   -30179   -30176   -30179   -30180   -30176   -30175 
  -30179   -30183   -30179   -30176   -30175   -30175   -30181   -30183 
  -30176   -30176   -30176   -30173   -30175   -30179   -30180   -30177 
  -30176   -30179   -30180   -30177   -30179   -30179   -30177   -30180 
  -30180   -30176   -30177   -30180   -30176   -30175   -30180   -30177 
  -30173   -30179   -30179   -30175   -30179   -30181   -30177   -30176 
  -30181   -30179   -30176   -30179   -30177   -30176   -30179   -30177 
  -30173   -30176   -30179   -30176   -30177   -30179   -30175   -30179 
  -30177   -30175   -30180   -30180   -30175   -30176   -30179   -30177 
  -30179   -30180   -30179   -30180   -30180   -30177   -30177   -30179 
  -30180   -30175   -30173   -30177   -30179   -30177   -30177   -30176 
  -30173   -30177   -30179   -30175   -30177   -30180   -30176   -30175 
  -30179   -30179   -30177   -30177   -30179   -30177   -30179   -30181 
  -30177   -30175   -30183   -30183   -30173   -30173   -30180   -30177 
  -30176   -30179   -30176   -30175   -30179   -30183   -30179   -30175 
  -30179   -30177   -30169   -30177   -30184   -30175   -30173   -30180 
  -30176   -30175   -30180   -30177   -30173   -30176   -30179   -30179 
  -30175   -30177   -30181   -30177   -30176   -30179   -30176   -30177 
  -30181   -30177   -30171   -30176   -30183   -30176   -30173   -30179 
  -30177   -30175   -30179   -30179   -30172   -30176   -30183   -30177 
  -30175   -30180   -30181   -30176   -30177   -30180   -30173   -30175 
  -30180   -30177   -30175   -30179   -30180   -30175   -30177   -30183 
  -30177   -30175   -30180   -30179   -30175   -30181   -30186   -30175 
  -30173   -30181   -30181   -30176   -30179   -30183   -30177   -30176 
  -30183   -30179   -30173   -30181   -30184   -30175   -30175   -30181 
  -30179   -30175   -30177   -30177   -30176   -30179   -30180   -30176 
  -30176   -30181   -30179   -30172   -30180   -30186   -30173   -30172 
  -30183   -30179   -30172   -30177   -30180   -30175   -30177   -30184 
  -30177   -30169   -30179   -30184   -30176   -30175   -30180   -30180 
  -30177   -30179   -30177   -30175   -30180   -30183   -30179   -30176 
  -30179   -30179   -30175   -30179   -30183   -30176   -30177   -30181 
  -30176   -30176   -30181   -30180   -30173   -30176   -30180   -30177 
  -30177   -30179   -30179   -30177   -30177   -30180   -30177   -30179 
  -30184   -30179   -30173   -30179   -30180   -30175   -30177   -30181 
  -30179   -30176   -30176   -30180   -30181   -30177   -30175   -30175 
  -30177   -30183   -30181   -30175   -30176   -30181   -30176   -30176 
  -30183   -30179   -30175   -30180   -30179   -30179   -30181   -30180 
  -30175   -30175   -30177   -30177   -30177   -30181   -30181   -30176 
  -30176   -30179   -30177   -30179   -30179   -30177   -30177   -30176 
  -30176   -30179   -30179   -30179   -30180   -30177   -30177   -30183 
  -30179   -30176   -30180   -30179   -30175   -30176   -30180   -30177 
  -30176   -30177   -30177   -30176   -30177   -30179   -30179   -30177 
  -30177   -30176   -30177   -30181   -30177   -30173   -30176   -30179 
  -30176   -30176   -30180   -30179   -30175   -30177   -30181   -30179 
  -30179   -30179   -30176   -30175   -30180   -30179   -30175   -30179 
  -30179   -30172   -30176   -30181   -30179   -30177   -30179   -30179 
  -30176   -30176   -30181   -30183   -30179   -30176   -30177   -30179 
  -30179   -30177   -30177   -30177   -30179   -30177   -30177   -30179 
  -30179   -30175   -30177   -30181   -30179   -30176   -30177   -30179 
  -30177   -30176   -30179   -30179   -30177   -30177   -30177   -30177 
  -30179   -30179   -30177   -30177   -30180   -30181   -30176   -30175 
  -30177   -30180   -30181   -30177   -30173   -30180   -30180   -30175 
  -30175   -30179   -30176   -30175   -30179   -30180   -30177   -30176 
  -30177   -30177   -30179   -30181   -30181   -30177   -30179   -30179 
  -30175   -30177   -30183   -30176   -30172   -30177   -30181   -30179 
  -30177   -30177   -30177   -30175   -30179   -30181   -30176   -30177 
  -30180   -30175   -30173   -30177   -30179   -30179   -30181   -30179 
  -30176   -30180   -30180   -30175   -30175   -30180   -30180   -30176 
  -30175   -30181   -30181   -30175   -30177   -30180   -30176   -30180 
  -30184   -30176   -30173   -30180   -30180   -30175   -30177   -30181 
  -30180   -30177   -30177   -30176   -30179   -30184   -30177   -30171 
  -30177   -30183   -30179   -30176   -30177   -30176   -30175   -30179 
  -30179   -30176   -30179   -30181   -30177   -30172   -30177   -30181 
  -30176   -30177   -30180   -30173   -30176   -30181   -30180   -30175 
  -30176   -30180   -30179   -30175   -30180   -30181   -30175   -30179 
  -30184   -30175   -30173   -30180   -30176   -30172   -30179   -30181 
  -30177   -30176   -30179   -30179   -30176   -30179   -30181   -30175 
  -30175   -30183   -30179   -30175   -30180   -30180   -30179   -30181 
  -30180   -30176   -30176   -30183   -30181   -30176   -30180   -30183 
  -30176   -30177   -30184   -30179   -30173   -30180   -30181   -30176 
  -30177   -30184   -30179   -30173   -30179   -30180   -30175   -30177 
  -30184   -30179   -30173   -30180   -30183   -30179   -30180   -30180 
  -30176   -30179   -30180   -30179   -30176   -30179   -30181   -30175 
  -30175   -30181   -30179   -30176   -30181   -30181   -30175   -30177 
  -30181   -30176   -30176   -30181   -30180   -30176   -30179   -30180 
  -30176   -30175   -30180   -30177   -30176   -30183   -30180   -30175 
  -30177   -30183   -30180   -30177   -30179   -30177   -30176   -30179 
  -30180   -30176   -30175   -30180   -30179   -30175   -30176   -30181 
  -30179   -30176   -30180   -30179   -30177   -30184   -30180   -30172 
  -30176   -30181   -30179   -30175   -30179   -30179   -30175   -30179 
  -30180   -30175   -30176   -30180   -30177   -30177   -30181   -30181 
  -30177   -30179   -30181   -30177   -30176   -30180   -30179   -30177 
  -30179   -30183   -30180   -30176   -30180   -30179   -30176   -30179 
  -30179   -30176   -30179   -30181   -30179   -30177   -30180   -30180 
  -30179   -30179   -30180   -30180   -30179   -30180   -30179   -30176 
  -30180   -30183   -30176   -30172   -30180   -30181   -30179   -30180 
  -30177   -30176   -30180   -30188   -30198   -30221   -30261   -30285 
  -30267   -30217   -30152   -30105   -30109   -30132   -30121   -30069 
  -30034   -30080   -30200   -30275   -30219   -30117   -30057   -30051 
  -30083   -30130   -30186   -30248   -30235   -30136   -30168   -30451 
  -30658   -30420   -29893   -29670   -30072   -30620   -30642   -30145 
  -29731   -29849   -30246   -30497   -30497   -30145   -29844   -30103 
  -30376   -30196   -29984   -30140   -30491   -30369   -29790   -29717 
  -30257   -30481   -30137   -29886   -30048   -30280   -30381   -30306 
  -30056   -30007   -30249   -30308   -30190   -30191   -30146   -30028 
  -30088   -30253   -30349   -30321   -30208   -30175   -30199   -30179 
  -30196   -30233   -30188   -30072   -30009   -30187   -30385   -30214 
  -30052   -30237   -30244   -30014   -30037   -30184   -30226   -30234 
  -30207   -30180   -30144   -30096   -30121   -30180   -30272   -30330 
  -30262   -30244   -30256   -30076   -29886   -29953   -30177   -30315 
  -30327   -30260   -30122   -30119   -30283   -30291   -30121   -30037 
  -30154   -30327   -30250   -30017   -30068   -30271   -30199   -30059 
  -30126   -30231   -30268   -30238   -30164   -30159   -30168   -30110 
  -30119   -30167   -30181   -30288   -30319   -30157   -30083   -30125 
  -30152   -30246   -30299   -30177   -30137   -30272   -30260   -30069 
  -29975   -30072   -30244   -30257   -30164   -30246   -30343   -30256 
  -30150   -30059   -29964   -30026   -30225   -30384   -30385   -30180 
  -29998   -30132   -30256   -30055   -30064   -30375   -30335   -30123 
  -30144   -30126   -30067   -30137   -30140   -30053   -30110   -30244 
  -30249   -30204   -30207   -30260   -30345   -30260   -30067   -30118 
  -30277   -30240   -30134   -30059   -29986   -30094   -30399   -30500 
  -30226   -29986   -30080   -30246   -30244   -30199   -30180   -30148 
  -30184   -30262   -30190   -30057   -30096   -30137   -30078   -30208 
  -30362   -30248   -30175   -30223   -30148   -29988   -29905   -30024 
  -30268   -30402   -30396   -30188   -29876   -29974   -30412   -30515 
  -30246   -30100   -30105   -30040   -30059   -30226   -30334   -30319 
  -30134   -29886   -29975   -30331   -30411   -30210   -30132   -30190 
  -30186   -30159   -30168   -30160   -30157   -30211   -30273   -30271 
  -30127   -29976   -30129   -30420   -30369   -30073   -30001   -30180 
  -30335   -30300   -30069   -29951   -30230   -30369   -30026   -29956 
  -30237   -30187   -30153   -30411   -30295   -30011   -30163   -30287 
  -30181   -30179   -30076   -29961   -30241   -30473   -30260   -30046 
  -30100   -30238   -30258   -30051   -29911   -30150   -30388   -30195 
  -29968   -30148   -30283   -30125   -30133   -30226   -30183   -30233 
  -30281   -30196   -30141   -30138   -30122   -30168   -30342   -30442 
  -30284   -30032   -29999   -30237   -30315   -30126   -30132   -30296 
  -30200   -29971   -30015   -30277   -30389   -30284   -30088   -29968 
  -30053   -30138   -30129   -30204   -30219   -30110   -30165   -30331 
  -30333   -30183   -30040   -30022   -30144   -30287   -30303   -30202 
  -30191   -30316   -30333   -30123   -29884   -29890   -30160   -30334 
  -30233   -30168   -30275   -30318   -30213   -30134   -30221   -30345 
  -30262   -30037   -30055   -30292   -30225   -29937   -29991   -30261 
  -30303   -30144   -30083   -30198   -30154   -29952   -30091   -30418 
  -30348   -30073   -30103   -30316   -30329   -30176   -30092   -30040 
  -30028   -30195   -30352   -30276   -30142   -30164   -30238   -30133 
  -30032   -30253   -30439   -30233   -29978   -30003   -30254   -30403 
  -30186   -29999   -30142   -30231   -30150   -30096   -30041   -30122 
  -30396   -30447   -30264   -30204   -30165   -30053   -30053   -30177 
  -30271   -30195   -30073   -30130   -30186   -30094   -30063   -30149 
  -30191   -30183   -30260   -30350   -30284   -30129   -30053   -30114 
  -30210   -30221   -30152   -30109   -30164   -30244   -30214   -30098 
  -30049   -30160   -30265   -30210   -30234   -30391   -30451   -30388 
  -30126   -29793   -29875   -30275   -30500   -30360   -29955   -29639 
  -29771   -30307   -30634   -30375   -30117   -30183   -30164   -30187 
  -30408   -30312   -29951   -29878   -30059   -30273   -30437   -30360 
  -30071   -29907   -30080   -30307   -30199   -30005   -30049   -30221 
  -30412   -30408   -30184   -30142   -30180   -30073   -30103   -30168 
  -30083   -30235   -30492   -30321   -30046   -30087   -30187   -30227 
  -30253   -30181   -30080   -29997   -29967   -30122   -30331   -30381 
  -30281   -30127   -30060   -30148   -30252   -30238   -30156   -30100 
  -30113   -30176   -30183   -30115   -30086   -30146   -30314   -30376 
  -30160   -29971   -29999   -30145   -30292   -30277   -30222   -30242 
  -30130   -30071   -30279   -30391   -30214   -29955   -29887   -30133 
  -30429   -30534   -30414   -30095   -29906   -30087   -30319   -30279 
  -30114   -30076   -30152   -30240   -30322   -30372   -30238   -29957 
  -29956   -30202   -30237   -30190   -30233   -30180   -30149   -30117 
  -29957   -30094   -30426   -30300   -29944   -29978   -30346   -30481 
  -30129   -29799   -29828   -29999   -30283   -30589   -30572   -30284 
  -30065   -29995   -30069   -30288   -30379   -30113   -29980   -30422 
  -30708   -30214   -29701   -29872   -30260   -30304   -30244   -30295 
  -30132   -29918   -30118   -30315   -30191   -30094   -30057   -30118 
  -30323   -30342   -30237   -30214   -30110   -29987   -30087   -30299 
  -30218   -29980   -30144   -30365   -30163   -30019   -30105   -30076 
  -30106   -30360   -30515   -30291   -30053   -30248   -30379   -30137 
  -30090   -30165   -30090   -30171   -30250   -30113   -30140   -30333 
  -30294   -30014   -29810   -29961   -30350   -30484   -30306   -30213 
  -30140   -30005   -30169   -30373   -30121   -29936   -30176   -30335 
  -30242   -30172   -30190   -30272   -30397   -30295   -29961   -29843 
  -29933   -30095   -30414   -30473   -30129   -29961   -30129   -30267 
  -30208   -30169   -30281   -30273   -30095   -30041   -30115   -30195 
  -30316   -30407   -30285   -29994   -29862   -30088   -30377   -30437 
  -30292   -29974   -29833   -30208   -30568   -30450   -30126   -29948 
  -30042   -30127   -30021   -30118   -30449   -30555   -30339   -29990 
  -29786   -30048   -30391   -30161   -29926   -30253   -30348   -30024 
  -30049   -30267   -30260   -30346   -30465   -30186   -29876   -30005 
  -30248   -30333   -30364   -30291   -30099   -30002   -30086   -30188 
  -30204   -30230   -30288   -30250   -30169   -30069   -29924   -29972 
  -30179   -30199   -30160   -30326   -30392   -30096   -29898   -30067 
  -30180   -30161   -30230   -30223   -30148   -30267   -30389   -30208 
  -29980   -30048   -30338   -30526   -30379   -30105   -29970   -29952 
  -30175   -30519   -30458   -30041   -29879   -30127   -30385   -30391 
  -30180   -30086   -30481   -30728   -30145   -29548   -29625   -29963 
  -30300   -30454   -30121   -29852   -30184   -30404   -30168   -30092 
  -30123   -30088   -30310   -30457   -30284   -30276   -30233   -29880 
  -29825   -30136   -30267   -30145   -29876   -29799   -30214   -30580 
  -30472   -30302   -30273   -30167   -30038   -29987   -29944   -29972 
  -30141   -30384   -30429   -30203   -30102   -30257   -30489   -30586 
  -30404   -30238   -30156   -29878   -29771   -30137   -30380   -30179 
  -29998   -30053   -30159   -30231   -30283   -30419   -30504   -30229 
  -29965   -30114   -30240   -30129   -30132   -30294   -30385   -30267 
  -30017   -29907   -30017   -30218   -30348   -30316   -30175   -30041 
  -30024   -30017   -29953   -30036   -30141   -30073   -30164   -30402 
  -30269   -29988   -30098   -30298   -30330   -30346   -30238   -30140 
  -30215   -30249   -30391   -30538   -30298   -29984   -29855   -29903 
  -30214   -30392   -30235   -30103   -30037   -30033   -30261   -30437 
  -30298   -30094   -30024   -30067   -30157   -30245   -30261   -30117 
  -30034   -30067   -29910   -29916   -30298   -30304   -30036   -30183 
  -30360   -30265   -30192   -30159   -30294   -30595   -30545   -30117 
  -29845   -29857   -30071   -30430   -30528   -30304   -30219   -30191 
  -30157   -30292   -30284   -30191   -30154   -29901   -29778   -30075 
  -30334   -30267   -30084   -30180   -30360   -30132   -29895   -30069 
  -30187   -30056   -30046   -30153   -30177   -30204   -30248   -30198 
  -30154   -30226   -30373   -30484   -30400   -30206   -30142   -30164 
  -30142   -30133   -30163   -30281   -30470   -30354   -29913   -29794 
  -30095   -30331   -30323   -30175   -30110   -30091   -30015   -30102 
  -30186   -30009   -29870   -29978   -30202   -30273   -30156   -30223 
  -30458   -30397   -30146   -30160   -30357   -30438   -30295   -29987 
  -29938   -30268   -30329   -30064   -30071   -30226   -30165   -30094 
  -30148   -30202   -30183   -30102   -30146   -30310   -30308   -30183 
  -30146   -30258   -30299   -30088   -30015   -30238   -30392   -30385 
  -30265   -30126   -30142   -30230   -30168   -30006   -30113   -30353 
  -30080   -29616   -29790   -30214   -30183   -30041   -30132   -30221 
  -30242   -30244   -30272   -30446   -30518   -30296   -30161   -30238 
  -30283   -30284   -30202   -30026   -29997   -30037   -30013   -30071 
  -30083   -30099   -30296   -30267   -30079   -30248   -30427   -30246 
  -30105   -30285   -30439   -30276   -30130   -30177   -30091   -29964 
  -30051   -30210   -30431   -30524   -30208   -29978   -30110   -30152 
  -30034   -29978   -29960   -29936   -29940   -30002   -30099   -30191 
  -30253   -30311   -30389   -30315   -30188   -30349   -30433   -30140 
  -30002   -30125   -30221   -30323   -30349   -30311   -30318   -30202 
  -30192   -30422   -30352   -30113   -30188   -30177   -29898   -29843 
  -30044   -30159   -30109   -30009   -29994   -30053   -30087   -30207 
  -30493   -30663   -30468   -30148   -30052   -30138   -30181   -30052 
  -29889   -29967   -30157   -30186   -30126   -30130   -30261   -30410 
  -30400   -30333   -30334   -30303   -30144   -30026   -30110   -30117 
  -29955   -29951   -29984   -29889   -29953   -30200   -30383   -30427 
  -30408   -30341   -30211   -30176   -30248   -30321   -30410   -30318 
  -30030   -29988   -30235   -30422   -30343   -30092   -30030   -30164 
  -30160   -30115   -30214   -30226   -30078   -30044   -30118   -30036 
  -29911   -29978   -30094   -30142   -30177   -30238   -30330   -30345 
  -30311   -30316   -30281   -30258   -30254   -30082   -29903   -29934 
  -30080   -30275   -30334   -30141   -30087   -30280   -30364   -30395 
  -30410   -30127   -29866   -30082   -30366   -30298   -30187   -30171 
  -30088   -30126   -30179   -29976   -29961   -30199   -30192   -30175 
  -30337   -30262   -30075   -30154   -30307   -30257   -30090   -30061 
  -30213   -30250   -30148   -30164   -30148   -30022   -30105   -30304 
  -30385   -30408   -30348   -30245   -30231   -30242   -30234   -30172 
  -29979   -29781   -29743   -29930   -30284   -30500   -30460   -30384 
  -30385   -30380   -30226   -30001   -29932   -30007   -30109   -30156 
  -30122   -30069   -30041   -30022   -29992   -30015   -30129   -30235 
  -30353   -30507   -30538   -30460   -30442   -30393   -30202   -30014 
  -29926   -29913   -30009   -30144   -30142   -30088   -30272   -30532 
  -30342   -29886   -29813   -30026   -30146   -30234   -30315   -30327 
  -30362   -30458   -30503   -30311   -29920   -29718   -29855   -30032 
  -30129   -30177   -30061   -29951   -30110   -30338   -30380   -30306 
  -30257   -30321   -30415   -30345   -30217   -30262   -30321   -30272 
  -30227   -30142   -30068   -30146   -30190   -30080   -30048   -30123 
  -30122   -30079   -30094   -30136   -30165   -30136   -30138   -30298 
  -30379   -30222   -30037   -29890   -29825   -30015   -30280   -30287 
  -30138   -30169   -30370   -30481   -30460   -30291   -30010   -29984 
  -30175   -30117   -29957   -29922   -29853   -29952   -30281   -30516 
  -30717   -30794   -30539   -30358   -30353   -30191   -30036   -29997 
  -29874   -29808   -29901   -29875   -29799   -29971   -30208   -30361 
  -30531   -30555   -30358   -30268   -30341   -30298   -30219   -30272 
  -30299   -30292   -30330   -30260   -30080   -29968   -29947   -29956 
  -29968   -29906   -29883   -30102   -30349   -30326   -30118   -29952 
  -29988   -30121   -30144   -30186   -30287   -30241   -30132   -30126 
  -30160   -30213   -30369   -30531   -30458   -30253   -30190   -30157 
  -30049   -30094   -30289   -30349   -30225   -30125   -30144   -30159 
  -30122   -30148   -30200   -30146   -30095   -30161   -30165   -30106 
  -30200   -30281   -30160   -30117   -30245   -30241   -30095   -30063 
  -30142   -30246   -30346   -30271   -30082   -30065   -30168   -30256 
