Origin Time       2021/08/14 22:38:00
Lat.              37.5
Long.             137.2
Depth. (km)       10
Mag.              4.1
Station Code      ISKH03
Station Lat.      37.3458
Station Long.     137.2436
Station Height(m) -188
Record Time       2021/08/14 22:38:11
Sampling Freq(Hz) 100Hz
Duration Time(s)  120
Dir.              2
Scale Factor      2940(gal)/6170270
Max. Acc. (gal)   2.083
Last Correction   2021/08/14 22:37:56
Memo.             
[...]
   -1787    -1787    -1786    -1786    -1786    -1785    -1784    -1786 
   -1786    -1786    -1786    -1786    -1786    -1786    -1784    -1785 
   -1788    -1786    -1785    -1786    -1786    -1785    -1785    -1786 
   -1786    -1785    -1786    -1786    -1785    -1786    -1786    -1786 
   -1787    -1787    -1786    -1786    -1787    -1787    -1787    -1786 
   -1784    -1786    -1787    -1784    -1784    -1787    -1787    -1787 
   -1787    -1786    -1786    -1786    -1785    -1785    -1787    -1787 
   -1786    -1786    -1786    -1786    -1786    -1786    -1785    -1785 
   -1787    -1786    -1785    -1785    -1786    -1784    -1783    -1785 
   -1787    -1785    -1783    -1785    -1786    -1785    -1786    -1786 
   -1785    -1786    -1786    -1783    -1783    -1784    -1787    -1787 
   -1784    -1782    -1786    -1788    -1785    -1784    -1785    -1785 
   -1785    -1784    -1785    -1786    -1786    -1785    -1786    -1785 
   -1785    -1784    -1785    -1786    -1786    -1786    -1787    -1787 
   -1786    -1785    -1785    -1787    -1786    -1784    -1785    -1786 
   -1787    -1787    -1786    -1785    -1786    -1788    -1787    -1784 
   -1786    -1786    -1786    -1786    -1786    -1787    -1787    -1784 
   -1785    -1787    -1785    -1785    -1788    -1787    -1785    -1785 
   -1785    -1786    -1786    -1785    -1786    -1787    -1786    -1785 
   -1784    -1783    -1783    -1785    -1786    -1785    -1784    -1785 
   -1785    -1785    -1786    -1786    -1788    -1787    -1786    -1786 
   -1786    -1785    -1786    -1785    -1783    -1786    -1789    -1788 
   -1786    -1787    -1787    -1785    -1784    -1787    -1786    -1784 
   -1785    -1786    -1786    -1787    -1786    -1785    -1786    -1787 
   -1786    -1786    -1786    -1787    -1786    -1784    -1784    -1786 
   -1786    -1785    -1784    -1785    -1785    -1785    -1784    -1785 
   -1785    -1786    -1786    -1785    -1785    -1784    -1784    -1786 
   -1786    -1785    -1784    -1785    -1785    -1785    -1784    -1784 
   -1786    -1785    -1784    -1784    -1784    -1784    -1785    -1784 
   -1783    -1784    -1784    -1785    -1785    -1783    -1785    -1786 
   -1783    -1783    -1785    -1784    -1783    -1785    -1784    -1784 
   -1784    -1784    -1784    -1784    -1784    -1782    -1782    -1784 
   -1785    -1785    -1784    -1784    -1786    -1787    -1785    -1784 
   -1787    -1787    -1784    -1786    -1788    -1787    -1785    -1785 
   -1786    -1786    -1784    -1785    -1786    -1786    -1784    -1784 
   -1785    -1785    -1785    -1785    -1784    -1785    -1786    -1785 
   -1785    -1785    -1784    -1783    -1783    -1785    -1785    -1783 
   -1784    -1785    -1785    -1785    -1785    -1782    -1783    -1787 
   -1787    -1784    -1784    -1784    -1784    -1785    -1784    -1784 
   -1784    -1786    -1785    -1783    -1784    -1784    -1784    -1785 
   -1786    -1785    -1785    -1784    -1783    -1786    -1786    -1784 
   -1785    -1787    -1786    -1784    -1784    -1783    -1783    -1785 
   -1786    -1785    -1784    -1783    -1785    -1785    -1784    -1784 
   -1785    -1785    -1785    -1786    -1787    -1784    -1784    -1786 
   -1784    -1782    -1783    -1785    -1785    -1785    -1785    -1784 
   -1784    -1785    -1786    -1785    -1784    -1784    -1784    -1785 
   -1785    -1785    -1784    -1783    -1782    -1783    -1783    -1782 
   -1783    -1785    -1785    -1784    -1783    -1783    -1785    -1785 
   -1784    -1785    -1784    -1784    -1784    -1784    -1784    -1784 
   -1784    -1784    -1784    -1786    -1784    -1783    -1786    -1788 
   -1786    -1785    -1786    -1787    -1786    -1784    -1784    -1785 
   -1784    -1781    -1781    -1782    -1780    -1780    -1782    -1782 
   -1782    -1782    -1782    -1783    -1781    -1779    -1780    -1782 
   -1782    -1781    -1781    -1782    -1781    -1781    -1782    -1781 
   -1781    -1780    -1780    -1781    -1781    -1780    -1781    -1781 
   -1781    -1782    -1782    -1780    -1781    -1781    -1782    -1784 
   -1784    -1781    -1782    -1782    -1779    -1780    -1782    -1782 
   -1781    -1781    -1781    -1781    -1783    -1784    -1781    -1781 
   -1782    -1782    -1783    -1782    -1781    -1782    -1783    -1781 
   -1779    -1781    -1783    -1783    -1784    -1786    -1783    -1782 
   -1785    -1784    -1782    -1783    -1785    -1785    -1785    -1785 
   -1784    -1784    -1785    -1784    -1785    -1787    -1784    -1782 
   -1785    -1785    -1783    -1784    -1784    -1785    -1786    -1787 
   -1785    -1785    -1784    -1784    -1785    -1785    -1785    -1783 
   -1781    -1783    -1784    -1786    -1785    -1782    -1781    -1782 
   -1783    -1784    -1784    -1783    -1784    -1785    -1784    -1783 
   -1783    -1783    -1784    -1783    -1785    -1786    -1784    -1783 
   -1784    -1782    -1780    -1783    -1783    -1782    -1783    -1783 
   -1781    -1781    -1780    -1781    -1782    -1781    -1782    -1782 
   -1782    -1783    -1783    -1781    -1781    -1784    -1784    -1782 
   -1782    -1783    -1783    -1783    -1782    -1781    -1781    -1781 
   -1782    -1782    -1782    -1783    -1781    -1781    -1782    -1780 
   -1780    -1782    -1782    -1780    -1780    -1782    -1782    -1781 
   -1780    -1781    -1783    -1782    -1780    -1780    -1782    -1783 
   -1782    -1784    -1783    -1780    -1778    -1780    -1782    -1783 
   -1783    -1782    -1782    -1781    -1782    -1781    -1779    -1781 
   -1782    -1781    -1781    -1782    -1780    -1779    -1782    -1782 
   -1781    -1783    -1783    -1781    -1780    -1781    -1781    -1781 
   -1782    -1782    -1781    -1782    -1781    -1781    -1783    -1782 
   -1780    -1781    -1782    -1781    -1780    -1779    -1780    -1780 
   -1780    -1781    -1781    -1780    -1782    -1784    -1784    -1782 
   -1782    -1782    -1783    -1782    -1781    -1783    -1783    -1781 
   -1783    -1784    -1782    -1782    -1782    -1782    -1784    -1784 
   -1782    -1782    -1781    -1780    -1783    -1784    -1784    -1783 
   -1782    -1782    -1782    -1783    -1785    -1783    -1783    -1783 
   -1783    -1784    -1784    -1783    -1783    -1783    -1781    -1782 
   -1783    -1783    -1782    -1782    -1784    -1782    -1779    -1781 
   -1783    -1783    -1785    -1784    -1782    -1782    -1784    -1784 
   -1783    -1782    -1783    -1784    -1783    -1782    -1782    -1782 
   -1783    -1784    -1783    -1782    -1782    -1785    -1786    -1781 
   -1777    -1780    -1782    -1781    -1781    -1781    -1780    -1782 
   -1783    -1780    -1781    -1783    -1782    -1782    -1782    -1779 
   -1779    -1782    -1782    -1780    -1780    -1781    -1781    -1782 
   -1781    -1779    -1778    -1778    -1781    -1783    -1781    -1779 
   -1779    -1780    -1781    -1781    -1781    -1781    -1781    -1780 
   -1780    -1782    -1781    -1780    -1780    -1781    -1782    -1782 
   -1781    -1782    -1784    -1784    -1782    -1780    -1782    -1782 
   -1780    -1781    -1781    -1780    -1781    -1783    -1783    -1784 
   -1784    -1785    -1786    -1785    -1783    -1784    -1786    -1785 
   -1784    -1785    -1786    -1785    -1784    -1785    -1786    -1786 
   -1785    -1784    -1786    -1787    -1783    -1783    -1786    -1786 
   -1784    -1782    -1784    -1786    -1785    -1784    -1781    -1781 
   -1782    -1781    -1782    -1784    -1784    -1782    -1781    -1781 
   -1783    -1785    -1785    -1785    -1787    -1785    -1782    -1783 
   -1785    -1784    -1785    -1787    -1786    -1785    -1785    -1785 
   -1784    -1784    -1786    -1787    -1785    -1784    -1783    -1785 
   -1786    -1784    -1784    -1786    -1786    -1786    -1785    -1784 
   -1783    -1783    -1785    -1785    -1786    -1786    -1786    -1786 
   -1786    -1786    -1787    -1788    -1786    -1786    -1787    -1787 
   -1785    -1784    -1786    -1787    -1786    -1787    -1789    -1789 
   -1786    -1787    -1788    -1788    -1788    -1786    -1784    -1784 
   -1785    -1786    -1785    -1783    -1784    -1786    -1786    -1784 
   -1785    -1787    -1787    -1785    -1785    -1786    -1784    -1784 
   -1785    -1784    -1784    -1787    -1787    -1785    -1786    -1786 
   -1785    -1785    -1786    -1786    -1785    -1786    -1787    -1784 
   -1784    -1786    -1785    -1782    -1784    -1785    -1785    -1785 
   -1784    -1783    -1785    -1786    -1785    -1785    -1786    -1785 
   -1784    -1784    -1784    -1786    -1786    -1783    -1783    -1785 
   -1784    -1784    -1785    -1785    -1785    -1784    -1784    -1784 
   -1785    -1785    -1784    -1784    -1784    -1786    -1785    -1784 
   -1785    -1784    -1784    -1785    -1784    -1783    -1784    -1785 
   -1785    -1786    -1788    -1787    -1785    -1785    -1786    -1786 
   -1785    -1785    -1785    -1785    -1785    -1784    -1783    -1784 
   -1785    -1785    -1784    -1783    -1783    -1785    -1785    -1783 
   -1784    -1785    -1785    -1783    -1783    -1785    -1785    -1783 
   -1783    -1784    -1783    -1784    -1785    -1783    -1782    -1784 
   -1785    -1784    -1783    -1785    -1785    -1785    -1785    -1784 
   -1784    -1785    -1784    -1783    -1783    -1785    -1785    -1784 
   -1785    -1786    -1785    -1784    -1784    -1783    -1785    -1787 
   -1784    -1780    -1781    -1783    -1783    -1783    -1784    -1784 
   -1782    -1781    -1781    -1781    -1782    -1783    -1784    -1785 
   -1784    -1782    -1782    -1784    -1784    -1784    -1785    -1784 
   -1784    -1786    -1785    -1782    -1783    -1784    -1786    -1785 
   -1783    -1783    -1783    -1781    -1783    -1785    -1784    -1782 
   -1783    -1782    -1782    -1782    -1783    -1782    -1783    -1784 
   -1781    -1782    -1785    -1783    -1782    -1784    -1785    -1783 
   -1785    -1786    -1785    -1786    -1787    -1785    -1783    -1784 
   -1785    -1783    -1783    -1784    -1785    -1782    -1782    -1784 
   -1784    -1782    -1783    -1784    -1783    -1784    -1785    -1784 
   -1784    -1784    -1783    -1784    -1785    -1783    -1783    -1784 
   -1782    -1781    -1784    -1784    -1781    -1781    -1783    -1783 
   -1782    -1783    -1783    -1783    -1782    -1782    -1783    -1785 
   -1783    -1781    -1782    -1782    -1783    -1783    -1783    -1782 
   -1783    -1783    -1782    -1781    -1781    -1781    -1782    -1783 
   -1781    -1781    -1782    -1782    -1782    -1784    -1785    -1783 
   -1782    -1783    -1784    -1784    -1784    -1782    -1780    -1783 
   -1784    -1782    -1782    -1783    -1783    -1783    -1781    -1781 
   -1782    -1783    -1784    -1785    -1785    -1784    -1784    -1784 
   -1783    -1783    -1782    -1783    -1784    -1783    -1783    -1784 
   -1781    -1779    -1776    -1774    -1776    -1783    -1792    -1792 
   -1780    -1769    -1766    -1777    -1793    -1804    -1824    -1872 
   -1913    -1886    -1803    -1723    -1674    -1678    -1740    -1778 
   -1790    -1822    -1802    -1732    -1673    -1654    -1796    -1910 
   -1747    -1698    -1859    -1775    -1629    -1740    -1836    -1827 
   -1859    -1796    -1666    -1823    -2106    -1909    -1456    -1588 
   -2024    -1827    -1502    -1922    -2264    -1781    -1398    -1679 
   -1972    -1908    -1625    -1411    -1605    -1949    -2069    -2074 
   -1926    -1730    -1719    -1602    -1482    -1827    -2297    -2349 
   -1999    -1400     -868    -1182    -2219    -2315    -1522    -1749 
   -2230    -1420     -958    -1805    -2234    -1760    -1516    -1775 
   -2026    -1920    -1644    -1648    -1807    -1929    -2235    -2380 
   -2014    -1643    -1519    -1549    -1623    -1436    -1496    -2181 
   -2338    -1804    -1748    -1905    -1717    -1599    -1631    -1745 
   -1743    -1372    -1332    -1920    -2243    -2070    -1854    -1753 
   -1934    -2105    -1665    -1199    -1557    -2006    -1766    -1595 
   -1930    -1990    -1653    -1673    -1942    -1741    -1526    -1989 
   -2223    -1624    -1457    -2126    -2236    -1561    -1320    -1645 
   -1822    -1957    -2087    -1833    -1674    -1811    -1669    -1611 
   -2044    -2203    -1678    -1281    -1655    -2092    -1775    -1367 
   -1694    -2176    -2037    -1505    -1362    -1795    -1980    -1688 
   -1597    -1736    -1946    -2273    -2272    -1822    -1505    -1429 
   -1434    -1787    -2133    -1903    -1751    -1985    -1897    -1576 
   -1498    -1535    -1693    -1943    -1970    -1897    -1853    -1639 
   -1473    -1624    -1814    -1702    -1510    -1798    -2286    -2224 
   -1876    -1791    -1837    -1890    -1978    -2007    -1936    -1751 
   -1592    -1565    -1411    -1152    -1338    -2013    -2317    -1973 
   -1780    -1876    -1799    -1588    -1459    -1673    -2021    -1915 
   -1674    -1859    -2082    -1919    -1578    -1454    -1703    -1966 
   -1882    -1728    -1696    -1505    -1425    -1935    -2382    -2184 
   -1917    -1771    -1531    -1505    -1750    -1920    -1859    -1817 
   -1846    -1638    -1633    -1976    -1871    -1667    -1901    -1863 
   -1494    -1371    -1542    -1930    -2109    -1763    -1521    -1689 
   -1966    -2092    -1748    -1357    -1549    -1953    -2170    -2044 
   -1693    -1705    -1833    -1667    -1761    -2246    -2383    -1922 
   -1801    -2456    -3030    -3155    -2765    -2313    -3038    -3916 
   -3165    -1612     -268      649      691      107     -623    -1361 
   -2142    -2713    -1249     2083     2589     -602    -2204    -1746 
   -3133    -4020    -1927    -1903    -4127    -2590      331     -643 
   -3061    -3548    -2660    -2209    -2778    -2945    -2463    -2208 
   -1314     -477    -1523    -2347    -1801    -2523    -3927    -3580 
   -2264     -844      848     1635      354    -2151    -3875    -3331 
   -1630    -1750    -3088    -2518     -876     -747    -2154    -3521 
   -3212    -1411      413     1381      582    -1705    -3446    -3308 
   -1090     1671     2120      549     -519    -1275    -2506    -3309 
   -3598    -3802    -3648    -3143    -2206     -991     -757    -1353 
   -1659    -2789    -4165    -2860     -559     -277     -781    -1229 
   -1880    -2000    -2053    -2499    -2444    -1429     -219     -548 
   -2281    -2938    -2654    -3524    -4590    -4174    -3464    -3128 
   -2269    -1532    -1242     -608     -595    -1640    -2451    -3137 
   -3740    -3000    -1275       13      602      963     1252      984 
     144     -555    -1165    -2364    -3748    -3801    -2353    -1070 
   -1139    -2463    -3834    -3982    -3214    -2565    -2762    -3786 
   -4100    -2723     -950      -39      263      396      -38    -1083 
   -1392     -371      474     -122    -1704    -3047    -3554    -3595 
   -3373    -2918    -2537    -2138    -2026    -2952    -4125    -3764 
   -1670      349      893      411     -348    -1128    -1472    -1105 
    -621     -693     -871     -889    -1873    -3519    -3634    -2476 
   -2264    -2695    -2241    -1612    -2042    -2850    -2967    -2375 
   -1362     -255      282     -476    -1909    -2243    -1738    -2034 
   -2625    -2453    -1661     -361      777      714     -690    -2889 
   -4428    -4225    -3039    -2072    -2027    -2378    -1776    -1019 
   -1737    -2838    -2882    -2632    -2511    -1854    -1046     -824 
    -927     -721     -252     -682    -2359    -3589    -3374    -2515 
   -1573     -773     -640    -1087    -1569    -2074    -2758    -3314 
   -3174    -2449    -1689     -558      712      404    -1550    -3083 
   -3051    -2138    -1748    -2368    -2986    -3053    -2956    -2317 
   -1037     -418     -898    -1502    -1752    -1883    -2019    -1958 
   -1568    -1118     -639     -185     -425    -1244    -1734    -2082 
   -2785    -3243    -3106    -2917    -2846    -2600    -2021    -1209 
    -828    -1266    -1779    -1815    -1637    -1534    -1543    -1374 
   -1066    -1077    -1245    -1418    -1857    -2306    -2421    -2246 
   -2028    -2023    -1933    -1560    -1261     -874     -243     -139 
    -945    -1943    -2427    -2241    -1505     -957    -1348    -2177 
   -2819    -3323    -3317    -2733    -2303    -2282    -2480    -2580 
   -2351    -2070    -1812    -1532    -1507    -1477    -1023     -576 
    -770    -1656    -2625    -2942    -2757    -2688    -2300    -1250 
    -810    -1221    -1086     -777    -1295    -1742    -1775    -2180 
   -2466    -1880    -1285    -1737    -2606    -2599    -1881    -1514 
   -1654    -1872    -2109    -2176    -1691    -1118    -1166    -1373 
   -1111     -800     -964    -1427    -1698    -1677    -1797    -2049 
   -2043    -2080    -2458    -2654    -2221    -1616    -1669    -2143 
   -2181    -2066    -2247    -2241    -2002    -1825    -1447    -1218 
   -1925    -2921    -3012    -2229    -1297     -876    -1207    -1748 
   -1869    -1620    -1443    -1580    -1826    -1926    -1931    -1842 
   -1488    -1047     -992    -1389    -1836    -2041    -1959    -1596 
   -1261    -1365    -1612    -1588    -1628    -1800    -1718    -1753 
   -2384    -2992    -2823    -2273    -2083    -2022    -1708    -1453 
   -1220     -735     -552    -1085    -1755    -1955    -1789    -1842 
   -2260    -2398    -2014    -1774    -2159    -2535    -2094    -1605 
   -2030    -2410    -1960    -1485    -1303    -1123    -1250    -1573 
   -1459    -1351    -1929    -2417    -2159    -1927    -2083    -2180 
   -2430    -3051    -3412    -3223    -2853    -2339    -1587    -1029 
   -1077    -1402    -1505    -1482    -1468    -1205     -754     -612 
    -972    -1556    -1966    -1984    -1695    -1410    -1357    -1539 
   -1962    -2463    -2621    -2343    -1876    -1510    -1582    -1973 
   -2196    -2212    -2237    -2233    -2001    -1596    -1490    -1767 
   -1960    -2001    -2013    -1887    -1797    -1970    -2215    -2333 
   -2261    -2010    -1782    -1500    -1035     -822     -992    -1137 
   -1247    -1485    -1765    -2143    -2615    -2730    -2374    -2008 
   -1693    -1327    -1271    -1536    -1588    -1461    -1588    -1706 
   -1410    -1022     -900     -990    -1256    -1548    -1555    -1397 
   -1368    -1432    -1786    -2589    -3186    -2946    -2139    -1641 
   -1863    -2172    -2255    -2490    -2531    -2011    -1461    -1094 
    -715     -551     -841    -1447    -2045    -2456    -2713    -2572 
   -1926    -1454    -1521    -1720    -1916    -2197    -2240    -1714 
   -1008     -894    -1386    -1832    -2079    -2295    -2291    -1980 
   -1649    -1606    -1836    -1973    -1919    -1911    -1968    -1984 
   -1866    -1592    -1304    -1096     -988    -1064    -1414    -1842 
   -1929    -1842    -2133    -2592    -2660    -2491    -2491    -2482 
   -2233    -1998    -1879    -1714    -1626    -1747    -1821    -1703 
   -1685    -1981    -2339    -2487    -2452    -2288    -1976    -1554 
   -1074     -676     -658    -1076    -1600    -2118    -2601    -2535 
   -1759     -942     -604     -682     -928    -1334    -1976    -2205 
   -1401     -543     -791    -1572    -2085    -2560    -2977    -2955 
   -2762    -2624    -2346    -2086    -1963    -1864    -1916    -1967 
   -1689    -1359    -1343    -1497    -1527    -1434    -1414    -1373 
   -1192    -1151    -1432    -2018    -2771    -3068    -2606    -2122 
