Origin Time       2021/08/14 22:38:00
Lat.              37.5
Long.             137.2
Depth. (km)       10
Mag.              4.1
Station Code      ISKH01
Station Lat.      37.5266
Station Long.     137.2844
Station Height(m) 48
Record Time       2021/08/14 22:38:09
Sampling Freq(Hz) 100Hz
Duration Time(s)  120
Dir.              6
Scale Factor      7845(gal)/8223790
Max. Acc. (gal)   35.611
Last Correction   2021/08/14 22:38:09
Memo.             
[...]
    7192     7188     7188     7190     7190     7187     7190     7192 
    7191     7190     7190     7188     7188     7191     7194     7191 
    7190     7190     7191     7192     7192     7190     7192     7192 
    7190     7190     7192     7191     7190     7191     7191     7192 
    7194     7190     7190     7194     7194     7191     7190     7188 
    7190     7190     7190     7188     7190     7192     7191     7190 
    7191     7188     7187     7190     7190     7187     7190     7190 
    7187     7190     7190     7188     7188     7191     7192     7188 
    7190     7191     7190     7188     7187     7188     7191     7190 
    7191     7191     7190     7191     7191     7190     7188     7191 
    7192     7191     7190     7190     7191     7191     7192     7192 
    7190     7190     7192     7192     7191     7190     7190     7190 
    7188     7187     7191     7191     7187     7186     7190     7191 
    7188     7187     7192     7191     7186     7188     7188     7187 
    7188     7190     7191     7191     7188     7188     7188     7191 
    7191     7188     7190     7190     7188     7190     7190     7187 
    7188     7192     7190     7187     7191     7191     7188     7190 
    7188     7190     7192     7191     7190     7192     7191     7190 
    7192     7188     7187     7191     7190     7188     7187     7188 
    7191     7190     7188     7191     7191     7190     7190     7191 
    7190     7191     7192     7192     7191     7188     7190     7191 
    7190     7191     7192     7192     7191     7192     7194     7191 
    7191     7190     7188     7190     7190     7190     7191     7191 
    7191     7190     7190     7192     7191     7190     7191     7191 
    7190     7190     7191     7190     7187     7188     7190     7188 
    7188     7190     7190     7188     7188     7191     7192     7188 
    7188     7190     7191     7190     7188     7188     7191     7190 
    7190     7191     7190     7190     7190     7188     7188     7191 
    7191     7188     7188     7190     7190     7190     7191     7191 
    7191     7191     7188     7188     7190     7191     7191     7188 
    7190     7192     7190     7190     7194     7190     7188     7190 
    7191     7188     7188     7192     7194     7191     7188     7191 
    7192     7190     7191     7191     7190     7191     7191     7191 
    7191     7190     7191     7188     7187     7188     7190     7194 
    7190     7188     7194     7191     7187     7190     7192     7192 
    7190     7191     7190     7191     7192     7188     7190     7192 
    7190     7190     7188     7187     7188     7191     7191     7191 
    7192     7192     7190     7190     7192     7192     7190     7190 
    7188     7190     7194     7191     7187     7188     7187     7188 
    7191     7190     7191     7188     7184     7188     7192     7190 
    7190     7190     7190     7188     7190     7190     7190     7188 
    7190     7192     7191     7188     7191     7191     7190     7191 
    7190     7188     7192     7191     7190     7190     7186     7187 
    7190     7190     7190     7188     7187     7188     7191     7190 
    7188     7191     7191     7190     7191     7191     7188     7187 
    7188     7190     7191     7191     7190     7190     7192     7192 
    7188     7188     7190     7188     7187     7188     7188     7187 
    7187     7188     7190     7188     7188     7190     7190     7188 
    7190     7190     7187     7188     7191     7190     7190     7188 
    7188     7188     7188     7191     7190     7188     7191     7191 
    7188     7188     7190     7188     7188     7190     7190     7188 
    7191     7191     7191     7191     7188     7187     7190     7190 
    7190     7192     7192     7188     7187     7188     7190     7191 
    7191     7191     7191     7190     7190     7190     7190     7191 
    7192     7190     7188     7190     7191     7191     7192     7190 
    7188     7191     7190     7190     7192     7191     7188     7190 
    7191     7190     7188     7188     7191     7192     7191     7188 
    7188     7190     7187     7187     7192     7190     7186     7187 
    7191     7191     7190     7188     7187     7187     7191     7192 
    7190     7190     7191     7188     7188     7191     7190     7190 
    7188     7188     7194     7195     7191     7188     7190     7190 
    7188     7188     7190     7190     7188     7188     7190     7191 
    7191     7191     7190     7190     7187     7187     7190     7194 
    7191     7191     7192     7191     7191     7191     7192     7191 
    7187     7190     7191     7190     7190     7188     7187     7188 
    7190     7191     7190     7191     7194     7190     7187     7190 
    7190     7190     7191     7191     7190     7187     7186     7188 
    7192     7191     7188     7187     7188     7188     7190     7191 
    7191     7190     7191     7192     7191     7191     7192     7188 
    7187     7191     7192     7190     7188     7188     7190     7191 
    7188     7187     7188     7191     7191     7191     7194     7192 
    7187     7188     7191     7191     7192     7191     7188     7191 
    7191     7188     7188     7187     7186     7188     7190     7190 
    7190     7191     7190     7188     7191     7192     7191     7190 
    7192     7191     7190     7190     7190     7190     7191     7192 
    7192     7191     7192     7192     7192     7190     7188     7190 
    7192     7194     7190     7188     7191     7190     7191     7191 
    7188     7190     7188     7186     7191     7191     7188     7191 
    7191     7190     7190     7190     7188     7190     7191     7190 
    7190     7188     7186     7191     7192     7190     7190     7190 
    7190     7190     7190     7191     7188     7190     7192     7190 
    7188     7188     7190     7192     7190     7190     7192     7192 
    7192     7191     7191     7191     7191     7191     7190     7187 
    7188     7191     7190     7190     7187     7187     7190     7191 
    7190     7188     7190     7194     7191     7188     7188     7188 
    7190     7191     7190     7190     7190     7191     7191     7188 
    7188     7190     7188     7190     7192     7191     7187     7188 
    7191     7190     7188     7190     7190     7188     7190     7190 
    7191     7190     7188     7188     7188     7188     7188     7188 
    7187     7188     7192     7192     7188     7187     7190     7190 
    7186     7188     7190     7190     7191     7190     7188     7190 
    7191     7192     7191     7190     7190     7187     7187     7190 
    7191     7190     7190     7191     7191     7191     7188     7187 
    7188     7188     7191     7194     7188     7188     7190     7187 
    7191     7191     7188     7187     7188     7190     7188     7190 
    7190     7186     7187     7188     7188     7190     7187     7186 
    7190     7188     7184     7187     7187     7188     7190     7188 
    7188     7191     7192     7190     7187     7190     7188     7188 
    7191     7192     7187     7184     7188     7191     7191     7191 
    7191     7190     7186     7188     7194     7191     7188     7188 
    7188     7190     7188     7190     7187     7187     7188     7187 
    7190     7190     7190     7190     7187     7186     7187     7186 
    7187     7191     7191     7188     7190     7190     7188     7188 
    7191     7190     7187     7190     7194     7191     7190     7192 
    7194     7194     7191     7191     7192     7191     7191     7188 
    7188     7190     7188     7188     7191     7192     7190     7190 
    7192     7191     7188     7190     7191     7190     7188     7190 
    7191     7191     7188     7191     7192     7188     7190     7191 
    7190     7190     7191     7192     7192     7188     7188     7188 
    7188     7190     7190     7190     7188     7188     7190     7191 
    7192     7188     7188     7191     7190     7190     7187     7187 
    7188     7190     7191     7187     7186     7191     7191     7190 
    7190     7190     7188     7188     7191     7190     7187     7190 
    7191     7191     7190     7186     7187     7194     7191     7188 
    7190     7191     7188     7187     7190     7190     7188     7190 
    7190     7187     7190     7190     7188     7190     7192     7190 
    7187     7186     7188     7191     7191     7190     7191     7190 
    7187     7188     7190     7188     7187     7188     7190     7190 
    7191     7192     7190     7190     7191     7187     7187     7190 
    7187     7190     7190     7187     7190     7190     7187     7188 
    7192     7191     7190     7188     7186     7187     7190     7188 
    7187     7188     7187     7188     7191     7190     7187     7188 
    7188     7188     7190     7190     7190     7191     7188     7187 
    7191     7188     7184     7187     7187     7187     7188     7188 
    7188     7188     7188     7188     7186     7187     7191     7191 
    7190     7190     7188     7188     7190     7191     7191     7188 
    7188     7190     7188     7188     7190     7190     7188     7187 
    7188     7190     7190     7187     7187     7190     7191     7190 
    7190     7191     7190     7187     7187     7187     7187     7188 
    7190     7188     7190     7190     7188     7186     7187     7188 
    7188     7187     7188     7190     7190     7186     7184     7188 
    7190     7190     7187     7188     7191     7187     7186     7190 
    7190     7186     7188     7191     7190     7188     7190     7187 
    7187     7190     7191     7190     7190     7190     7190     7188 
    7186     7187     7188     7187     7187     7188     7188     7187 
    7188     7188     7191     7191     7187     7187     7188     7187 
    7188     7190     7190     7187     7187     7191     7190     7186 
    7190     7190     7187     7187     7187     7187     7187     7188 
    7190     7188     7188     7190     7191     7190     7188     7191 
    7190     7188     7188     7187     7188     7188     7188     7190 
    7188     7186     7186     7187     7187     7190     7190     7188 
    7187     7187     7188     7192     7192     7188     7186     7184 
    7188     7190     7187     7188     7190     7188     7187     7187 
    7188     7188     7187     7187     7190     7190     7186     7187 
    7188     7186     7186     7188     7188     7188     7191     7191 
    7188     7187     7187     7190     7194     7190     7188     7190 
    7190     7187     7187     7187     7188     7187     7188     7190 
    7190     7187     7184     7187     7191     7187     7184     7187 
    7188     7186     7188     7188     7187     7186     7186     7184 
    7186     7188     7186     7184     7187     7184     7184     7188 
    7188     7188     7188     7188     7188     7187     7190     7192 
    7188     7187     7187     7188     7188     7188     7191     7188 
    7188     7190     7191     7191     7188     7190     7190     7187 
    7188     7191     7190     7188     7190     7191     7187     7186 
    7187     7188     7191     7190     7188     7187     7186     7188 
    7190     7191     7191     7187     7188     7190     7188     7190 
    7188     7187     7187     7190     7190     7187     7191     7192 
    7188     7191     7190     7186     7187     7187     7188     7190 
    7188     7186     7186     7190     7191     7187     7186     7188 
    7190     7187     7188     7188     7184     7188     7191     7188 
    7188     7188     7184     7187     7190     7188     7187     7188 
    7187     7186     7187     7191     7188     7184     7188     7191 
    7190     7191     7188     7186     7188     7187     7188     7188 
    7187     7190     7192     7188     7188     7190     7188     7190 
    7188     7184     7188     7192     7191     7188     7188     7188 
    7187     7187     7190     7188     7187     7188     7190     7190 
    7190     7188     7186     7186     7187     7190     7188     7187 
    7187     7188     7190     7190     7191     7191     7186     7186 
    7190     7190     7188     7188     7187     7188     7190     7188 
    7190     7191     7190     7192     7195     7190     7186     7188 
    7190     7188     7190     7190     7187     7188     7187     7187 
    7188     7190     7190     7187     7190     7192     7186     7186 
    7191     7190     7187     7187     7187     7190     7191     7190 
    7188     7188     7190     7188     7187     7190     7190     7187 
    7188     7190     7188     7187     7188     7191     7191     7191 
    7187     7186     7188     7188     7187     7188     7190     7187 
    7186     7190     7190     7187     7187     7187     7188     7190 
    7190     7190     7187     7187     7190     7190     7187     7187 
    7187     7188     7188     7188     7191     7190     7187     7191 
    7188     7183     7187     7187     7186     7191     7190     7184 
    7188     7191     7188     7187     7188     7188     7187     7187 
    7190     7187     7184     7188     7187     7187     7190     7191 
    7187     7184     7188     7191     7190     7187     7187     7188 
    7190     7187     7187     7188     7187     7188     7190     7188 
    7188     7187     7186     7188     7190     7190     7198     7241 
    7434     8239    10816    16239    22370    22165    10238    -6856 
  -14872   -12039   -12255   -17671    -8291    22260    44520    35781 
   19230    17626     6949   -20321   -22198     1706     9949     9792 
   20621    22108    10380     7608     8750     1329      128     8887 
   10443     4838     1513      564     3194     9256    14065    16659 
   15876     9128     1179     -144     3910     7489     9197     8247 
    4274     2382     7474    14202    12540     4864     2925     7673 
   10031     7796     5449     4329     3861     5695    10139    12857 
   10987     7884     5726     3177     2548     6107     9549     9300 
    8257     8689     8757     7850     7383     7713     6731     2540 
    -742     1871     6948     9821    12267    14778    13354     8414 
    5354     4553     2747     2351     6423    10959    11759     9421 
    5910     3991     4939     6304     6409     5633     5595     7916 
   10237    10756    11241    10903     7982     3094    -2652    -5661 
    -746     9903    16968    17305    15971    15178    12981     8502 
    2890     -730    -2026    -3978    -3717     3415    14034    19774 
   16143    10211    10372    11317     6709     1644     1636     4388 
    4807     2529     2251     6689    11967    12972    11492    10748 
    9580     8712     9154     7867     4819     4251     4837     2010 
     147     5020    10890    11572    10212     9822    10272    10862 
    9621     7680     6191     2166    -3836    -5702     1513    13954 
   20775    17005     8883     6895     9487     2774   -10058   -11419 
   -2010     8262    19064    28984    32233    27151    17091     2905 
  -15743   -27409   -19421     2107    20717    26400    23125    19685 
   13836     2074    -8035    -9305    -4765     -159     6138    15793 
   22557    21427    13587     4399      213     1825     5868     8267 
    6814     7049    13446    18034    12688     3029     -417     2193 
    3183     2062     5632    13855    15390     5818    -2497    -1802 
    2891     8874    14226    15592    16734    20150    19201    10921 
    1730    -3257    -3747      438     6254     6706      554    -5567 
   -5347     1034     8851    15870    21361    22060    17084    11122 
    8199     5724      808    -1717     1844     6809     9447    11628 
   13674    12789    10235     9468     8930     6764     4178     1019 
   -2952    -4928    -2123     2955     5316     5562     7709    11269 
   11909     8302     3816      799     -649     1378     7994    14855 
   17038    16316    16636    16538    13215     8355     5626     6034 
    7716     8807     8839     8796     9549    10115     8548     3615 
   -1718    -2749    -1552    -2000    -1405     3596    10829    14893 
   13914    12033    11828    10986     9477    10351    12231    11770 
    9979     7684     4027      988     1449     4374     5123     2947 
    2547     4585     5930     6956     8595     9486     9058     8145 
    8148     9413     9842     9136    10335    12536    11483     8553 
    7572     7009     4753     2509     1362     1138     2521     4560 
    4807     3616     3103     3616     5239     8644    13155    16860 
   17722    15242    10839     6714     5443     6763     7483     7079 
    7091     7528     8001     7913     6540     5794     7663     8683 
    5115      503     -384     1188     2797     4567     6029     6975 
    8209     8738     7971     7692     8236     8118     7747     8461 
    9861    11238    12468    12920    12140    10578     8850     7137 
    5317     4062     4756     6664     7074     5420     3441     2344 
    2423     3330     4374     5414     7342    10450    12522    11920 
   10507     9756     8765     7766     7659     7511     6606     5521 
    4510     3500     2758     3264     5547     7948     8368     7222 
    6822     7919     8876     9080     9509    10045     9690     8336 
    6957     6964     8976    11030     9757     5495     2413     2686 
    5094     7719     9543    10656    10686     8698     5908     5080 
    6566     8035     8178     7750     6675     4626     3338     3424 
    3285     3495     5516     7796     8322     7107     5225     4116 
    4163     4760     6284     8722    10382    10008     8222     7182 
    8175     9934    10887    10748     9984     9632    10061    10470 
   10291     9047     6835     5337     4943     4106     3464     4737 
    6828     7743     7177     5579     3954     4232     7018     9833 
   10276     9247     8468     7902     7778     8991    10512    10561 
    9315     7828     6439     5186     4194     3649     3680     4117 
    4696     5011     4891     5468     7330     8981     9468     9066 
    7983     6639     5517     5293     6724     8937     9809     8860 
    7551     6917     6528     5884     5557     5663     5674     6353 
    7966     9005     8777     7885     7211     7447     7767     7231 
    6864     6918     6207     5607     6517     7533     7377     7136 
    7204     7126     7466     8201     8604     8580     8186     7944 
    8374     8899     9296     9895     9886     8554     7186     7261 
    7973     7568     6411     6131     6709     7165     7597     8586 
    9478     9181     8220     7403     6475     5638     5387     5313 
    5005     4985     5335     5111     4529     4500     4230     3069 
    2336     3200     5042     6461     7168     7717     7921     7565 
    7237     7510     8464     9444     9925    10207    10126     9358 
    8294     7387     7549     8915     9580     8847     7952     7268 
    6481     5983     6320     7071     7750     8556     8892     8060 
    6714     5796     5976     7219     8055     7580     6712     5972 
    5350     5645     6708     7303     7264     6840     6133     5983 
    6767     7690     8175     8105     7669     7604     8163     8629 
    8448     7803     7361     7507     7560     7011     7090     8575 
