Origin Time       2021/08/14 22:38:00
Lat.              37.5
Long.             137.2
Depth. (km)       10
Mag.              4.1
Station Code      NIG004
Station Lat.      37.8205
Station Long.     138.2795
Station Height(m) 40
Record Time       2021/08/14 22:38:37
Sampling Freq(Hz) 100Hz
Duration Time(s)  60
Dir.              E-W
Scale Factor      7845(gal)/8223790
Max. Acc. (gal)   1.782
Last Correction   2021/08/14 22:38:37
Memo.             
[...]
  -13659   -13672   -13672   -13664   -13676   -13680   -13666   -13663 
  -13676   -13671   -13655   -13663   -13674   -13671   -13671   -13672 
  -13672   -13662   -13657   -13672   -13679   -13663   -13660   -13680 
  -13679   -13660   -13666   -13671   -13659   -13664   -13683   -13672 
  -13657   -13671   -13676   -13668   -13670   -13668   -13667   -13672 
  -13671   -13666   -13668   -13668   -13664   -13671   -13675   -13667 
  -13668   -13674   -13663   -13659   -13679   -13679   -13657   -13664 
  -13683   -13671   -13662   -13674   -13671   -13657   -13670   -13680 
  -13666   -13663   -13671   -13664   -13662   -13676   -13679   -13668 
  -13662   -13663   -13672   -13682   -13670   -13656   -13668   -13680 
  -13670   -13662   -13666   -13672   -13675   -13672   -13667   -13670 
  -13675   -13667   -13663   -13667   -13668   -13672   -13679   -13674 
  -13662   -13663   -13670   -13666   -13667   -13674   -13671   -13675 
  -13676   -13659   -13662   -13686   -13674   -13653   -13671   -13676 
  -13657   -13660   -13682   -13680   -13667   -13668   -13666   -13657 
  -13668   -13678   -13668   -13666   -13667   -13668   -13679   -13675 
  -13655   -13663   -13683   -13678   -13668   -13679   -13687   -13683 
  -13684   -13686   -13693   -13720   -13730   -13717   -13720   -13720 
  -13667   -13595   -13532   -13460   -13410   -13417   -13479   -13598 
  -13751   -13879   -13933   -13891   -13761   -13630   -13594   -13630 
  -13701   -13813   -13902   -13880   -13807   -13763   -13726   -13672 
  -13581   -13432   -13311   -13286   -13344   -13495   -13698   -13802 
  -13779   -13752   -13779   -13836   -13950   -14085   -14068   -13788 
  -13320   -12880   -12731   -12955   -13412   -13911   -14304   -14497 
  -14513   -14462   -14358   -14030   -13389   -12702   -12371   -12540 
  -13086   -13753   -14273   -14521   -14513   -14305   -13984   -13641 
  -13327   -13022   -12776   -12731   -12927   -13309   -13833   -14359 
  -14663   -14662   -14451   -14154   -13853   -13602   -13412   -13200 
  -12957   -12910   -13174   -13512   -13768   -14034   -14261   -14235 
  -13933   -13571   -13377   -13369   -13382   -13319   -13327   -13490 
  -13625   -13732   -13976   -14197   -14180   -14069   -14000   -13841 
  -13549   -13305   -13250   -13296   -13347   -13487   -13733   -13925 
  -13963   -13899   -13844   -13817   -13775   -13730   -13632   -13439 
  -13258   -13169   -13204   -13363   -13545   -13693   -13856   -14029 
  -14139   -14161   -14096   -13944   -13730   -13510   -13302   -13147 
  -13169   -13413   -13799   -14181   -14376   -14328   -14096   -13734 
  -13377   -13149   -13042   -13057   -13217   -13432   -13581   -13678 
  -13786   -13880   -13906   -13846   -13697   -13572   -13630   -13819 
  -13995   -14076   -14035   -13886   -13734   -13693   -13720   -13667 
  -13521   -13389   -13296   -13189   -13166   -13401   -13772   -13987 
  -14019   -13971   -13849   -13687   -13510   -13338   -13262   -13335 
  -13521   -13786   -13992   -14040   -14067   -14141   -14087   -13861 
  -13648   -13475   -13254   -13090   -13135   -13319   -13516   -13759 
  -14076   -14284   -14211   -13965   -13699   -13467   -13323   -13282 
  -13338   -13500   -13684   -13772   -13770   -13733   -13720   -13783 
  -13868   -13859   -13717   -13554   -13491   -13520   -13587   -13657 
  -13668   -13635   -13649   -13706   -13760   -13872   -14008   -13967 
  -13687   -13390   -13320   -13410   -13423   -13382   -13464   -13609 
  -13711   -13857   -14052   -14115   -13998   -13837   -13701   -13597 
  -13522   -13478   -13535   -13667   -13729   -13747   -13797   -13764 
  -13643   -13566   -13482   -13355   -13340   -13419   -13467   -13575 
  -13774   -13938   -14038   -14084   -14044   -13927   -13790   -13664 
  -13525   -13397   -13333   -13323   -13382   -13590   -13876   -14054 
  -14029   -13848   -13628   -13502   -13497   -13516   -13545   -13594 
  -13616   -13662   -13763   -13826   -13832   -13775   -13651   -13554 
  -13552   -13599   -13641   -13672   -13695   -13710   -13747   -13791 
  -13794   -13755   -13684   -13594   -13539   -13524   -13522   -13564 
  -13670   -13767   -13776   -13724   -13680   -13678   -13697   -13649 
  -13510   -13398   -13406   -13501   -13648   -13822   -13968   -14045 
  -14029   -13930   -13842   -13784   -13687   -13539   -13413   -13367 
  -13398   -13485   -13603   -13722   -13798   -13801   -13761   -13702 
  -13581   -13451   -13458   -13594   -13736   -13838   -13886   -13832 
  -13697   -13583   -13582   -13680   -13768   -13770   -13709   -13672 
  -13693   -13683   -13601   -13497   -13444   -13467   -13551   -13703 
  -13905   -14014   -13949   -13815   -13711   -13635   -13575   -13529 
  -13501   -13475   -13424   -13402   -13513   -13728   -13899   -13921 
  -13832   -13747   -13706   -13697   -13726   -13784   -13803   -13728 
  -13560   -13410   -13432   -13614   -13768   -13838   -13899   -13891 
  -13753   -13586   -13481   -13420   -13408   -13502   -13622   -13620 
  -13571   -13639   -13782   -13860   -13855   -13822   -13782   -13713 
  -13643   -13652   -13703   -13714   -13707   -13722   -13724   -13689 
  -13633   -13602   -13591   -13522   -13427   -13455   -13583   -13636 
  -13576   -13512   -13512   -13590   -13768   -14008   -14208   -14284 
  -14172   -13878   -13578   -13443   -13408   -13393   -13446   -13563 
  -13672   -13744   -13770   -13710   -13564   -13392   -13267   -13231 
  -13277   -13424   -13686   -13946   -14106   -14191   -14234   -14203 
  -14062   -13865   -13666   -13478   -13321   -13223   -13224   -13354 
  -13548   -13671   -13671   -13649   -13691   -13760   -13806   -13836 
  -13867   -13828   -13670   -13487   -13402   -13474   -13664   -13851 
  -13965   -14030   -14017   -13909   -13764   -13605   -13404   -13173 
  -13050   -13154   -13412   -13679   -13863   -13950   -13968   -13919 
  -13856   -13838   -13826   -13765   -13691   -13649   -13629   -13608 
  -13563   -13531   -13563   -13614   -13593   -13516   -13458   -13460 
  -13554   -13707   -13838   -13934   -13984   -13927   -13794   -13694 
  -13651   -13610   -13589   -13649   -13749   -13790   -13782   -13755 
  -13666   -13521   -13389   -13308   -13317   -13452   -13639   -13743 
  -13755   -13756   -13787   -13849   -13921   -13936   -13840   -13679 
  -13533   -13455   -13490   -13639   -13813   -13886   -13802   -13641 
  -13529   -13533   -13636   -13753   -13802   -13767   -13674   -13576 
  -13545   -13576   -13582   -13520   -13463   -13495   -13568   -13641 
  -13748   -13826   -13824   -13832   -13891   -13930   -13887   -13729 
  -13512   -13371   -13408   -13597   -13783   -13845   -13825   -13776 
  -13726   -13702   -13691   -13675   -13633   -13578   -13545   -13489 
  -13394   -13340   -13371   -13485   -13667   -13876   -14000   -13979 
  -13913   -13876   -13776   -13593   -13487   -13551   -13699   -13802 
  -13824   -13865   -13975   -14031   -13941   -13741   -13502   -13274 
  -13123   -13097   -13171   -13296   -13444   -13609   -13802   -13977 
  -14035   -13988   -13911   -13803   -13652   -13498   -13419   -13479 
  -13687   -13984   -14239   -14293   -14110   -13809   -13540   -13352 
  -13213   -13159   -13238   -13374   -13531   -13716   -13853   -13892 
  -13840   -13743   -13686   -13679   -13675   -13663   -13630   -13541 
  -13462   -13514   -13655   -13738   -13764   -13799   -13848   -13883 
  -13875   -13811   -13741   -13698   -13659   -13628   -13595   -13560 
  -13543   -13506   -13455   -13475   -13567   -13670   -13779   -13871 
  -13844   -13697   -13609   -13667   -13726   -13664   -13544   -13463 
  -13468   -13591   -13819   -14038   -14087   -13922   -13676   -13512 
  -13486   -13531   -13549   -13540   -13587   -13702   -13792   -13810 
  -13759   -13679   -13644   -13672   -13705   -13689   -13635   -13586 
  -13547   -13477   -13402   -13443   -13629   -13815   -13872   -13833 
  -13791   -13772   -13770   -13801   -13842   -13809   -13689   -13589 
  -13562   -13578   -13628   -13683   -13699   -13686   -13682   -13683 
  -13657   -13590   -13522   -13481   -13451   -13455   -13514   -13605 
  -13703   -13784   -13849   -13899   -13884   -13822   -13764   -13693 
  -13651   -13714   -13778   -13730   -13622   -13528   -13500   -13601 
  -13772   -13844   -13783   -13693   -13594   -13462   -13356   -13374 
  -13505   -13630   -13705   -13797   -13940   -14021   -13934   -13748 
  -13613   -13587   -13636   -13671   -13620   -13514   -13458   -13491 
  -13603   -13752   -13833   -13779   -13668   -13633   -13682   -13734 
  -13757   -13744   -13674   -13586   -13568   -13616   -13663   -13698 
  -13714   -13711   -13728   -13734   -13721   -13728   -13716   -13628 
  -13543   -13543   -13602   -13647   -13643   -13603   -13552   -13558 
  -13671   -13802   -13857   -13832   -13771   -13749   -13799   -13822 
  -13740   -13610   -13508   -13436   -13410   -13444   -13508   -13571 
  -13621   -13678   -13798   -13969   -14054   -13972   -13846   -13767 
  -13663   -13513   -13387   -13323   -13342   -13459   -13645   -13818 
  -13891   -13880   -13856   -13809   -13717   -13624   -13591   -13591 
  -13545   -13497   -13533   -13606   -13678   -13775   -13867   -13915 
  -13890   -13764   -13605   -13514   -13513   -13533   -13531   -13568 
  -13653   -13711   -13744   -13743   -13683   -13653   -13710   -13772 
  -13813   -13830   -13778   -13671   -13562   -13485   -13450   -13435 
  -13475   -13597   -13744   -13890   -13981   -13925   -13780   -13699 
  -13655   -13576   -13533   -13563   -13585   -13585   -13639   -13732 
  -13753   -13684   -13614   -13601   -13630   -13680   -13722   -13707 
  -13613   -13500   -13475   -13562   -13664   -13736   -13791   -13853 
  -13927   -13973   -13932   -13802   -13641   -13494   -13385   -13352 
  -13431   -13591   -13745   -13821   -13833   -13818   -13753   -13626 
  -13516   -13470   -13479   -13574   -13728   -13815   -13790   -13760 
  -13772   -13756   -13689   -13613   -13564   -13559   -13601   -13668 
  -13740   -13786   -13782   -13736   -13671   -13630   -13632   -13637 
  -13636   -13621   -13572   -13552   -13630   -13744   -13765   -13693 
  -13626   -13616   -13671   -13782   -13879   -13861   -13707   -13518 
  -13440   -13502   -13590   -13633   -13683   -13711   -13698   -13737 
  -13806   -13775   -13664   -13591   -13595   -13656   -13759   -13853 
  -13865   -13772   -13621   -13451   -13336   -13369   -13514   -13670 
  -13783   -13846   -13844   -13798   -13767   -13740   -13674   -13599 
  -13563   -13544   -13544   -13603   -13714   -13797   -13822   -13830 
  -13821   -13763   -13675   -13570   -13458   -13402   -13433   -13494 
  -13570   -13701   -13869   -14021   -14068   -13933   -13718   -13548 
  -13413   -13352   -13439   -13609   -13718   -13748   -13784   -13821 
  -13815   -13779   -13724   -13649   -13578   -13508   -13447   -13444 
  -13514   -13636   -13752   -13801   -13814   -13828   -13815   -13795 
  -13770   -13716   -13637   -13555   -13524   -13558   -13612   -13703 
  -13802   -13805   -13726   -13601   -13473   -13490   -13637   -13732 
  -13705   -13622   -13581   -13629   -13707   -13755   -13791   -13821 
  -13791   -13720   -13680   -13644   -13581   -13571   -13612   -13613 
  -13618   -13683   -13764   -13798   -13757   -13664   -13599   -13599 
  -13589   -13536   -13531   -13593   -13656   -13706   -13764   -13783 
  -13747   -13747   -13799   -13795   -13714   -13649   -13621   -13560 
  -13532   -13635   -13780   -13832   -13775   -13674   -13576   -13522 
  -13543   -13612   -13644   -13601   -13547   -13555   -13606   -13671 
  -13780   -13898   -13896   -13797   -13747   -13752   -13707   -13598 
  -13532   -13559   -13618   -13671   -13703   -13672   -13593   -13560 
  -13589   -13629   -13679   -13713   -13703   -13711   -13743   -13737 
  -13701   -13668   -13640   -13643   -13662   -13639   -13605   -13603 
  -13614   -13657   -13751   -13799   -13756   -13699   -13657   -13610 
  -13585   -13606   -13668   -13752   -13841   -13888   -13855   -13759 
  -13675   -13595   -13460   -13343   -13347   -13428   -13494   -13548 
  -13649   -13775   -13878   -13965   -13954   -13801   -13653   -13609 
  -13643   -13725   -13782   -13774   -13774   -13798   -13786   -13725 
  -13632   -13504   -13369   -13300   -13339   -13459   -13614   -13738 
  -13797   -13832   -13837   -13779   -13743   -13768   -13756   -13744 
  -13840   -13988   -14062   -13977   -13741   -13470   -13261   -13159 
  -13212   -13358   -13443   -13452   -13474   -13512   -13574   -13714 
  -13894   -13999   -14008   -13995   -13990   -13980   -13950   -13913 
  -13863   -13732   -13502   -13321   -13290   -13347   -13439   -13533 
  -13572   -13518   -13367   -13149   -12938   -12843   -12934   -13171 
  -13514   -13964   -14434   -14764   -14956   -15037   -14895   -14511 
  -14040   -13572   -13165   -12955   -13001   -13188   -13382   -13548 
  -13756   -14015   -14142   -13981   -13581   -13101   -12793   -12912 
  -13467   -14106   -14396   -14264   -14053   -14044   -14065   -13783 
  -13205   -12658   -12487   -12876   -13701   -14511   -14781   -14351 
  -13598   -13042   -12939   -13219   -13555   -13667   -13597   -13576 
  -13730   -13961   -14094   -14014   -13709   -13308   -12997   -12968 
  -13390   -14172   -14841   -14959   -14496   -13774   -13185   -12955 
  -13077   -13396   -13721   -13942   -14062   -14135   -14152   -14041 
  -13786   -13396   -12960   -12706   -12772   -13065   -13409   -13648 
  -13625   -13308   -12991   -13147   -13950   -14993   -15538   -15155 
  -14087   -12935   -12197   -12136   -12711   -13594   -14378   -14782 
  -14742   -14473   -14276   -14202   -14092   -13852   -13571   -13414 
  -13386   -13328   -13101   -12758   -12588   -12785   -13173   -13549 
  -13965   -14378   -14463   -14085   -13560   -13212   -13115   -13278 
  -13643   -14025   -14258   -14322   -14268   -14142   -14008   -13932 
  -13845   -13657   -13500   -13544   -13675   -13621   -13359   -13157 
  -13189   -13327   -13355   -13219   -13026   -12926   -13053   -13477 
  -14085   -14625   -14902   -14840   -14408   -13757   -13223   -12987 
  -12996   -13157   -13333   -13433   -13594   -13938   -14345   -14635 
  -14712   -14476   -13875   -13135   -12694   -12750   -13213   -13914 
  -14530   -14674   -14280   -13609   -12989   -12638   -12596   -12730 
  -12883   -13054   -13323   -13710   -14143   -14404   -14332   -14084 
  -13883   -13810   -13887   -14089   -14243   -14143   -13822   -13520 
  -13429   -13605   -13915   -14091   -13983   -13697   -13392   -13194 
  -13196   -13304   -13270   -13035   -12835   -12888   -13182   -13551 
  -13814   -13927   -14000   -14164   -14438   -14694   -14752   -14542 
  -14185   -13856   -13566   -13255   -12988   -12846   -12857   -13063 
  -13392   -13697   -13944   -14080   -14065   -13987   -13884   -13728 
  -13537   -13413   -13455   -13602   -13670   -13558   -13273   -12926 
  -12729   -12891   -13402   -14042   -14602   -14906   -14756   -14277 
  -13880   -13697   -13591   -13566   -13705   -13967   -14230   -14354 
  -14193   -13686   -12977   -12380   -12143   -12295   -12696   -13153 
  -13535   -13853   -14142   -14312   -14272   -14104   -13964   -13934 
  -14000   -14108   -14249   -14377   -14346   -14130   -13887   -13640 
  -13239   -12760   -12467   -12425   -12613   -13068   -13586   -13884 
  -14017   -14114   -14154   -14108   -13983   -13855   -13780   -13711 
  -13626   -13535   -13502   -13670   -14004   -14243   -14212   -13975 
  -13674   -13423   -13279   -13238   -13258   -13306   -13342   -13398 
  -13564   -13774   -13832   -13686   -13524   -13571   -13818   -13998 
  -13913   -13657   -13466   -13477   -13682   -13991   -14229   -14230 
  -14030   -13813   -13671   -13601   -13597   -13594   -13540   -13506 
  -13551   -13626   -13689   -13672   -13489   -13223   -13057   -13046 
  -13143   -13325   -13559   -13791   -14029   -14296   -14521   -14578 
  -14380   -13965   -13537   -13289   -13244   -13321   -13462   -13643 
  -13807   -13856   -13821   -13863   -13967   -13953   -13774   -13479 
  -13139   -12896   -12884   -13105   -13436   -13710   -13825   -13806 
  -13751   -13747   -13803   -13864   -13879   -13879   -13938   -14050 
  -14129   -14111   -14022   -13921   -13741   -13437   -13171   -13068 
  -13041   -13049   -13171   -13362   -13510   -13668   -13910   -14139 
  -14239   -14218   -14091   -13836   -13506   -13250   -13246   -13528 
  -13892   -14104   -14096   -13926   -13707   -13533   -13401   -13327 
  -13358   -13436   -13491   -13587   -13801   -13994   -14002   -13868 
  -13662   -13429   -13317   -13390   -13536   -13632   -13684   -13763 
  -13872   -13957   -13983   -13946   -13853   -13705   -13513   -13339 
  -13263   -13296   -13378   -13456   -13549   -13687   -13836   -13983 
  -14122   -14165   -14071   -13888   -13703   -13610   -13598   -13543 
  -13433   -13378   -13424   -13524   -13620   -13697   -13728   -13667 
  -13582   -13579   -13648   -13734   -13819   -13848   -13756   -13633 
  -13609   -13666   -13709   -13701   -13649   -13582   -13556   -13586 
  -13612   -13613   -13644   -13710   -13717   -13643   -13597   -13630 
  -13706   -13768   -13779   -13783   -13810   -13755   -13593   -13487 
  -13540   -13672   -13792   -13852   -13824   -13737   -13664   -13609 
  -13559   -13564   -13626   -13671   -13689   -13691   -13652   -13620 
  -13639   -13641   -13610   -13618   -13691   -13790   -13872   -13861 
  -13699   -13470   -13321   -13329   -13439   -13552   -13655   -13760 
  -13880   -14013   -14061   -13971   -13837   -13741   -13671   -13606 
  -13583   -13622   -13683   -13747   -13798   -13768   -13667   -13576 
  -13485   -13405   -13406   -13444   -13444   -13419   -13413   -13471 
  -13621   -13832   -13986   -13967   -13801   -13644   -13628   -13760 
  -13926   -14003   -13944   -13790   -13624   -13510   -13479   -13529 
  -13626   -13729   -13768   -13690   -13563   -13458   -13352   -13265 
  -13290   -13460   -13706   -13919   -14069   -14184   -14235   -14181 
  -14013   -13741   -13443   -13235   -13196   -13335   -13552   -13711 
  -13774   -13806   -13814   -13726   -13585   -13501   -13475   -13463 
  -13500   -13558   -13558   -13572   -13656   -13737   -13799   -13861 
  -13869   -13829   -13844   -13917   -13954   -13934   -13879   -13794 
  -13713   -13670   -13625   -13543   -13462   -13423   -13441   -13479 
  -13459   -13360   -13252   -13171   -13154   -13297   -13637   -14037 
  -14318   -14428   -14388   -14195   -13895   -13603   -13408   -13347 
  -13431   -13599   -13765   -13860   -13875   -13833   -13776   -13730 
  -13674   -13599   -13541   -13483   -13408   -13356   -13354   -13366 
  -13385   -13466   -13630   -13797   -13900   -13927   -13836   -13651 
  -13497   -13464   -13575   -13794   -14010   -14126   -14126   -14044 
  -13933   -13851   -13833   -13817   -13703   -13513   -13320   -13176 
  -13131   -13184   -13292   -13414   -13508   -13575   -13643   -13732 
  -13855   -13937   -13910   -13848   -13824   -13818   -13822   -13848 
  -13859   -13814   -13760   -13743   -13720   -13655   -13593   -13566 
  -13576   -13601   -13605   -13578   -13512   -13401   -13298   -13285 
  -13386   -13560   -13729   -13863   -13991   -14068   -14023   -13910 
  -13817   -13765   -13734   -13702   -13668   -13644   -13620   -13614 
