Origin Time       2021/08/14 22:38:00
Lat.              37.5
Long.             137.2
Depth. (km)       10
Mag.              4.1
Station Code      NIG003
Station Lat.      37.9976
Station Long.     138.3226
Station Height(m) 4
Record Time       2021/08/14 22:38:40
Sampling Freq(Hz) 100Hz
Duration Time(s)  60
Dir.              U-D
Scale Factor      7845(gal)/8223790
Max. Acc. (gal)   1.237
Last Correction   2021/08/14 22:38:39
Memo.             
[...]
   13722    13680    13683    13644    13641    13791    13872    13784 
   13775    13729    13432    13315    13599    13803    13760    13676 
   13529    13468    13686    13760    13485    13402    13674    13836 
   13778    13714    13656    13630    13709    13716    13552    13493 
   13635    13684    13590    13605    13725    13809    13887    13863 
   13582    13320    13423    13675    13660    13433    13385    13593 
   13775    13805    13779    13744    13751    13810    13734    13520 
   13464    13610    13683    13652    13770    13988    13932    13591 
   13366    13397    13540    13689    13667    13421    13379    13733 
   13921    13618    13301    13344    13668    14027    14013    13597 
   13478    13863    14042    13753    13455    13410    13555    13755 
   13786    13570    13379    13481    13761    13911    13806    13617 
   13559    13606    13637    13649    13612    13514    13501    13614 
   13757    13802    13717    13738    13879    13716    13331    13311 
   13645    13838    13753    13581    13501    13628    13824    13784 
   13532    13433    13625    13828    13749    13456    13400    13748 
   14018    13941    13794    13616    13389    13443    13666    13616 
   13527    13691    13764    13620    13479    13356    13423    13872 
   14179    13879    13482    13462    13581    13664    13710    13603 
   13508    13682    13849    13729    13617    13668    13653    13595 
   13610    13572    13564    13722    13744    13543    13532    13724 
   13751    13666    13643    13582    13562    13747    13844    13645 
   13563    13714    13687    13536    13555    13589    13578    13687 
   13737    13587    13528    13671    13788    13821    13852    13817 
   13682    13585    13578    13567    13520    13513    13543    13545 
   13609    13741    13718    13586    13639    13837    13884    13670 
   13394    13362    13618    13891    13868    13510    13279    13639 
   14125    13998    13516    13315    13423    13667    13868    13755 
   13513    13605    13860    13842    13625    13446    13431    13663 
   13907    13783    13432    13332    13532    13705    13770    13802 
   13714    13562    13551    13597    13585    13660    13743    13648 
   13641    13824    13788    13567    13563    13667    13679    13718 
   13702    13562    13554    13682    13684    13579    13510    13559 
   13720    13805    13717    13595    13551    13586    13671    13737 
   13697    13591    13608    13683    13616    13544    13616    13670 
   13670    13728    13774    13707    13616    13622    13740    13851 
   13795    13578    13427    13512    13679    13683    13559    13540 
   13660    13730    13644    13514    13533    13690    13765    13717 
   13690    13683    13614    13548    13582    13671    13691    13672 
   13737    13801    13736    13653    13624    13554    13520    13629 
   13701    13675    13749    13794    13620    13479    13504    13547 
   13644    13747    13694    13648    13722    13724    13613    13521 
   13481    13547    13763    13899    13747    13545    13601    13744 
   13709    13590    13558    13637    13778    13809    13626    13456 
   13490    13574    13621    13693    13702    13614    13581    13649 
   13745    13776    13684    13616    13691    13684    13531    13551 
   13702    13703    13680    13726    13662    13547    13566    13663 
   13718    13722    13702    13659    13645    13753    13809    13579 
   13351    13456    13629    13644    13652    13625    13587    13734 
   13855    13689    13521    13591    13706    13721    13680    13610 
   13578    13667    13805    13810    13656    13514    13479    13493 
   13559    13699    13795    13770    13745    13771    13706    13591 
   13578    13571    13532    13571    13579    13528    13663    13873 
   13771    13520    13556    13784    13852    13713    13540    13528 
   13721    13837    13632    13350    13350    13589    13790    13772 
   13587    13490    13648    13876    13876    13703    13647    13724 
   13736    13614    13451    13409    13556    13741    13779    13678 
   13608    13674    13752    13698    13601    13549    13502    13508 
   13583    13622    13675    13809    13841    13728    13652    13599 
   13536    13630    13811    13786    13589    13502    13597    13716 
   13720    13620    13544    13578    13672    13716    13624    13541 
   13705    13913    13797    13512    13405    13520    13743    13872 
   13775    13622    13585    13599    13628    13683    13668    13548 
   13489    13532    13552    13597    13690    13713    13734    13833 
   13840    13701    13610    13617    13586    13500    13463    13468 
   13497    13645    13828    13805    13671    13707    13834    13779 
   13586    13525    13626    13679    13614    13543    13555    13697 
   13905    13925    13674    13482    13549    13649    13618    13489 
   13352    13413    13707    13940    13929    13765    13574    13524 
   13666    13756    13682    13601    13574    13587    13682    13737 
   13624    13554    13726    13864    13710    13514    13531    13643 
   13717    13738    13643    13479    13458    13582    13687    13718 
   13672    13617    13691    13768    13633    13531    13680    13783 
   13683    13614    13617    13602    13633    13678    13612    13554 
   13645    13744    13698    13608    13602    13645    13680    13711 
   13706    13645    13587    13583    13633    13721    13768    13714 
   13605    13522    13528    13632    13728    13699    13605    13594 
   13664    13693    13608    13501    13579    13813    13915    13783 
   13593    13497    13539    13687    13774    13668    13531    13556 
   13698    13807    13768    13590    13487    13602    13741    13695 
   13548    13471    13524    13662    13765    13779    13774    13744 
   13640    13582    13640    13666    13597    13529    13531    13589 
   13663    13725    13759    13734    13644    13543    13533    13655 
   13779    13755    13632    13564    13564    13617    13738    13775 
   13632    13566    13714    13786    13649    13548    13582    13644 
   13695    13690    13598    13583    13705    13755    13676    13632 
   13639    13618    13587    13567    13585    13660    13705    13660 
   13621    13674    13733    13689    13625    13682    13747    13641 
   13477    13460    13578    13711    13778    13679    13474    13470 
   13740    13900    13718    13479    13514    13711    13770    13683 
   13595    13576    13689    13817    13752    13608    13587    13643 
   13695    13693    13610    13579    13663    13732    13695    13562 
   13444    13564    13849    13864    13536    13365    13563    13761 
   13724    13621    13624    13728    13803    13740    13602    13537 
   13562    13591    13602    13662    13778    13837    13730    13552 
   13528    13655    13725    13671    13583    13524    13541    13647 
   13711    13653    13617    13697    13736    13635    13528    13544 
   13666    13779    13756    13626    13578    13645    13686    13691 
   13729    13725    13655    13649    13702    13666    13587    13591 
   13608    13617    13701    13740    13641    13572    13609    13630 
   13635    13657    13579    13446    13506    13749    13911    13895 
   13747    13574    13575    13706    13705    13579    13514    13522 
   13575    13652    13670    13660    13705    13734    13711    13695 
   13645    13549    13522    13581    13645    13697    13675    13586 
   13624    13782    13768    13586    13537    13643    13672    13587 
   13521    13576    13736    13837    13775    13641    13564    13599 
   13702    13752    13683    13575    13525    13563    13671    13752 
   13711    13591    13552    13672    13799    13721    13502    13429 
   13613    13797    13744    13605    13578    13648    13751    13814 
   13755    13651    13628    13629    13583    13500    13433    13493 
   13652    13726    13732    13803    13807    13643    13556    13676 
   13803    13761    13582    13468    13549    13637    13598    13590 
   13676    13745    13759    13676    13531    13529    13678    13726 
   13649    13613    13648    13691    13713    13687    13626    13630 
   13689    13693    13668    13632    13541    13562    13740    13795 
   13648    13490    13443    13547    13729    13810    13726    13603 
   13624    13736    13703    13547    13494    13616    13810    13879 
   13705    13517    13541    13630    13630    13624    13657    13664 
   13641    13617    13578    13598    13722    13774    13691    13670 
   13697    13641    13629    13684    13618    13505    13543    13621 
   13602    13598    13674    13732    13736    13678    13582    13583 
   13686    13713    13682    13694    13694    13675    13687    13674 
   13599    13524    13535    13666    13784    13765    13709    13674 
   13575    13477    13487    13583    13728    13824    13714    13505 
   13481    13649    13787    13774    13647    13541    13575    13695 
   13783    13801    13732    13575    13464    13517    13630    13691 
   13724    13724    13672    13622    13618    13624    13590    13554 
   13598    13716    13798    13775    13666    13579    13594    13628 
   13609    13597    13618    13633    13655    13659    13618    13647 
   13753    13721    13539    13487    13666    13853    13844    13693 
   13587    13605    13674    13670    13590    13559    13606    13620 
   13605    13651    13724    13751    13709    13595    13517    13572 
   13635    13583    13566    13682    13774    13745    13714    13740 
   13741    13674    13566    13459    13454    13587    13711    13728 
   13689    13649    13680    13788    13809    13691    13572    13502 
   13493    13609    13753    13738    13590    13495    13558    13693 
   13751    13722    13730    13784    13760    13671    13603    13531 
   13517    13653    13718    13581    13533    13676    13741    13702 
   13714    13705    13647    13644    13589    13433    13452    13676 
   13763    13674    13662    13701    13644    13585    13587    13590 
   13637    13706    13674    13662    13772    13760    13626    13668 
   13760    13660    13581    13644    13649    13566    13494    13498 
   13632    13776    13765    13689    13687    13706    13674    13566 
   13435    13466    13659    13737    13667    13644    13655    13667 
   13741    13755    13647    13618    13689    13666    13570    13545 
   13589    13630    13645    13645    13660    13711    13821    13896 
   13748    13483    13439    13585    13674    13706    13694    13593 
   13549    13647    13713    13670    13630    13639    13637    13560 
   13454    13513    13760    13906    13819    13680    13587    13513 
   13495    13560    13668    13760    13737    13618    13613    13772 
   13836    13684    13547    13556    13614    13666    13666    13587 
   13597    13706    13659    13498    13560    13841    13969    13767 
   13437    13321    13539    13813    13851    13734    13671    13698 
   13709    13556    13383    13495    13699    13683    13664    13741 
   13674    13540    13547    13606    13660    13738    13724    13589 
   13520    13603    13730    13792    13743    13621    13535    13589 
   13810    13927    13659    13358    13467    13722    13757    13664 
   13575    13539    13606    13706    13722    13629    13497    13514 
   13747    13954    13890    13624    13489    13618    13728    13617 
   13470    13447    13520    13644    13743    13760    13747    13701 
   13663    13737    13772    13612    13481    13549    13672    13733 
   13721    13632    13558    13613    13716    13720    13636    13552 
   13548    13664    13748    13622    13433    13424    13563    13687 
   13743    13726    13664    13668    13707    13608    13517    13683 
   13921    13957    13879    13747    13468    13277    13494    13833 
   13857    13686    13563    13522    13645    13817    13732    13505 
   13497    13672    13775    13775    13763    13690    13521    13452 
   13586    13678    13621    13622    13713    13747    13720    13625 
   13460    13439    13655    13857    13914    13876    13664    13355 
   13266    13427    13597    13682    13674    13559    13489    13648 
   13906    13944    13721    13527    13562    13752    13895    13814 
   13482    13224    13385    13680    13709    13687    13749    13697 
   13694    13821    13753    13562    13548    13647    13722    13749 
   13643    13447    13420    13668    13957    13988    13718    13423 
   13432    13641    13695    13610    13574    13564    13606    13743 
   13813    13776    13776    13824    13830    13689    13398    13259 
   13462    13726    13751    13567    13355    13327    13585    13868 
   13896    13829    13846    13753    13524    13481    13574    13517 
   13481    13644    13798    13869    13965    13980    13836    13698 
   13609    13408    13177    13180    13435    13799    14052    13967 
   13668    13455    13370    13371    13394    13382    13497    13756 
   13890    13844    13801    13832    13892    13863    13633    13355 
   13275    13371    13528    13765    14072    14287    14220    13892 
   13545    13300    13117    13074    13186    13370    13695    14108 
   14283    14116    13756    13373    13207    13258    13274    13300 
   13571    14099    14656    14801    14326    13660    13228    12970 
   12746    12623    12895    13729    14655    14945    14492    13784 
   13244    13051    13122    13082    13001    13458    14287    14667 
   14443    13973    13347    12792    12749    13150    13582    13926 
   14149    14148    13995    13829    13728    13732    13721    13590 
   13439    13366    13377    13416    13451    13556    13740    13914 
   14050    14004    13647    13335    13456    13683    13578    13360 
   13348    13460    13635    13906    14077    13929    13622    13466 
   13493    13574    13601    13490    13339    13379    13599    13765 
   13825    13882    13890    13849    13968    14208    14199    13798 
   13296    12982    12912    13043    13293    13589    13934    14204 
   14138    13810    13660    13725    13648    13517    13640    13829 
   13841    13767    13543    13154    13027    13315    13512    13394 
   13435    13857    14237    14346    14384    14315    13981    13512 
   13128    12978    13112    13292    13257    13281    13770    14361 
   14341    13807    13448    13491    13647    13689    13630    13606 
   13695    13775    13686    13527    13491    13497    13428    13417 
   13475    13514    13687    13984    14030    13770    13593    13633 
   13675    13682    13756    13741    13559    13450    13429    13412 
   13630    14019    14084    13815    13590    13447    13363    13486 
   13718    13879    14019    14056    13701    13128    12950    13239 
   13518    13652    13757    13791    13802    13944    14084    14021 
   13878    13826    13757    13502    13077    12733    12862    13513 
   14169    14342    14061    13663    13456    13555    13734    13637 
   13325    13251    13574    13894    13867    13628    13531    13799 
   14260    14355    13838    13162    12874    13062    13419    13637 
   13695    13747    13903    14135    14265    14129    13691    13169 
   13034    13350    13614    13579    13470    13566    13891    14057 
   13802    13514    13494    13536    13547    13568    13549    13617 
   13856    14007    13999    14004    13929    13693    13493    13301 
   13053    13043    13363    13714    13911    13864    13571    13440 
   13693    13919    13905    13834    13738    13639    13636    13579 
   13410    13379    13497    13571    13636    13752    13842    13849 
   13764    13651    13548    13414    13317    13401    13668    13973 
   14129    14026    13821    13722    13660    13464    13174    12982 
   13062    13439    13892    14177    14219    14033    13792    13770 
   13902    13879    13644    13352    13093    12977    13122    13459 
   13828    14118    14197    14038    13884    13879    13838    13641 
   13375    13149    13059    13189    13477    13707    13756    13761 
   13824    13826    13738    13689    13721    13725    13620    13525 
   13576    13698    13722    13629    13598    13705    13721    13552 
   13468    13562    13670    13771    13838    13801    13813    13919 
   13856    13614    13505    13548    13522    13432    13402    13462 
   13649    13875    13894    13710    13567    13535    13532    13612 
   13751    13778    13667    13474    13302    13394    13732    13976 
   13983    13815    13566    13464    13613    13780    13784    13726 
   13721    13713    13641    13586    13560    13505    13510    13606 
   13624    13552    13583    13686    13687    13618    13581    13595 
   13713    13832    13740    13602    13703    13826    13722    13585 
   13513    13463    13543    13667    13610    13494    13518    13605 
   13684    13764    13783    13752    13761    13736    13608    13513 
   13489    13443    13489    13663    13721    13636    13602    13633 
   13689    13814    13942    13940    13801    13601    13463    13576 
   13855    13859    13528    13381    13630    13857    13720    13393 
   13293    13593    13948    13844    13369    13182    13497    13840 
   13869    13675    13478    13466    13652    13846    13883    13795 
   13707    13683    13710    13732    13652    13460    13347    13452 
   13628    13690    13641    13595    13667    13756    13697    13660 
   13809    13876    13725    13558    13423    13342    13490    13756 
   13896    13917    13811    13620    13576    13647    13591    13477 
   13509    13690    13859    13838    13680    13617    13691    13698 
   13554    13459    13560    13695    13714    13667    13590    13549 
   13630    13659    13509    13446    13613    13779    13833    13863 
   13853    13790    13720    13630    13529    13521    13608    13636 
   13558    13460    13369    13331    13455    13705    13918    14014 
   14008    13954    13868    13741    13572    13375    13219    13219 
   13423    13722    13914    13899    13787    13724    13698    13651 
   13589    13529    13543    13629    13633    13545    13497    13533 
   13670    13821    13833    13753    13702    13664    13655    13697 
   13680    13545    13475    13590    13679    13610    13524    13487 
   13528    13694    13774    13666    13711    13967    14006    13740 
   13493    13439    13547    13680    13676    13567    13471    13433 
   13509    13703    13834    13803    13725    13662    13581    13549 
   13612    13676    13699    13694    13660    13684    13771    13724 
   13578    13558    13602    13571    13532    13544    13589    13682 
   13760    13701    13560    13531    13626    13707    13753    13818 
   13852    13794    13683    13545    13421    13441    13618    13760 
   13775    13722    13613    13487    13497    13645    13729    13690 
   13655    13644    13586    13516    13512    13579    13698    13806 
   13829    13811    13803    13752    13671    13639    13613    13527 
   13495    13622    13748    13682    13521    13506    13697    13890 
   13882    13714    13571    13517    13516    13521    13529    13572 
