Origin Time       2021/08/14 22:38:00
Lat.              37.5
Long.             137.2
Depth. (km)       10
Mag.              4.1
Station Code      NIG004
Station Lat.      37.8205
Station Long.     138.2795
Station Height(m) 40
Record Time       2021/08/14 22:38:37
Sampling Freq(Hz) 100Hz
Duration Time(s)  60
Dir.              U-D
Scale Factor      7845(gal)/8223790
Max. Acc. (gal)   0.964
Last Correction   2021/08/14 22:38:37
Memo.             
[...]
    4854     4857     4868     4851     4846     4862     4855     4849 
    4862     4855     4845     4864     4864     4841     4851     4869 
    4847     4845     4874     4860     4837     4858     4864     4849 
    4862     4866     4843     4851     4866     4851     4853     4872 
    4862     4847     4854     4853     4847     4866     4869     4850 
    4855     4860     4843     4857     4874     4854     4846     4862 
    4857     4849     4861     4858     4849     4858     4855     4837 
    4839     4838     4804     4770     4735     4687     4676     4719 
    4792     4931     5123     5278     5371     5391     5262     4980 
    4639     4334     4163     4247     4591     5039     5382     5447 
    5202     4801     4434     4267     4433     4833     5170     5312 
    5290     5115     4872     4723     4673     4588     4432     4266 
    4218     4444     4931     5462     5799     5782     5414     4986 
    4762     4653     4550     4534     4576     4540     4442     4450 
    4634     4912     5182     5348     5335     5147     4854     4634 
    4699     4927     4950     4696     4445     4436     4662     4969 
    5213     5373     5422     5260     4893     4519     4314     4330 
    4534     4807     5007     5098     5103     5016     4922     4914 
    4962     4973     4828     4545     4378     4477     4711     5013 
    5368     5535     5325     4916     4603     4465     4413     4434 
    4619     4932     5105     4986     4864     4986     5136     5096 
    4988     4895     4720     4533     4537     4676     4738     4770 
    4891     5009     5046     5073     5124     5132     5035     4887 
    4743     4530     4311     4349     4641     4922     5132     5333 
    5377     5157     4896     4811     4777     4644     4540     4622 
    4780     4791     4676     4646     4761     4938     5135     5282 
    5256     5047     4801     4661     4627     4648     4733     4878 
    5005     5023     4915     4799     4812     4900     4924     4854 
    4725     4600     4571     4657     4870     5175     5344     5188 
    4888     4716     4669     4700     4861     5011     4936     4706 
    4545     4546     4687     4928     5162     5229     5078     4845 
    4704     4661     4689     4847     5015     5008     4922     4887 
    4814     4707     4768     4985     5066     4918     4752     4708 
    4708     4698     4753     4885     4954     4930     4988     5124 
    5088     4853     4700     4695     4662     4652     4776     4892 
    4893     4885     4935     5013     5059     5013     4895     4766 
    4656     4611     4657     4725     4797     4914     4978     4915 
    4869     4943     5028     5058     5096     5080     4858     4577 
    4533     4683     4765     4720     4725     4841     4924     4943 
    5035     5135     5058     4855     4699     4627     4649     4783 
    4951     5032     4980     4860     4783     4796     4870     4955 
    4962     4830     4673     4645     4722     4822     4955     5054 
    5012     4916     4877     4862     4822     4784     4835     4946 
    4923     4742     4623     4700     4870     4989     5009     4945 
    4850     4799     4793     4793     4815     4892     4969     4974 
    4951     4928     4839     4726     4668     4671     4764     4891 
    4927     4915     4939     4974     5011     5005     4868     4711 
    4668     4654     4672     4819     5011     5088     5054     5004 
    4945     4816     4639     4534     4606     4820     4962     4914 
    4833     4828     4854     4927     5049     5125     5066     4872 
    4692     4665     4727     4772     4804     4865     4932     4941 
    4920     4969     5023     4959     4818     4671     4567     4554 
    4650     4845     5035     5088     5030     4942     4862     4847 
    4905     4969     4962     4854     4746     4720     4764     4857 
    4918     4880     4811     4776     4776     4777     4789     4903 
    5042     5026     4904     4820     4772     4739     4766     4855 
    4896     4831     4791     4837     4909     4972     4982     4972 
    4995     4996     4923     4827     4756     4658     4518     4452 
    4554     4772     4966     5074     5150     5193     5128     5016 
    4966     4931     4838     4710     4625     4594     4606     4735 
    4938     5030     4943     4777     4672     4652     4688     4843 
    5105     5265     5211     5086     4980     4801     4595     4553 
    4672     4792     4880     4955     4980     4931     4850     4742 
    4656     4719     4920     5039     4976     4869     4807     4710 
    4603     4634     4827     5032     5124     5130     5076     4958 
    4877     4897     4907     4788     4611     4496     4486     4588 
    4773     4976     5171     5324     5310     5080     4777     4576 
    4490     4496     4639     4884     5058     5081     5032     4957 
    4849     4766     4787     4864     4882     4833     4783     4749 
    4718     4743     4872     5003     5030     5012     5012     4995 
    4943     4851     4725     4673     4765     4864     4842     4757 
    4702     4693     4731     4826     4957     5055     5049     4958 
    4885     4854     4820     4796     4833     4914     4989     4996 
    4897     4743     4633     4627     4716     4872     5038     5069 
    4928     4795     4766     4768     4758     4793     4882     4939 
    4897     4824     4827     4900     4966     4993     4981     4895 
    4766     4727     4791     4853     4877     4869     4820     4799 
    4874     4968     4982     4932     4845     4734     4656     4666 
    4758     4869     4938     4947     4927     4900     4850     4785 
    4762     4807     4893     4985     5027     4978     4908     4900 
    4891     4793     4683     4666     4706     4727     4758     4858 
    4985     5042     5046     5044     5003     4893     4743     4619 
    4590     4650     4756     4872     4962     5038     5096     5077 
    4985     4864     4712     4608     4653     4776     4857     4909 
    4963     4955     4873     4816     4847     4882     4843     4784 
    4793     4864     4932     4990     5007     4924     4784     4695 
    4720     4828     4909     4909     4860     4807     4799     4845 
    4892     4887     4831     4776     4807     4935     5044     5035 
    4935     4828     4738     4649     4611     4706     4926     5140 
    5219     5119     4878     4612     4476     4510     4630     4777 
    4930     5044     5077     5032     4985     4997     5011     4962 
    4884     4776     4642     4592     4677     4774     4785     4776 
    4839     4938     5005     5036     5024     4974     4907     4845 
    4816     4834     4876     4903     4865     4758     4638     4584 
    4654     4845     5035     5093     5008     4891     4839     4820 
    4810     4877     4973     4915     4725     4626     4702     4839 
    4965     5055     5063     4992     4887     4774     4708     4729 
    4781     4806     4833     4899     4942     4892     4818     4801 
    4814     4834     4900     4990     5004     4942     4895     4874 
    4822     4723     4668     4710     4768     4776     4784     4845 
    4923     4997     5074     5074     4969     4881     4850     4785 
    4722     4757     4834     4851     4833     4826     4806     4769 
    4777     4833     4895     4974     5051     5049     4950     4822 
    4729     4688     4688     4749     4884     5004     5017     4938 
    4828     4733     4700     4784     4920     4984     4972     4930 
    4849     4747     4688     4677     4707     4801     4969     5111 
    5105     4997     4900     4831     4789     4787     4814     4834 
    4823     4788     4745     4738     4810     4891     4897     4887 
    4935     5004     5019     5001     4977     4892     4743     4645 
    4634     4625     4614     4712     4899     5034     5090     5116 
    5089     4980     4860     4822     4826     4774     4710     4720 
    4781     4800     4768     4727     4707     4747     4862     5005 
    5131     5202     5155     4992     4839     4758     4679     4595 
    4604     4725     4842     4861     4808     4804     4900     4999 
    5039     5074     5096     4997     4792     4642     4617     4649 
    4718     4845     4970     5003     4957     4884     4824     4816 
    4849     4899     4927     4889     4835     4819     4793     4761 
    4779     4837     4896     4965     5040     5047     4932     4789 
    4702     4638     4645     4779     4931     4969     4915     4896 
    4916     4872     4769     4723     4776     4899     5004     5001 
    4928     4873     4858     4873     4873     4820     4749     4707 
    4745     4870     4974     4968     4905     4849     4792     4754 
    4760     4807     4878     4903     4860     4862     4939     4957 
    4891     4868     4901     4900     4858     4834     4837     4847 
    4850     4837     4806     4764     4739     4762     4833     4941 
    5034     5036     4939     4816     4722     4658     4685     4872 
    5111     5165     4982     4754     4646     4653     4719     4838 
    4974     5028     4977     4880     4787     4725     4722     4788 
    4869     4900     4904     4907     4905     4922     4936     4896 
    4846     4860     4882     4838     4760     4706     4692     4733 
    4838     4972     5062     5062     4973     4868     4814     4806 
    4808     4833     4866     4866     4828     4777     4756     4796 
    4880     4950     4936     4861     4797     4772     4814     4926 
    4989     4946     4882     4855     4839     4818     4801     4795 
    4793     4789     4787     4822     4914     4997     4989     4900 
    4800     4752     4796     4909     5008     5028     4972     4837 
    4664     4598     4708     4857     4923     4972     5011     4950 
    4841     4795     4797     4806     4807     4792     4779     4796 
    4857     4949     5016     5005     4928     4820     4734     4742 
    4845     4961     4997     4941     4853     4788     4753     4765 
    4833     4899     4882     4796     4750     4773     4820     4892 
    4981     5032     5001     4891     4745     4648     4680     4803 
    4878     4873     4878     4909     4932     4939     4920     4896 
    4878     4864     4864     4878     4882     4846     4777     4739 
    4749     4784     4843     4900     4958     5008     4973     4837 
    4726     4722     4764     4823     4932     5030     4999     4876 
    4804     4815     4838     4842     4861     4881     4842     4772 
    4765     4810     4827     4838     4892     4927     4877     4819 
    4837     4853     4793     4764     4834     4911     4961     5043 
    5103     5044     4931     4857     4765     4611     4536     4630 
    4753     4811     4868     4934     4954     4949     4990     5051 
    5013     4881     4783     4787     4826     4815     4787     4820 
    4869     4857     4828     4819     4810     4845     4936     4995 
    4955     4858     4746     4639     4641     4801     4961     4977 
    4953     5007     5062     5027     4935     4850     4770     4685 
    4595     4558     4684     4916     5027     4957     4857     4800 
    4789     4855     4969     5027     4963     4849     4818     4880 
    4920     4864     4765     4716     4720     4752     4799     4838 
    4876     4943     5030     5086     5040     4887     4753     4733 
    4783     4824     4835     4846     4893     4946     4926     4820 
    4714     4673     4715     4835     4965     5003     4961     4918 
    4872     4789     4735     4747     4804     4891     4981     5024 
    4997     4908     4804     4761     4776     4784     4784     4792 
    4789     4772     4791     4843     4892     4989     5139     5174 
    5008     4773     4642     4676     4808     4938     4999     4957 
    4827     4693     4648     4704     4762     4745     4730     4796 
    4878     4896     4874     4891     4936     4955     4966     5020 
    5058     4990     4858     4793     4834     4878     4880     4880 
    4810     4575     4309     4290     4596     5022     5367     5545 
    5502     5242     4915     4729     4720     4761     4781     4801 
    4807     4777     4733     4702     4699     4688     4602     4490 
    4510     4729     5026     5246     5300     5185     5023     4947 
    4965     5023     5062     4974     4761     4588     4522     4519 
    4595     4714     4760     4731     4727     4735     4756     4934 
    5283     5544     5483     5097     4588     4226     4201     4525 
    5017     5431     5617     5499     5063     4496     4149     4209 
    4541     4893     5107     5105     4905     4698     4729     4999 
    5270     5362     5204     4846     4519     4428     4522     4595 
    4563     4548     4637     4765     4892     5031     5158     5255 
    5339     5412     5418     5281     4958     4531     4240     4230 
    4371     4482     4568     4687     4799     4846     4854     4903 
    5005     5097     5120     5074     5004     4904     4797     4803 
    4928     5050     5140     5202     5134     4908     4673     4530 
    4459     4449     4477     4476     4510     4729     5085     5355 
    5410     5281     5050     4799     4635     4672     4868     5049 
    5097     5017     4892     4773     4634     4490     4403     4371 
    4382     4521     4869     5358     5760     5867     5688     5343 
    4884     4430     4190     4203     4325     4459     4617     4812 
    4995     5105     5143     5111     5034     5001     5050     5109 
    5084     4928     4671     4411     4266     4276     4448     4774 
    5139     5350     5333     5162     4978     4870     4808     4769 
    4766     4799     4864     4931     4931     4841     4754     4758 
    4797     4772     4692     4642     4665     4756     4939     5189 
    5312     5169     4914     4781     4803     4845     4807     4702 
    4598     4526     4517     4623     4847     5130     5348     5378 
    5206     4959     4764     4702     4756     4812     4792     4716 
    4680     4729     4822     4928     5013     5001     4873     4738 
    4722     4815     4918     4958     4922     4835     4756     4745 
    4772     4781     4831     4992     5162     5192     5128     5074 
    4955     4691     4423     4313     4351     4486     4685     4916 
    5146     5298     5266     5051     4835     4781     4830     4854 
    4873     4903     4839     4689     4654     4826     5039     5116 
    5049     4888     4696     4588     4645     4788     4878     4903 
    4946     4986     4941     4842     4765     4739     4787     4897 
    4945     4835     4677     4661     4804     4982     5124     5184 
    5127     4974     4806     4715     4715     4712     4666     4661 
    4747     4853     4909     4924     4915     4878     4843     4827 
    4810     4807     4830     4864     4908     4963     5016     5026 
    4954     4862     4839     4864     4872     4847     4801     4757 
    4761     4808     4845     4842     4841     4881     4950     4989 
    4959     4857     4714     4592     4576     4672     4793     4878 
    4947     5024     5090     5132     5150     5134     5076     4973 
    4823     4658     4552     4523     4513     4513     4606     4799 
    4972     5062     5098     5076     4974     4881     4874     4914 
    4943     4954     4927     4869     4806     4739     4693     4700 
    4779     4907     4986     4924     4768     4656     4638     4707 
    4872     5065     5116     4989     4861     4861     4945     4997 
    4969     4878     4746     4598     4499     4522     4672     4868 
    5003     5038     5024     4984     4900     4831     4882     5016 
    5065     4999     4931     4876     4781     4704     4700     4726 
    4726     4714     4746     4815     4862     4918     5022     5090 
    5035     4885     4747     4703     4768     4881     4924     4882 
    4873     4909     4888     4799     4761     4792     4807     4811 
    4870     4939     4961     4961     4938     4870     4789     4757 
    4820     4935     4990     4963     4899     4812     4726     4711 
    4785     4877     4915     4888     4810     4719     4698     4769 
    4869     4955     4989     4939     4858     4833     4868     4899 
    4903     4897     4858     4762     4646     4596     4654     4814 
    5008     5143     5162     5066     4915     4799     4769     4796 
    4807     4770     4706     4652     4661     4762     4930     5082 
    5151     5097     4947     4804     4757     4811     4908     4980 
    4953     4799     4622     4572     4675     4823     4908     4926 
    4954     5004     5017     4999     4993     4959     4851     4730 
    4666     4649     4675     4760     4843     4845     4808     4820 
    4899     5046     5208     5247     5098     4841     4606     4488 
    4525     4689     4877     4953     4887     4789     4781     4865 
    4974     5051     5049     4974     4866     4747     4684     4746 
    4869     4935     4941     4905     4830     4766     4800     4938 
    5067     5063     4893     4666     4542     4552     4634     4764 
    4911     4993     5003     5008     5008     4970     4924     4892 
    4851     4814     4801     4811     4831     4853     4849     4827 
    4838     4872     4880     4858     4835     4824     4819     4818 
    4831     4847     4873     4922     4934     4869     4791     4762 
    4788     4845     4892     4900     4884     4866     4857     4872 
    4904     4903     4838     4777     4793     4841     4843     4811 
    4796     4810     4845     4892     4922     4934     4922     4885 
    4885     4928     4928     4870     4820     4793     4772     4787 
    4839     4885     4916     4957     4990     4963     4869     4760 
    4680     4656     4726     4881     5013     5026     4954     4885 
    4845     4831     4837     4830     4788     4722     4671     4689 
    4781     4897     4999     5057     5031     4928     4822     4780 
    4807     4878     4953     4959     4887     4814     4784     4779 
    4800     4828     4826     4815     4838     4874     4897     4909 
    4905     4885     4868     4855     4828     4799     4801     4810 
    4823     4887     4962     4965     4870     4766     4756     4838 
    4938     4982     4951     4891     4834     4788     4783     4812 
    4807     4756     4733     4780     4842     4854     4858     4901 
    4938     4919     4885     4887     4914     4945     4970     4951 
    4873     4800     4803     4851     4888     4897     4880     4827 
    4739     4684     4715     4766     4777     4799     4873     4953 
    5000     5046     5097     5074     4941     4761     4621     4575 
    4623     4726     4853     4961     4977     4904     4838     4841 
    4888     4943     4993     5026     5020     4976     4881     4757 
    4684     4676     4664     4675     4768     4872     4905     4916 
    4945     4946     4891     4820     4797     4846     4918     4932 
    4900     4899     4918     4895     4839     4807     4808     4828 
    4862     4884     4861     4810     4766     4750     4764     4783 
