Origin Time       2021/08/14 22:38:00
Lat.              37.5
Long.             137.2
Depth. (km)       10
Mag.              4.1
Station Code      NIG004
Station Lat.      37.8205
Station Long.     138.2795
Station Height(m) 40
Record Time       2021/08/14 22:38:37
Sampling Freq(Hz) 100Hz
Duration Time(s)  60
Dir.              N-S
Scale Factor      7845(gal)/8223790
Max. Acc. (gal)   2.703
Last Correction   2021/08/14 22:38:37
Memo.             
[...]
  -19896   -19907   -19905   -19900   -19907   -19899   -19892   -19909 
  -19913   -19901   -19905   -19904   -19892   -19901   -19912   -19901 
  -19896   -19912   -19909   -19889   -19901   -19917   -19903   -19899 
  -19909   -19903   -19896   -19911   -19912   -19899   -19896   -19901 
  -19905   -19904   -19901   -19903   -19904   -19904   -19900   -19901 
  -19905   -19904   -19903   -19903   -19901   -19907   -19907   -19896 
  -19897   -19913   -19905   -19892   -19907   -19912   -19897   -19901 
  -19909   -19899   -19899   -19909   -19907   -19907   -19907   -19893 
  -19889   -19916   -19919   -19886   -19892   -19915   -19908   -19899 
  -19905   -19905   -19901   -19904   -19899   -19896   -19912   -19911 
  -19892   -19900   -19912   -19900   -19900   -19904   -19894   -19903 
  -19915   -19900   -19894   -19907   -19905   -19904   -19912   -19900 
  -19886   -19907   -19915   -19892   -19900   -19920   -19897   -19886 
  -19908   -19905   -19905   -19935   -19946   -19939   -19931   -19907 
  -19859   -19797   -19751   -19759   -19826   -19920   -20046   -20187 
  -20250   -20164   -19973   -19710   -19410   -19236   -19319   -19637 
  -20097   -20553   -20815   -20781   -20470   -20001   -19556   -19288 
  -19232   -19306   -19454   -19669   -19889   -20073   -20255   -20401 
  -20424   -20325   -20129   -19804   -19429   -19209   -19199   -19309 
  -19531   -19866   -20268   -20706   -21003   -20946   -20576   -20097 
  -19646   -19298   -19094   -19029   -19106   -19337   -19699   -20127 
  -20522   -20775   -20842   -20709   -20351   -19836   -19282   -18837 
  -18719   -18941   -19300   -19687   -20156   -20702   -21189   -21423 
  -21172   -20436   -19591   -18983   -18667   -18625   -18932   -19503 
  -20062   -20467   -20695   -20725   -20660   -20541   -20235   -19778 
  -19386   -19120   -18943   -18971   -19284   -19673   -20038   -20478 
  -20791   -20753   -20515   -20270   -20105   -19997   -19765   -19446 
  -19299   -19353   -19465   -19584   -19734   -19988   -20322   -20542 
  -20515   -20278   -19940   -19647   -19510   -19525   -19618   -19707 
  -19786   -19967   -20251   -20391   -20220   -19943   -19800   -19704 
  -19521   -19387   -19516   -19855   -20171   -20341   -20348   -20240 
  -20115   -19905   -19618   -19562   -19778   -19905   -19850   -19765 
  -19703   -19777   -20002   -20158   -20182   -20201   -20218   -20147 
  -19954   -19687   -19484   -19492   -19651   -19742   -19683   -19610 
  -19711   -20019   -20325   -20422   -20380   -20270   -20028   -19781 
  -19692   -19705   -19751   -19847   -19984   -20061   -20001   -19904 
  -19858   -19797   -19691   -19580   -19557   -19734   -19936   -19940 
  -19940   -20096   -20229   -20225   -20092   -19908   -19851   -19900 
  -19874   -19820   -19816   -19761   -19677   -19711   -19858   -20059 
  -20272   -20368   -20279   -20075   -19776   -19414   -19190   -19268 
  -19607   -20009   -20286   -20402   -20406   -20286   -20043   -19793 
  -19658   -19649   -19668   -19693   -19777   -19866   -19959   -20112 
  -20196   -20106   -19997   -19958   -19872   -19692   -19534   -19531 
  -19689   -19836   -19907   -20002   -20123   -20204   -20267   -20274 
  -20129   -19915   -19774   -19695   -19638   -19626   -19624   -19637 
  -19766   -19997   -20164   -20225   -20243   -20209   -20102   -19924 
  -19688   -19494   -19453   -19549   -19732   -19954   -20123   -20218 
  -20266   -20236   -20062   -19795   -19612   -19588   -19664   -19782 
  -19890   -20011   -20123   -20116   -20032   -19989   -19973   -19951 
  -19919   -19849   -19759   -19696   -19643   -19587   -19626   -19842 
  -20081   -20152   -20117   -20131   -20170   -20120   -19970   -19769 
  -19634   -19695   -19869   -19978   -20013   -20042   -20025   -19917 
  -19773   -19691   -19735   -19828   -19812   -19770   -19874   -20020 
  -20085   -20144   -20182   -20109   -19984   -19822   -19643   -19602 
  -19715   -19839   -19919   -19990   -20036   -20005   -19919   -19862 
  -19904   -19955   -19866   -19751   -19800   -19905   -19908   -19892 
  -19935   -19982   -19989   -19967   -19920   -19854   -19815   -19819 
  -19857   -19943   -20025   -20043   -20023   -19988   -19957   -19969 
  -19961   -19892   -19859   -19861   -19785   -19666   -19595   -19629 
  -19789   -19978   -20074   -20067   -20005   -19915   -19835   -19799 
  -19838   -19990   -20197   -20264   -20115   -19919   -19834   -19854 
  -19869   -19788   -19726   -19791   -19874   -19894   -19872   -19877 
  -19955   -20007   -19939   -19811   -19704   -19693   -19809   -19950 
  -19997   -19939   -19861   -19908   -20090   -20212   -20177   -20078 
  -19982   -19855   -19735   -19714   -19766   -19843   -19912   -19936 
  -19943   -19974   -19990   -19928   -19789   -19649   -19583   -19600 
  -19651   -19739   -19904   -20121   -20256   -20247   -20239   -20279 
  -20204   -20023   -19877   -19759   -19660   -19568   -19483   -19561 
  -19862   -20147   -20204   -20120   -20086   -20059   -19893   -19650 
  -19502   -19519   -19630   -19743   -19869   -20071   -20286   -20364 
  -20304   -20205   -20123   -20043   -19877   -19620   -19408   -19387 
  -19548   -19732   -19876   -20036   -20266   -20476   -20421   -20093 
  -19739   -19502   -19403   -19408   -19476   -19705   -20128   -20488 
  -20580   -20449   -20221   -19967   -19711   -19527   -19479   -19527 
  -19665   -19831   -19908   -19874   -19824   -19862   -20001   -20185 
  -20312   -20250   -20007   -19788   -19696   -19678   -19732   -19831 
  -19904   -19970   -20032   -20042   -19994   -19936   -19932   -19974 
  -19954   -19822   -19711   -19737   -19789   -19758   -19727   -19818 
  -20016   -20174   -20131   -19909   -19738   -19742   -19839   -19930 
  -20023   -20167   -20239   -20100   -19896   -19789   -19738   -19719 
  -19734   -19728   -19745   -19849   -20008   -20171   -20268   -20173 
  -19896   -19674   -19660   -19724   -19734   -19724   -19815   -20019 
  -20151   -20073   -19917   -19863   -19908   -19963   -19934   -19824 
  -19791   -19854   -19912   -19975   -20063   -20120   -20142   -20116 
  -19974   -19741   -19526   -19413   -19465   -19677   -19957   -20170 
  -20258   -20275   -20181   -19915   -19646   -19583   -19703   -19862 
  -19982   -20039   -20055   -20069   -20047   -19943   -19812   -19772 
  -19839   -19865   -19757   -19639   -19676   -19888   -20159   -20331 
  -20344   -20248   -20094   -19920   -19710   -19479   -19386   -19492 
  -19676   -19872   -20085   -20210   -20164   -20025   -19904   -19865 
  -19886   -19877   -19845   -19870   -19913   -19872   -19805   -19876 
  -20047   -20115   -20016   -19909   -19903   -19927   -19904   -19836 
  -19742   -19695   -19786   -19942   -20065   -20181   -20233   -20160 
  -19990   -19718   -19438   -19349   -19476   -19672   -19843   -20044 
  -20325   -20533   -20466   -20197   -19935   -19727   -19589   -19521 
  -19484   -19543   -19750   -20002   -20169   -20237   -20258   -20209 
  -20061   -19862   -19692   -19631   -19700   -19808   -19867   -19877 
  -19863   -19869   -19927   -20012   -20044   -20000   -19912   -19835 
  -19782   -19718   -19687   -19786   -19996   -20191   -20256   -20198 
  -20106   -19994   -19877   -19788   -19742   -19747   -19792   -19839 
  -19830   -19746   -19666   -19684   -19849   -20075   -20148   -20042 
  -19950   -19943   -19951   -19921   -19869   -19904   -20019   -20040 
  -19923   -19792   -19751   -19780   -19838   -19917   -19967   -19955 
  -19948   -19953   -19859   -19714   -19677   -19788   -19946   -20044 
  -20086   -20119   -20117   -20051   -19927   -19813   -19807   -19878 
  -19909   -19880   -19834   -19785   -19780   -19843   -19897   -19873 
  -19816   -19830   -19893   -19935   -19992   -20058   -20047   -19971 
  -19924   -19912   -19894   -19892   -19930   -19982   -20016   -19980 
  -19862   -19762   -19730   -19731   -19781   -19882   -19962   -19967 
  -19896   -19807   -19791   -19858   -19934   -19975   -20013   -20035 
  -20012   -19996   -20013   -20004   -19924   -19832   -19800   -19847 
  -19912   -19921   -19894   -19867   -19827   -19786   -19772   -19789 
  -19863   -19985   -20056   -20031   -19939   -19828   -19789   -19847 
  -19915   -19965   -20023   -20056   -20012   -19912   -19824   -19785 
  -19785   -19801   -19861   -19966   -20013   -19969   -19940   -19951 
  -19917   -19849   -19793   -19765   -19782   -19843   -19946   -20047 
  -20066   -20050   -20056   -20016   -19905   -19795   -19724   -19707 
  -19743   -19813   -19938   -20129   -20263   -20169   -19901   -19745 
  -19768   -19773   -19714   -19704   -19803   -19934   -19998   -20004 
  -20007   -19990   -19915   -19820   -19807   -19885   -19935   -19916 
  -19896   -19884   -19896   -19942   -19962   -19998   -20092   -20152 
  -20112   -19963   -19755   -19633   -19683   -19784   -19807   -19781 
  -19770   -19799   -19855   -19928   -19994   -20034   -20063   -20047 
  -19940   -19822   -19774   -19786   -19874   -20048   -20186   -20214 
  -20173   -20073   -19928   -19765   -19630   -19592   -19660   -19770 
  -19835   -19805   -19749   -19755   -19823   -19907   -19978   -20043 
  -20136   -20228   -20179   -19978   -19811   -19768   -19777   -19849 
  -19962   -20019   -20017   -19988   -19919   -19805   -19673   -19643 
  -19831   -20092   -20163   -20012   -19805   -19696   -19701   -19742 
  -19791   -19911   -20093   -20189   -20119   -19969   -19838   -19781 
  -19800   -19834   -19916   -20071   -20144   -20020   -19799   -19629 
  -19587   -19701   -19896   -20015   -20051   -20089   -20123   -20078 
  -19921   -19712   -19604   -19711   -19900   -19990   -19993   -19989 
  -19969   -19907   -19838   -19815   -19858   -19967   -20083   -20097 
  -19971   -19826   -19793   -19865   -19962   -20004   -19946   -19849 
  -19777   -19727   -19695   -19681   -19731   -19904   -20139   -20266 
  -20173   -19936   -19769   -19753   -19796   -19827   -19867   -19990 
  -20148   -20174   -20055   -19927   -19839   -19762   -19705   -19674 
  -19678   -19815   -20051   -20166   -20077   -19942   -19855   -19786 
  -19749   -19755   -19809   -19920   -20002   -19985   -19940   -19959 
  -20020   -20031   -19962   -19900   -19903   -19916   -19892   -19840 
  -19804   -19819   -19835   -19805   -19801   -19876   -19971   -20031 
  -20070   -20054   -19930   -19764   -19638   -19603   -19710   -19930 
  -20162   -20358   -20447   -20347   -20082   -19755   -19492   -19376 
  -19395   -19523   -19723   -19928   -20085   -20166   -20197   -20182 
  -20069   -19900   -19772   -19715   -19716   -19738   -19764   -19866 
  -20042   -20155   -20144   -20094   -20075   -20034   -19938   -19834 
  -19758   -19737   -19742   -19745   -19800   -19893   -19923   -19911 
  -19912   -19888   -19862   -19870   -19869   -19873   -19885   -19890 
  -19897   -19896   -19890   -19926   -20034   -20181   -20278   -20274 
  -20137   -19858   -19577   -19491   -19579   -19705   -19839   -19969 
  -20044   -20027   -19927   -19828   -19824   -19857   -19843   -19826 
  -19827   -19819   -19835   -19901   -19990   -20079   -20167   -20209 
  -20135   -20020   -19947   -19858   -19734   -19654   -19683   -19785 
  -19884   -19947   -20004   -20051   -20043   -19936   -19750   -19585 
  -19530   -19600   -19757   -19923   -20074   -20209   -20281   -20250 
  -20110   -19946   -19863   -19859   -19847   -19811   -19773   -19757 
  -19822   -19953   -20052   -20069   -20007   -19916   -19818   -19693 
  -19600   -19580   -19650   -19836   -20043   -20117   -20088   -20093 
  -20140   -20124   -20038   -19989   -20000   -19975   -19859   -19695 
  -19607   -19674   -19770   -19796   -19870   -20047   -20142   -20020 
  -19803   -19695   -19707   -19703   -19689   -19786   -20020   -20264 
  -20340   -20214   -20031   -19923   -19890   -19896   -19915   -19905 
  -19861   -19818   -19809   -19823   -19772   -19687   -19666   -19697 
  -19776   -19924   -20052   -20106   -20131   -20133   -20070   -19939 
  -19797   -19719   -19745   -19851   -19919   -19892   -19912   -20023 
  -20061   -19967   -19854   -19781   -19754   -19800   -19873   -19880 
  -19838   -19824   -19884   -19997   -20052   -19963   -19789   -19607 
  -19496   -19516   -19642   -19838   -20047   -20183   -20218   -20190 
  -20191   -20218   -20181   -20065   -19897   -19789   -19857   -20015 
  -20155   -20295   -20371   -20290   -20094   -19861   -19689   -19651 
  -19708   -19759   -19726   -19606   -19448   -19272   -19164   -19225 
  -19456   -19816   -20235   -20532   -20559   -20370   -20185   -20169 
  -20228   -20177   -19992   -19701   -19400   -19338   -19654   -20185 
  -20676   -20934   -20821   -20328   -19622   -19028   -18827   -19010 
  -19402   -19849   -20281   -20671   -20854   -20623   -20036   -19408 
  -18958   -18766   -18932   -19372   -19750   -19842   -19811   -19911 
  -20088   -20081   -19795   -19477   -19495   -19940   -20603   -21257 
  -21730   -21790   -21327   -20579   -19884   -19387   -19143   -19116 
  -19137   -19170   -19291   -19402   -19375   -19232   -19043   -18943 
  -19068   -19367   -19672   -19973   -20333   -20623   -20657   -20529 
  -20552   -20803   -20965   -20758   -20274   -19791   -19526   -19564 
  -19770   -19988   -20221   -20403   -20371   -20110   -19747   -19383 
  -19138   -19157   -19371   -19534   -19542   -19472   -19350   -19155 
  -18978   -18958   -19170   -19629   -20205   -20660   -20846   -20749 
  -20545   -20630   -21188   -21936   -22427   -22318   -21465   -20050 
  -18524   -17410   -17069   -17460   -18231   -19041   -19680   -20012 
  -20052   -19936   -19785   -19664   -19577   -19565   -19676   -19911 
  -20312   -20957   -21698   -22125   -21914   -21070   -19916   -18925 
  -18472   -18702   -19450   -20232   -20606   -20447   -19884   -19215 
  -18751   -18594   -18732   -19195   -19903   -20549   -20806   -20591 
  -20117   -19712   -19560   -19633   -19876   -20205   -20483   -20611 
  -20483   -20104   -19653   -19245   -18958   -18955   -19354   -20115 
  -20931   -21331   -21103   -20420   -19603   -18987   -18766   -18927 
  -19340   -19828   -20289   -20686   -20987   -21122   -20984   -20574 
  -20065   -19548   -18975   -18409   -18054   -18138   -18759   -19651 
  -20343   -20637   -20673   -20576   -20403   -20293   -20313   -20366 
  -20389   -20402   -20345   -20094   -19685   -19315   -19182   -19349 
  -19712   -20152   -20548   -20733   -20607   -20236   -19847   -19606 
  -19433   -19213   -18958   -18748   -18743   -19105   -19769   -20412 
  -20738   -20687   -20368   -20031   -19942   -20021   -20078   -20148 
  -20202   -20129   -20039   -20086   -20264   -20490   -20660   -20645 
  -20337   -19777   -19186   -18774   -18612   -18715   -19048   -19480 
  -19780   -19781   -19596   -19454   -19522   -19855   -20324   -20715 
  -20931   -20997   -20938   -20713   -20304   -19889   -19743   -19896 
  -20132   -20298   -20351   -20224   -19850   -19276   -18686   -18319 
  -18342   -18712   -19299   -20034   -20725   -21026   -20803   -20282 
  -19797   -19588   -19660   -19838   -19992   -20142   -20349   -20526 
  -20540   -20372   -20070   -19735   -19457   -19263   -19228   -19395 
  -19650   -19894   -20132   -20309   -20302   -20052   -19685   -19406 
  -19313   -19450   -19784   -20094   -20208   -20197   -20197   -20254 
  -20344   -20395   -20351   -20220   -20043   -19816   -19534   -19319 
  -19311   -19449   -19626   -19850   -20152   -20463   -20638   -20572 
  -20227   -19692   -19159   -18758   -18615   -18844   -19344   -19867 
  -20285   -20560   -20698   -20748   -20725   -20576   -20302   -20035 
  -19913   -19931   -20042   -20205   -20256   -20035   -19573   -19053 
  -18706   -18658   -18835   -19117   -19481   -19908   -20312   -20576 
  -20659   -20664   -20692   -20706   -20632   -20461   -20233   -20007 
  -19855   -19797   -19768   -19669   -19496   -19363   -19352   -19400 
  -19435   -19481   -19562   -19685   -19873   -20032   -20061   -20036 
  -20055   -20128   -20247   -20395   -20506   -20440   -20150   -19795 
  -19560   -19494   -19587   -19792   -19990   -20079   -20034   -19913 
  -19785   -19672   -19566   -19514   -19596   -19804   -20024   -20212 
  -20359   -20386   -20221   -19907   -19549   -19278   -19201   -19323 
  -19583   -19896   -20171   -20337   -20417   -20452   -20409   -20268 
  -20073   -19876   -19688   -19541   -19531   -19723   -20034   -20260 
  -20282   -20151   -19947   -19693   -19456   -19388   -19552   -19795 
  -19953   -19988   -19975   -19980   -19940   -19815   -19751   -19892 
  -20093   -20119   -19966   -19813   -19793   -19893   -20000   -20071 
  -20154   -20229   -20233   -20146   -19996   -19876   -19815   -19685 
  -19437   -19268   -19349   -19604   -19924   -20206   -20324   -20264 
  -20069   -19799   -19616   -19634   -19815   -20007   -20047   -19923 
  -19764   -19678   -19700   -19786   -19877   -19997   -20150   -20252 
  -20320   -20393   -20403   -20283   -20043   -19770   -19570   -19477 
  -19492   -19631   -19869   -20085   -20148   -20046   -19894   -19793 
  -19696   -19539   -19375   -19319   -19417   -19634   -19932   -20220 
  -20420   -20525   -20524   -20413   -20255   -20088   -19903   -19722 
  -19596   -19556   -19579   -19631   -19704   -19801   -19954   -20123 
  -20190   -20120   -19955   -19781   -19683   -19642   -19587   -19523 
  -19570   -19799   -20101   -20312   -20366   -20289   -20144   -20025 
  -19984   -20008   -20073   -20110   -20085   -20035   -19971   -19872 
  -19758   -19673   -19606   -19550   -19539   -19565   -19584   -19597 
  -19654   -19774   -19892   -19932   -19938   -20015   -20159   -20306 
  -20420   -20461   -20433   -20341   -20175   -19993   -19894   -19862 
  -19805   -19708   -19599   -19495   -19414   -19396   -19469   -19599 
  -19726   -19789   -19759   -19722   -19780   -19926   -20112   -20326 
  -20514   -20548   -20391   -20162   -19966   -19824   -19739   -19712 
  -19723   -19726   -19732   -19823   -19936   -19974   -19992   -19996 
  -19958   -19903   -19796   -19607   -19431   -19417   -19614   -19920 
  -20171   -20308   -20353   -20333   -20283   -20189   -19986   -19738 
  -19573   -19525   -19561   -19681   -19842   -19982   -20097   -20198 
  -20252   -20193   -20040   -19896   -19797   -19719   -19669   -19627 
  -19575   -19591   -19764   -20021   -20216   -20247   -20086   -19811 
  -19558   -19406   -19391   -19539   -19793   -20092   -20398   -20606 
  -20638   -20529   -20339   -20106   -19874   -19711   -19676   -19742 
  -19819   -19840   -19774   -19633   -19476   -19365   -19338   -19437 
  -19670   -19946   -20150   -20236   -20194   -20097   -20073   -20120 
  -20128   -20050   -19951   -19926   -19959   -19975   -19954   -19917 
  -19889   -19880   -19842   -19751   -19718   -19822   -19975   -20062 
  -20086   -20085   -20009   -19869   -19728   -19570   -19423   -19391 
  -19507   -19737   -20008   -20228   -20360   -20424   -20390   -20189 
  -19858   -19614   -19620   -19770   -19903   -19992   -20046   -20066 
  -20035   -19947   -19823   -19669   -19534   -19518   -19660   -19874 
  -20063   -20154   -20143   -20094   -20031   -19958   -19889   -19838 
  -19804   -19777   -19761   -19778   -19842   -19942   -20012   -19988 
  -19903   -19865   -19899   -19965   -20062   -20177   -20244   -20191 
  -20051   -19913   -19793   -19677   -19608   -19635   -19699   -19710 
