Origin Time       2021/08/14 22:38:00
Lat.              37.5
Long.             137.2
Depth. (km)       10
Mag.              4.1
Station Code      NIG003
Station Lat.      37.9976
Station Long.     138.3226
Station Height(m) 4
Record Time       2021/08/14 22:38:40
Sampling Freq(Hz) 100Hz
Duration Time(s)  60
Dir.              N-S
Scale Factor      7845(gal)/8223790
Max. Acc. (gal)   2.102
Last Correction   2021/08/14 22:38:39
Memo.             
[...]
    9887     9896     9871     9776     9688     9772     9918     9907 
    9817     9828     9873     9848     9810     9821     9855     9900 
    9934     9863     9724     9699     9761     9771     9818     9929 
    9937     9900     9948     9917     9729     9628     9736     9872 
    9876     9819     9830     9867     9859     9836     9805     9788 
    9845     9917     9907     9863     9880     9952     9973     9898 
    9825     9794     9699     9575     9595     9744     9907    10052 
   10085     9975     9888     9895     9867     9779     9699     9720 
    9890     9979     9788     9594     9639     9744     9805     9906 
    9996    10004     9985     9965     9910     9832     9799     9852 
    9923     9887     9741     9575     9450     9493     9749     9995 
   10044     9949     9837     9806     9841     9867     9942    10071 
   10029     9764     9572     9643     9845     9981     9980     9887 
    9838     9904     9921     9760     9585     9633     9914    10147 
   10060     9791     9661     9691     9788     9949    10014     9871 
    9765     9840     9859     9726     9659     9751     9882     9936 
    9871     9752     9761     9902     9953     9895     9892     9929 
    9940     9927     9838     9697     9657     9713     9714     9695 
    9771     9859     9880     9871     9838     9867    10046    10191 
   10066     9796     9668     9710     9771     9782     9737     9695 
    9801     9973     9956     9838     9813     9730     9587     9629 
    9810     9980    10147    10208    10072     9909     9819     9709 
    9586     9605     9763     9844     9771     9734     9818     9876 
    9856     9850     9864     9883     9977    10114    10165    10081 
    9890     9690     9540     9416     9400     9606     9948    10203 
   10166     9917     9810     9926     9934     9741     9587     9578 
    9717     9973    10100     9980     9877     9877     9792     9680 
    9678     9703     9745     9869     9929     9806     9687     9732 
    9814     9856     9965    10106    10150    10116     9985     9806 
    9779     9822     9695     9544     9580     9698     9802     9934 
   10030    10026     9976     9868     9705     9612     9637     9730 
    9857     9981    10031     9981     9894     9795     9675     9664 
    9805     9903     9884     9855     9865     9917     9927     9829 
    9749     9787     9857     9919     9984     9949     9776     9621 
    9595     9663     9788     9940    10034    10025     9938     9859 
    9832     9837     9869     9910     9907     9844     9751     9645 
    9585     9651     9821     9975    10035    10015     9979     9985 
    9995     9899     9714     9585     9556     9594     9747     9999 
   10137    10056     9906     9786     9690     9657     9660     9680 
    9802     9945     9949     9867     9826     9830     9863     9953 
   10077    10072     9855     9593     9541     9783    10061    10038 
    9825     9794     9940     9983     9875     9741     9628     9594 
    9688     9823     9949    10019     9923     9759     9744     9821 
    9848     9873     9929     9944     9852     9660     9531     9624 
    9829     9968    10030    10054    10057    10019     9902     9765 
    9710     9706     9713     9737     9772     9834     9877     9844 
    9825     9863     9821     9740     9775     9864     9950    10073 
   10112     9988     9853     9784     9730     9675     9661     9701 
    9734     9748     9765     9765     9764     9818     9894     9942 
    9958     9914     9828     9807     9894    10002    10029     9946 
    9815     9705     9655     9714     9844     9937     9940     9825 
    9672     9690     9902    10038     9942     9807     9803     9838 
    9792     9703     9684     9806     9971     9961     9784     9710 
    9845     9991     9984     9865     9736     9694     9772     9863 
    9882     9883     9925     9963     9925     9856     9840     9841 
    9795     9749     9751     9763     9726     9630     9549     9624 
    9853    10069    10183    10180    10053     9950     9984     9988 
    9848     9674     9563     9532     9617     9794     9929     9923 
    9873     9895     9922     9888     9842     9787     9668     9621 
    9809    10018     9979     9860     9867     9876     9765     9640 
    9652     9802     9946    10002    10002     9965     9876     9779 
    9767     9798     9767     9729     9732     9725     9764     9877 
    9964    10006    10052    10064     9961     9783     9695     9699 
    9679     9710     9813     9837     9849     9992    10099    10004 
    9844     9791     9818     9794     9720     9709     9740     9714 
    9679     9699     9775     9921    10075    10112    10045     9937 
    9806     9710     9683     9697     9756     9860     9925     9915 
    9868     9805     9755     9771     9887    10053    10118     9942 
    9644     9522     9632     9757     9806     9867     9945     9948 
    9865     9826     9895     9925     9815     9694     9703     9838 
    9975    10006     9941     9795     9605     9549     9738    10003 
   10149    10161    10066     9867     9649     9533     9574     9752 
    9944    10022    10010     9984     9918     9745     9572     9578 
    9763     9973    10093    10116    10065     9913     9678     9506 
    9517     9655     9761     9787     9823     9871     9856     9821 
    9821     9837     9880     9967    10046    10018     9860     9736 
    9764     9883     9980     9973     9837     9705     9722     9810 
    9803     9703     9644     9713     9887    10075    10188    10139 
    9946     9760     9671     9667     9715     9792     9884     9954 
    9949     9872     9776     9715     9721     9792     9873     9900 
    9887     9892     9914     9919     9907     9837     9686     9563 
    9583     9747     9973    10123    10068     9886     9769     9771 
    9790     9803     9815     9807     9825     9887     9894     9849 
    9845     9855     9825     9780     9745     9734     9774     9882 
   10019    10087    10037     9913     9787     9720     9734     9791 
    9814     9757     9679     9694     9828     9969     9940     9748 
    9655     9748     9818     9811     9861     9946     9956     9919 
    9898     9899     9960    10052    10084    10010     9838     9679 
    9622     9598     9593     9668     9792     9926    10035    10042 
    9985     9954     9898     9761     9639     9639     9740     9817 
    9795     9757     9788     9807     9778     9844     9971     9960 
    9855     9841     9895     9909     9882     9872     9899     9914 
    9875     9801     9756     9780     9834     9869     9891     9890 
    9850     9819     9834     9861     9853     9806     9769     9801 
    9849     9802     9702     9687     9729     9747     9796     9911 
    9990     9969     9909     9875     9860     9818     9755     9740 
    9802     9872     9902     9941     9999    10029    10042    10027 
    9906     9721     9613     9564     9508     9568     9796     9964 
    9946     9877     9841     9841     9910     9981     9945     9865 
    9873     9931     9925     9833     9741     9737     9806     9821 
    9734     9694     9809     9950     9948     9823     9728     9753 
    9856     9940     9957     9933     9909     9888     9821     9702 
    9632     9671     9745     9809     9903     9981     9945     9856 
    9832     9856     9883     9902     9906     9894     9863     9818 
    9802     9846     9903     9919     9900     9837     9709     9601 
    9659     9846     9973     9938     9788     9653     9653     9776 
    9890     9914     9888     9890     9917     9894     9848     9846 
    9864     9886     9918     9913     9850     9765     9722     9786 
    9888     9917     9886     9845     9806     9819     9911     9973 
    9917     9799     9752     9830     9940     9898     9710     9599 
    9661     9784     9871     9876     9809     9759     9760     9776 
    9809     9865     9917     9933     9906     9863     9819     9795 
    9809     9832     9861     9891     9882     9859     9838     9795 
    9796     9872     9945     9994    10018     9958     9810     9674 
    9644     9698     9738     9765     9849     9968    10019     9956 
    9859     9828     9829     9776     9705     9709     9768     9826 
    9903    10015    10066    10002     9864     9694     9609     9682 
    9778     9799     9823     9857     9828     9768     9776     9828 
    9861     9938    10057    10064     9929     9761     9652     9676 
    9795     9846     9857     9963    10075    10064     9954     9805 
    9707     9718     9782     9823     9799     9722     9656     9657 
    9757     9909     9972     9927     9896     9906     9863     9771 
    9753     9837     9890     9819     9706     9697     9798     9911 
    9996    10044     9999     9873     9784     9778     9776     9768 
    9819     9907     9938     9876     9779     9734     9741     9747 
    9772     9833     9907     9958     9946     9883     9832     9823 
    9813     9765     9745     9813     9903     9930     9922     9934 
    9895     9737     9599     9659     9855     9979     9972     9936 
    9915     9864     9794     9771     9819     9917     9983     9937 
    9828     9760     9745     9745     9752     9778     9819     9840 
    9826     9811     9819     9837     9825     9803     9819     9846 
    9868     9929    10002     9992     9876     9748     9679     9688 
    9787     9921     9994     9965     9846     9724     9682     9724 
    9828     9950    10018     9994     9945     9944     9914     9753 
    9548     9502     9691     9931    10011     9964     9872     9751 
    9713     9806     9879     9887     9956    10034     9940     9765 
    9715     9768     9822     9860     9875     9860     9853     9860 
    9795     9668     9652     9769     9849     9840     9826     9852 
    9911     9963     9952     9938     9967     9925     9814     9772 
    9742     9661     9687     9821     9864     9822     9845     9961 
   10081    10066     9873     9668     9612     9678     9788     9882 
    9892     9834     9798     9828     9895     9934     9900     9848 
    9871     9929     9922     9844     9724     9626     9637     9742 
    9888    10018    10060     9990     9830     9664     9618     9702 
    9817     9950    10087    10081     9913     9745     9656     9620 
    9648     9726     9833     9968    10062    10017     9877     9782 
    9783     9860     9923     9873     9748     9678     9706     9825 
    9971    10011     9940     9871     9828     9772     9726     9699 
    9686     9756     9945    10089    10022     9842     9729     9711 
    9787     9940    10026     9941     9802     9730     9690     9706 
    9852     9981     9915     9745     9667     9737     9872     9967 
    9983     9923     9860     9871     9860     9748     9682     9760 
    9886     9926     9844     9752     9742     9796     9891     9961 
    9918     9823     9819     9930    10033    10039     9952     9764 
    9551     9466     9572     9823    10049    10057     9913     9837 
    9855     9877     9861     9810     9761     9711     9676     9744 
    9882     9942     9907     9899     9960     9965     9823     9684 
    9737     9896     9941     9838     9706     9637     9703     9898 
   10104    10203    10099     9836     9644     9655     9757     9883 
   10003    10003     9848     9641     9486     9450     9575     9801 
    9998    10079    10035     9937     9877     9872     9849     9805 
    9834     9945     9998     9917     9759     9602     9524     9578 
    9713     9857     9983    10014     9936     9890     9979    10044 
    9918     9749     9725     9801     9872     9891     9849     9849 
    9925     9919     9764     9607     9616     9799    10023    10123 
   10046     9855     9713     9757     9864     9818     9632     9510 
    9605     9846    10035    10042     9917     9837     9855     9872 
    9884     9890     9822     9722     9691     9769     9915     9990 
    9915     9755     9652     9699     9817     9906     9971    10037 
   10088    10035     9830     9578     9448     9598     9910    10057 
   10010     9965     9973    10041    10131    10098     9888     9632 
    9460     9447     9602     9765     9768     9676     9622     9659 
    9811     9965     9938     9826     9859    10025    10126    10015 
    9776     9674     9772     9900     9987    10012     9886     9679 
    9559     9497     9443     9448     9504     9594     9791    10115 
   10473    10669    10447     9786     9165     9182     9844    10571 
   10831    10539    10027     9683     9634     9801    10035    10185 
   10045     9549     9054     8934     9142     9520     9980    10357 
   10478    10273     9891     9701     9833     9944     9678     9061 
    8448     8320     8915    10044    11233    11971    11951    11213 
   10022     8703     7740     7711     8733    10199    11176    11099 
   10297     9585     9424     9763    10262    10584    10650    10474 
    9976     9282     8787     8791     9251     9861    10331    10588 
   10588    10276     9886     9730     9786     9814     9655     9370 
    9088     8752     8552     9059    10265    11350    11689    11254 
   10320     9494     9362     9687     9711     9131     8333     8149 
    9174    10903    12042    11793    10557     9409     9140     9718 
   10354    10199     9292     8488     8487     9296    10349    10926 
   10771    10176     9544     9119     9072     9371     9566     9404 
    9312     9664    10274    10770    10886    10586    10131     9805 
    9651     9601     9572     9421     9175     9112     9414     9976 
   10504    10752    10686    10351     9796     9288     9181     9417 
    9671     9838     9856     9613     9390     9629    10276    10816 
   10821    10382    10000    10069    10438    10534    10025     9171 
    8488     8383     8955     9744    10147    10120     9906     9580 
    9329     9451     9902    10369    10712    10948    10883    10234 
    9181     8290     7993     8525     9788    11061    11496    10914 
    9890     9234     9258     9594     9860    10044    10087     9769 
    9246     9111     9595    10276    10702    10755    10512    10183 
    9917     9610     9144     8776     8953     9632    10235    10454 
   10451    10251     9811     9460     9540     9907    10146     9944 
    9401     9100     9400     9938    10245    10212     9918     9664 
    9821    10243    10463    10311     9879     9382     9200     9506 
   10014    10354    10331     9956     9445     9074     9124     9698 
   10399    10732    10671    10397     9899     9171     8525     8397 
    8792     9320     9765    10152    10409    10476    10451    10449 
   10469    10431    10168     9657     9271     9364     9737     9929 
    9791     9505     9288     9290     9660    10307    10837    10970 
   10697    10130     9493     9043     8938     9153     9567    10089 
   10613    10886    10633     9840     8977     8689     9007     9463 
    9906    10389    10716    10686    10219     9413     8789     8831 
    9437    10188    10709    10859    10798    10678    10382     9765 
    8926     8321     8434     9084     9647    10038    10492    10833 
   10746    10253     9652     9321     9477     9918    10200    10108 
    9691     9130     8829     9101     9752    10424    10879    10862 
   10345     9626     8984     8606     8668     9146     9775    10314 
   10667    10840    10840    10636    10166     9464     8808     8638 
    9116     9929    10573    10702    10334     9850     9649     9741 
    9852     9791     9589     9431     9462     9598     9683     9705 
    9738     9867    10129    10404    10442    10138     9682     9333 
    9271     9583    10045    10296    10328    10297    10114     9745 
    9540     9776    10215    10395    10122     9528     8939     8695 
    8931     9505    10104    10470    10548    10426    10237    10106 
    9980     9747     9518     9420     9439     9603     9865    10037 
   10068    10030     9961     9950     9996     9957     9841     9771 
    9693     9572     9539     9614     9734     9934    10141    10131 
    9875     9537     9252     9178     9409     9725     9879     9968 
   10110    10129     9945     9844    10087    10534    10713    10341 
    9701     9269     9163     9293     9595     9963    10204    10199 
   10034     9891     9813     9845    10012    10139    10083     9921 
    9807     9852    10007    10004     9686     9278     9066     9074 
    9271     9663    10077    10345    10482    10438    10169     9845 
    9618     9533     9655     9938    10177    10197     9961     9582 
    9354     9482     9765     9899     9861     9690     9405     9248 
    9409     9744    10056    10257    10335    10409    10513    10530 
   10450    10347    10154     9767     9279     8926     8842     9028 
    9472    10087    10586    10636    10191     9599     9269     9283 
    9485     9698     9787     9738     9728     9868     9984     9907 
    9745     9709     9861    10079    10158    10053     9902     9828 
    9848     9892     9907     9936     9992    10003     9896     9691 
    9528     9567     9774     9967    10056    10002     9803     9636 
    9610     9595     9562     9628     9779     9934    10041    10002 
    9845     9759     9796     9907    10147    10480    10687    10619 
   10261     9741     9313     9169     9344     9730    10084    10188 
   10015     9732     9509     9331     9163     9205     9553     9945 
   10150    10164    10010     9782     9653     9690     9846    10004 
   10048    10018    10019    10044    10000     9876     9794     9825 
    9887     9896     9836     9720     9617     9594     9651     9780 
    9961    10106    10153    10112     9981     9760     9533     9432 
    9460     9482     9459     9498     9671     9933    10177    10359 
   10462    10370    10073     9792     9705     9822     9976     9927 
    9679     9436     9359     9474     9621     9693     9834    10088 
   10210    10057     9794     9629     9606     9728     9954    10056 
    9914     9748     9713     9768     9944    10195    10336    10334 
   10243    10029     9691     9359     9232     9431     9810    10137 
   10288    10206     9973     9787     9703     9625     9509     9441 
    9506     9668     9861    10021    10012     9829     9691     9763 
    9979    10189    10237    10048     9764     9589     9585     9711 
    9914    10079    10056     9867     9706     9663     9699     9782 
    9856     9894     9903     9823     9649     9552     9589     9634 
    9688     9830     9945     9875     9694     9571     9572     9726 
   10030    10362    10543    10476    10270    10110     9992     9787 
    9520     9358     9383     9512     9625     9713     9810     9855 
    9778     9656     9664     9845    10071    10184    10102     9880 
    9682     9632     9725     9892    10066    10180    10215    10187 
   10085     9941     9826     9756     9687     9593     9522     9589 
    9775     9934    10039    10141    10191    10114     9936     9757 
