Origin Time       2021/08/14 22:38:00
Lat.              37.5
Long.             137.2
Depth. (km)       10
Mag.              4.1
Station Code      NIG003
Station Lat.      37.9976
Station Long.     138.3226
Station Height(m) 4
Record Time       2021/08/14 22:38:40
Sampling Freq(Hz) 100Hz
Duration Time(s)  60
Dir.              E-W
Scale Factor      7845(gal)/8223790
Max. Acc. (gal)   1.704
Last Correction   2021/08/14 22:38:39
Memo.             
[...]
   28530    28588    28597    28588    28622    28593    28491    28458 
   28478    28483    28536    28594    28586    28595    28628    28568 
   28471    28480    28568    28611    28579    28536    28529    28526 
   28493    28451    28447    28524    28647    28692    28647    28594 
   28543    28474    28449    28482    28495    28495    28556    28647 
   28645    28567    28541    28560    28559    28561    28566    28553 
   28575    28598    28528    28398    28350    28390    28431    28491 
   28628    28748    28771    28744    28682    28560    28447    28404 
   28393    28404    28485    28607    28663    28625    28579    28583 
   28648    28752    28783    28686    28588    28560    28497    28379 
   28296    28297    28394    28536    28614    28595    28540    28490 
   28453    28452    28494    28528    28524    28552    28655    28744 
   28718    28615    28536    28516    28510    28463    28435    28530 
   28637    28553    28372    28345    28482    28620    28683    28726 
   28799    28853    28761    28521    28309    28271    28398    28547 
   28572    28539    28590    28656    28617    28522    28441    28398 
   28472    28657    28756    28692    28614    28547    28432    28381 
   28444    28513    28594    28656    28539    28333    28293    28398 
   28506    28587    28636    28625    28620    28679    28694    28584 
   28506    28561    28638    28647    28615    28571    28534    28533 
   28505    28417    28393    28498    28599    28607    28559    28491 
   28447    28483    28543    28541    28556    28657    28759    28780 
   28694    28520    28398    28385    28398    28420    28466    28516 
   28613    28786    28864    28714    28480    28351    28341    28394 
   28479    28590    28674    28684    28649    28540    28402    28398 
   28512    28588    28580    28518    28491    28541    28557    28499 
   28472    28529    28653    28825    28942    28873    28632    28345 
   28124    28053    28155    28372    28657    28929    29010    28831 
   28593    28472    28420    28410    28529    28668    28649    28559 
   28518    28460    28372    28363    28458    28593    28687    28659 
   28579    28583    28583    28491    28456    28507    28553    28611 
   28665    28668    28615    28520    28478    28521    28510    28436 
   28425    28464    28476    28520    28609    28636    28606    28618 
   28641    28611    28571    28551    28502    28441    28444    28460 
   28445    28507    28656    28710    28645    28613    28611    28556 
   28503    28526    28564    28537    28466    28428    28458    28525 
   28602    28649    28610    28536    28520    28534    28536    28574 
   28661    28699    28644    28553    28441    28337    28359    28497 
   28597    28599    28514    28421    28447    28536    28567    28591 
   28641    28679    28692    28603    28436    28409    28524    28582 
   28615    28672    28640    28552    28518    28495    28460    28470 
   28534    28595    28611    28571    28486    28464    28578    28701 
   28690    28621    28607    28574    28447    28345    28343    28387 
   28474    28557    28575    28607    28672    28644    28557    28545 
   28593    28647    28651    28574    28479    28386    28323    28425 
   28609    28641    28591    28605    28606    28586    28607    28614 
   28572    28541    28514    28452    28414    28482    28591    28620 
   28582    28568    28575    28575    28575    28544    28462    28397 
   28372    28389    28521    28688    28728    28669    28597    28497 
   28418    28443    28575    28718    28711    28556    28453    28480 
   28548    28628    28676    28599    28447    28343    28335    28443 
   28597    28642    28591    28571    28588    28606    28647    28680 
   28630    28528    28495    28543    28530    28453    28451    28533 
   28571    28486    28354    28339    28525    28790    28923    28877 
   28798    28779    28730    28505    28217    28156    28281    28336 
   28341    28439    28563    28647    28717    28740    28699    28630 
   28501    28340    28290    28386    28526    28617    28634    28605 
   28588    28634    28702    28711    28674    28642    28599    28503 
   28404    28386    28453    28547    28629    28671    28613    28453 
   28316    28324    28485    28668    28726    28663    28580    28509 
   28426    28344    28312    28393    28574    28764    28903    28931 
   28802    28610    28487    28437    28390    28336    28306    28312 
   28386    28529    28680    28786    28818    28764    28701    28705 
   28683    28509    28289    28221    28275    28331    28433    28588 
   28671    28655    28633    28618    28557    28514    28576    28661 
   28695    28713    28690    28598    28505    28468    28478    28487 
   28490    28480    28408    28331    28362    28439    28490    28574 
   28667    28671    28629    28628    28661    28665    28602    28533 
   28505    28458    28424    28494    28601    28634    28613    28580 
   28559    28610    28726    28749    28614    28462    28371    28321 
   28335    28435    28549    28603    28605    28575    28552    28597 
   28675    28675    28615    28578    28567    28584    28605    28536 
   28431    28436    28489    28471    28462    28529    28613    28682 
   28730    28706    28595    28486    28439    28413    28381    28408 
   28512    28555    28494    28487    28586    28659    28652    28607 
   28548    28499    28480    28513    28572    28603    28618    28610 
   28551    28516    28543    28543    28510    28524    28557    28549 
   28564    28649    28705    28633    28495    28414    28426    28486 
   28553    28583    28521    28424    28402    28463    28529    28559 
   28564    28602    28683    28710    28640    28588    28602    28591 
   28526    28491    28518    28551    28544    28536    28540    28530 
   28529    28560    28580    28524    28421    28401    28485    28559 
   28590    28624    28647    28629    28570    28503    28507    28593 
   28657    28652    28599    28489    28370    28383    28485    28524 
   28537    28603    28641    28582    28501    28480    28536    28632 
   28688    28675    28622    28532    28452    28471    28545    28561 
   28518    28479    28489    28537    28605    28671    28660    28552 
   28478    28512    28564    28561    28518    28455    28414    28432 
   28460    28458    28497    28648    28803    28814    28710    28620 
   28563    28507    28466    28424    28371    28386    28521    28674 
   28696    28588    28478    28441    28443    28470    28551    28626 
   28599    28514    28460    28447    28517    28719    28908    28890 
   28703    28497    28327    28233    28281    28433    28607    28733 
   28742    28615    28444    28390    28483    28579    28567    28498 
   28468    28483    28505    28566    28672    28718    28661    28580 
   28530    28501    28489    28487    28483    28501    28549    28587 
   28598    28603    28583    28555    28584    28641    28645    28620 
   28603    28540    28421    28358    28409    28494    28543    28564 
   28568    28544    28505    28501    28557    28613    28598    28564 
   28593    28653    28661    28603    28541    28495    28456    28472 
   28539    28544    28480    28448    28470    28536    28648    28740 
   28750    28679    28545    28413    28337    28328    28408    28555 
   28653    28668    28651    28609    28548    28494    28463    28475 
   28556    28637    28661    28661    28621    28524    28448    28449 
   28530    28628    28611    28513    28480    28506    28517    28522 
   28524    28512    28520    28580    28665    28684    28607    28520 
   28485    28463    28437    28458    28539    28629    28682    28714 
   28707    28598    28456    28405    28420    28440    28506    28624 
   28678    28601    28470    28389    28391    28449    28507    28566 
   28651    28709    28679    28590    28497    28437    28470    28617 
   28784    28807    28669    28526    28483    28474    28409    28345 
   28381    28467    28529    28574    28613    28649    28668    28636 
   28576    28548    28533    28478    28422    28453    28543    28576 
   28548    28548    28611    28682    28663    28552    28468    28470 
   28489    28478    28464    28467    28482    28539    28656    28749 
   28730    28625    28513    28463    28485    28506    28486    28470 
   28512    28591    28641    28630    28586    28556    28560    28575 
   28570    28543    28528    28549    28557    28493    28414    28409 
   28470    28564    28656    28687    28641    28575    28544    28553 
   28537    28476    28460    28520    28613    28722    28777    28694 
   28525    28395    28363    28405    28474    28530    28537    28493 
   28443    28424    28468    28591    28710    28741    28742    28736 
   28633    28464    28375    28366    28350    28360    28439    28567 
   28698    28763    28726    28640    28584    28582    28583    28571 
   28571    28583    28586    28560    28534    28529    28498    28449 
   28464    28522    28532    28499    28518    28582    28591    28539 
   28475    28426    28449    28579    28715    28742    28668    28552 
   28466    28476    28536    28549    28524    28490    28458    28460 
   28471    28437    28435    28564    28742    28815    28753    28644 
   28566    28537    28529    28509    28503    28543    28575    28533 
   28451    28429    28490    28556    28571    28560    28551    28568 
   28605    28611    28580    28539    28522    28584    28698    28734 
   28663    28567    28494    28428    28378    28381    28421    28455 
   28494    28557    28622    28665    28669    28607    28499    28395 
   28352    28422    28575    28678    28656    28575    28539    28566 
   28588    28590    28614    28656    28663    28620    28553    28506 
   28486    28466    28426    28398    28447    28545    28578    28536 
   28506    28487    28486    28559    28636    28613    28583    28644 
   28680    28638    28606    28571    28478    28420    28462    28514 
   28525    28561    28644    28691    28656    28561    28485    28497 
   28522    28474    28458    28524    28551    28509    28485    28506 
   28543    28549    28541    28579    28626    28611    28571    28566 
   28610    28651    28610    28517    28499    28568    28583    28502 
   28468    28549    28628    28632    28594    28552    28513    28476 
   28452    28428    28421    28471    28561    28607    28602    28628 
   28690    28713    28698    28649    28520    28359    28281    28316 
   28429    28587    28721    28748    28674    28571    28444    28305 
   28278    28431    28633    28718    28675    28605    28572    28614 
   28702    28709    28595    28472    28417    28428    28456    28464 
   28476    28530    28613    28668    28675    28655    28656    28668 
   28617    28497    28382    28344    28394    28443    28424    28410 
   28474    28574    28661    28715    28722    28707    28684    28633 
   28572    28491    28406    28420    28506    28525    28495    28502 
   28553    28637    28717    28740    28698    28606    28472    28345 
   28320    28389    28468    28547    28626    28680    28675    28575 
   28467    28463    28489    28494    28533    28520    28397    28385 
   28574    28769    28830    28765    28648    28551    28491    28470 
   28458    28406    28351    28368    28472    28613    28706    28711 
   28713    28752    28718    28566    28432    28404    28425    28417 
   28386    28425    28533    28597    28609    28634    28626    28579 
   28590    28640    28649    28629    28591    28526    28471    28451 
   28453    28459    28452    28467    28513    28556    28564    28532 
   28494    28521    28568    28545    28530    28609    28688    28714 
   28709    28668    28625    28564    28421    28320    28406    28518 
   28489    28444    28532    28671    28730    28695    28591    28414 
   28275    28314    28452    28591    28772    28885    28761    28536 
   28435    28414    28395    28445    28560    28638    28690    28728 
   28699    28614    28517    28431    28420    28506    28570    28544 
   28526    28529    28470    28354    28285    28406    28688    28891 
   28907    28818    28671    28497    28378    28371    28439    28470 
   28428    28412    28501    28570    28547    28621    28780    28740 
   28491    28282    28219    28291    28449    28588    28660    28675 
   28634    28551    28521    28599    28718    28779    28756    28714 
   28655    28501    28355    28416    28614    28695    28579    28394 
   28259    28204    28220    28302    28436    28587    28759    28965 
   29131    29178    29141    29058    28884    28593    28309    28151 
   28090    28190    28536    28908    29015    28821    28416    27958 
   27762    28016    28466    28752    28771    28517    28047    27623 
   27513    27750    28250    28879    29392    29593    29515    29273 
   28993    28765    28556    28324    28081    27835    27695    27869 
   28479    29377    30078    30049    29228    28089    27230    27070 
   27653    28576    29276    29416    29008    28367    27939    28032 
   28625    29330    29632    29347    28745    28174    27757    27490 
   27418    27677    28324    29131    29687    29662    29008    28186 
   27807    27990    28507    29087    29371    29218    28867    28549 
   28333    28220    28057    27746    27460    27425    27793    28609 
   29585    30233    30334    30005    29458    28838    28104    27276 
   26796    27108    27876    28355    28432    28528    28790    29139 
   29452    29438    28993    28401    27953    27822    27999    28235 
   28379    28582    28917    29115    29003    28804    28632    28290 
   27936    28065    28734    29436    29681    29316    28556    27903 
   27715    27874    28155    28547    28865    28734    28246    27911 
   27916    28123    28533    29154    29701    29771    29238    28455 
   27926    27843    28074    28355    28447    28324    28248    28483 
   28921    29141    28890    28451    28363    28695    28960    28822 
   28428    28075    28015    28286    28593    28665    28563    28453 
   28537    28787    28803    28510    28320    28317    28264    28182 
   28210    28435    28871    29322    29500    29289    28827    28460 
   28372    28377    28337    28340    28356    28367    28526    28738 
   28671    28416    28306    28305    28242    28202    28345    28644 
   28945    29097    29000    28674    28263    27905    27716    27862 
   28372    28985    29409    29593    29494    28961    28155    27623 
   27669    28163    28899    29535    29567    28858    27853    27122 
   26954    27317    28102    29160    30057    30267    29797    29226 
   28899    28615    28146    27637    27432    27715    28289    28750 
   28921    28923    28903    28853    28690    28287    27697    27429 
   27961    28977    29635    29542    29029    28533    28231    28159 
   28250    28331    28300    28152    27984    28043    28474    29060 
   29501    29687    29547    29056    28387    27892    27832    28040 
   28096    27942    27851    27934    28151    28540    29066    29570 
   29891    29812    29207    28328    27587    27249    27456    28169 
   29023    29511    29443    29061    28642    28356    28270    28217 
   28039    27961    28232    28640    28885    28977    28915    28665 
   28428    28356    28366    28412    28483    28575    28767    28979 
   28954    28663    28317    28100    28139    28501    28938    29046 
   28775    28348    27959    27834    28115    28620    29112    29466 
   29532    29284    28860    28475    28327    28263    27973    27614 
   27554    27816    28251    28777    29273    29509    29303    28767 
   28269    28063    28128    28341    28582    28718    28679    28459 
   28128    27888    27966    28435    29107    29573    29520    29043 
   28426    27934    27746    27893    28310    28865    29296    29384 
   29134    28683    28120    27604    27510    27972    28575    28918 
   29069    29216    29253    29015    28649    28359    28139    27997 
   28042    28278    28632    28979    29104    28919    28606    28372 
   28286    28337    28482    28620    28644    28557    28474    28509 
   28609    28568    28345    28185    28263    28441    28517    28548 
   28657    28755    28759    28761    28783    28784    28769    28709 
   28568    28420    28331    28310    28382    28522    28641    28717 
   28764    28705    28567    28525    28579    28560    28336    27919 
   27608    27695    28019    28377    28873    29435    29678    29450 
   28933    28429    28221    28306    28381    28300    28228    28279 
   28352    28371    28378    28398    28475    28706    29026    29207 
   29154    28952    28664    28398    28312    28402    28587    28815 
   28881    28576    28124    27959    28156    28487    28753    28869 
   28849    28783    28668    28470    28273    28169    28156    28262 
   28422    28443    28402    28607    29014    29299    29299    29058 
   28763    28575    28464    28332    28192    28070    27958    27903 
   27989    28209    28479    28734    28899    28852    28575    28270 
   28205    28448    28779    28890    28757    28617    28566    28493 
   28428    28520    28721    28850    28800    28579    28296    28082 
   28073    28340    28734    28999    29047    28995    28950    28860 
   28641    28426    28390    28448    28452    28426    28424    28431 
   28420    28327    28183    28224    28529    28868    29097    29155 
   28879    28385    28057    28021    28189    28520    28912    29133 
   29025    28695    28391    28270    28328    28449    28526    28563 
   28605    28617    28520    28350    28246    28283    28398    28507 
   28613    28717    28728    28606    28476    28416    28343    28242 
   28252    28418    28648    28894    29154    29323    29222    28848 
   28389    28009    27831    27939    28224    28514    28783    28979 
   28979    28799    28556    28364    28364    28560    28723    28675 
   28459    28231    28111    28125    28251    28476    28671    28672 
   28556    28507    28547    28552    28455    28377    28458    28634 
   28756    28787    28802    28872    28962    28946    28757    28507 
   28368    28362    28414    28553    28740    28796    28682    28521 
   28410    28371    28352    28312    28290    28281    28229    28228 
   28433    28773    28964    28876    28690    28617    28657    28710 
   28769    28826    28746    28453    28102    27889    27920    28204 
   28579    28872    29052    29079    28911    28669    28522    28475 
   28422    28314    28194    28148    28255    28506    28768    28904 
   28844    28584    28271    28129    28227    28441    28648    28784 
   28844    28842    28822    28825    28823    28776    28699    28540 
   28300    28209    28355    28483    28402    28194    28046    28102 
   28406    28842    29191    29300    29162    28869    28564    28366 
   28297    28314    28410    28566    28637    28549    28459    28487 
   28593    28714    28807    28815    28705    28485    28274    28189 
   28223    28287    28298    28250    28278    28495    28819    29033 
   28999    28826    28705    28584    28327    28073    28107    28431 
