Origin Time       2021/08/14 22:38:00
Lat.              37.5
Long.             137.2
Depth. (km)       10
Mag.              4.1
Station Code      NIGH18
Station Lat.      36.9425
Station Long.     138.2594
Station Height(m) 130
Record Time       2021/08/14 22:38:27
Sampling Freq(Hz) 100Hz
Duration Time(s)  120
Dir.              3
Scale Factor      3923(gal)/8224838
Max. Acc. (gal)   0.151
Last Correction   2021/08/14 22:38:27
Memo.             
[...]
   -1225    -1225    -1224    -1223    -1224    -1227    -1225    -1224 
   -1223    -1223    -1225    -1225    -1224    -1225    -1228    -1228 
   -1227    -1225    -1225    -1225    -1229    -1229    -1227    -1225 
   -1227    -1225    -1223    -1224    -1225    -1225    -1227    -1225 
   -1225    -1228    -1228    -1225    -1227    -1225    -1225    -1227 
   -1225    -1224    -1227    -1229    -1227    -1221    -1223    -1225 
   -1224    -1224    -1227    -1227    -1224    -1224    -1225    -1225 
   -1228    -1228    -1228    -1228    -1224    -1224    -1227    -1228 
   -1231    -1229    -1225    -1227    -1227    -1224    -1225    -1228 
   -1228    -1227    -1227    -1224    -1224    -1228    -1228    -1224 
   -1225    -1225    -1224    -1228    -1229    -1224    -1225    -1228 
   -1223    -1223    -1228    -1225    -1223    -1224    -1225    -1225 
   -1225    -1225    -1225    -1228    -1228    -1225    -1225    -1227 
   -1225    -1227    -1229    -1229    -1227    -1224    -1227    -1227 
   -1225    -1228    -1228    -1227    -1225    -1227    -1229    -1228 
   -1225    -1228    -1227    -1225    -1229    -1231    -1225    -1224 
   -1225    -1224    -1224    -1227    -1228    -1224    -1223    -1228 
   -1228    -1224    -1229    -1232    -1225    -1223    -1225    -1227 
   -1229    -1229    -1229    -1229    -1225    -1223    -1224    -1225 
   -1225    -1224    -1225    -1229    -1229    -1223    -1224    -1227 
   -1225    -1227    -1231    -1228    -1225    -1225    -1227    -1228 
   -1227    -1227    -1228    -1225    -1227    -1227    -1227    -1228 
   -1225    -1223    -1227    -1227    -1228    -1228    -1225    -1227 
   -1225    -1224    -1225    -1227    -1225    -1225    -1225    -1225 
   -1223    -1224    -1227    -1225    -1227    -1229    -1229    -1227 
   -1225    -1225    -1225    -1224    -1225    -1227    -1225    -1225 
   -1228    -1229    -1227    -1225    -1227    -1228    -1225    -1224 
   -1225    -1225    -1227    -1228    -1227    -1224    -1227    -1227 
   -1227    -1228    -1225    -1227    -1228    -1227    -1227    -1227 
   -1225    -1224    -1223    -1225    -1227    -1227    -1227    -1227 
   -1224    -1225    -1228    -1227    -1227    -1228    -1225    -1227 
   -1228    -1223    -1221    -1223    -1223    -1224    -1227    -1224 
   -1223    -1225    -1227    -1227    -1225    -1224    -1227    -1225 
   -1224    -1224    -1223    -1224    -1227    -1225    -1225    -1228 
   -1225    -1224    -1228    -1228    -1225    -1224    -1228    -1228 
   -1227    -1228    -1228    -1224    -1225    -1228    -1228    -1228 
   -1227    -1224    -1225    -1225    -1223    -1223    -1227    -1227 
   -1227    -1227    -1227    -1227    -1225    -1224    -1224    -1223 
   -1224    -1225    -1225    -1225    -1224    -1225    -1227    -1224 
   -1225    -1224    -1223    -1227    -1228    -1227    -1228    -1225 
   -1220    -1223    -1228    -1225    -1224    -1227    -1225    -1227 
   -1227    -1225    -1227    -1227    -1227    -1229    -1227    -1221 
   -1225    -1224    -1221    -1227    -1228    -1224    -1223    -1223 
   -1224    -1225    -1227    -1225    -1224    -1225    -1229    -1229 
   -1228    -1229    -1227    -1224    -1225    -1225    -1225    -1227 
   -1227    -1223    -1224    -1228    -1228    -1224    -1224    -1228 
   -1225    -1221    -1225    -1228    -1228    -1228    -1228    -1227 
   -1227    -1227    -1225    -1224    -1224    -1227    -1231    -1228 
   -1223    -1225    -1228    -1227    -1227    -1227    -1224    -1224 
   -1225    -1228    -1228    -1227    -1227    -1227    -1225    -1225 
   -1225    -1225    -1224    -1223    -1223    -1227    -1228    -1227 
   -1227    -1224    -1225    -1227    -1225    -1224    -1228    -1228 
   -1227    -1227    -1225    -1225    -1227    -1227    -1227    -1225 
   -1225    -1227    -1225    -1225    -1225    -1225    -1225    -1225 
   -1225    -1225    -1225    -1225    -1227    -1225    -1225    -1227 
   -1227    -1228    -1228    -1224    -1223    -1225    -1223    -1223 
   -1225    -1224    -1221    -1223    -1227    -1227    -1224    -1224 
   -1223    -1224    -1228    -1229    -1231    -1227    -1223    -1227 
   -1227    -1225    -1224    -1224    -1225    -1225    -1224    -1223 
   -1223    -1225    -1227    -1225    -1225    -1225    -1223    -1225 
   -1225    -1224    -1225    -1228    -1225    -1225    -1225    -1220 
   -1223    -1228    -1227    -1228    -1228    -1227    -1225    -1227 
   -1227    -1225    -1227    -1228    -1227    -1228    -1227    -1224 
   -1225    -1229    -1229    -1229    -1228    -1227    -1225    -1225 
   -1225    -1227    -1229    -1228    -1225    -1228    -1229    -1224 
   -1223    -1227    -1225    -1227    -1231    -1229    -1227    -1227 
   -1228    -1228    -1227    -1229    -1228    -1227    -1228    -1227 
   -1225    -1227    -1225    -1227    -1228    -1227    -1228    -1231 
   -1229    -1225    -1227    -1231    -1225    -1221    -1227    -1228 
   -1224    -1224    -1225    -1225    -1224    -1225    -1227    -1225 
   -1227    -1228    -1224    -1225    -1231    -1231    -1227    -1225 
   -1227    -1228    -1225    -1224    -1227    -1225    -1224    -1228 
   -1228    -1227    -1227    -1225    -1227    -1227    -1227    -1228 
   -1228    -1228    -1228    -1225    -1225    -1228    -1227    -1225 
   -1227    -1228    -1227    -1227    -1227    -1227    -1227    -1227 
   -1227    -1228    -1227    -1224    -1224    -1227    -1231    -1229 
   -1225    -1225    -1227    -1228    -1229    -1228    -1227    -1228 
   -1228    -1227    -1227    -1225    -1224    -1225    -1228    -1228 
   -1228    -1225    -1224    -1225    -1227    -1229    -1227    -1224 
   -1227    -1229    -1228    -1227    -1227    -1225    -1224    -1227 
   -1227    -1224    -1227    -1228    -1225    -1225    -1224    -1224 
   -1228    -1228    -1228    -1228    -1227    -1225    -1228    -1229 
   -1228    -1227    -1228    -1228    -1227    -1228    -1227    -1225 
   -1228    -1228    -1228    -1228    -1225    -1227    -1227    -1224 
   -1224    -1228    -1225    -1223    -1228    -1231    -1228    -1227 
   -1227    -1228    -1228    -1225    -1225    -1228    -1229    -1227 
   -1223    -1224    -1227    -1228    -1225    -1225    -1229    -1229 
   -1227    -1225    -1227    -1228    -1227    -1224    -1225    -1228 
   -1228    -1228    -1229    -1229    -1228    -1228    -1231    -1231 
   -1229    -1229    -1229    -1228    -1229    -1231    -1229    -1227 
   -1227    -1231    -1231    -1225    -1229    -1232    -1225    -1225 
   -1229    -1225    -1225    -1228    -1227    -1225    -1227    -1227 
   -1228    -1229    -1227    -1221    -1224    -1228    -1224    -1224 
   -1227    -1227    -1224    -1227    -1227    -1224    -1224    -1227 
   -1228    -1228    -1225    -1225    -1225    -1224    -1228    -1232 
   -1231    -1229    -1231    -1227    -1225    -1228    -1228    -1225 
   -1224    -1225    -1229    -1229    -1225    -1224    -1227    -1225 
   -1224    -1225    -1225    -1225    -1221    -1223    -1228    -1227 
   -1224    -1224    -1225    -1227    -1224    -1223    -1227    -1227 
   -1225    -1228    -1228    -1227    -1228    -1228    -1225    -1224 
   -1225    -1227    -1227    -1225    -1227    -1228    -1229    -1228 
   -1228    -1229    -1228    -1227    -1227    -1227    -1225    -1227 
   -1227    -1227    -1228    -1228    -1227    -1229    -1231    -1227 
   -1224    -1225    -1228    -1231    -1227    -1223    -1227    -1229 
   -1227    -1227    -1231    -1228    -1223    -1223    -1225    -1228 
   -1228    -1227    -1228    -1229    -1231    -1229    -1225    -1223 
   -1228    -1232    -1225    -1224    -1229    -1231    -1228    -1225 
   -1227    -1227    -1227    -1228    -1228    -1227    -1227    -1228 
   -1231    -1229    -1228    -1229    -1231    -1227    -1225    -1227 
   -1225    -1228    -1229    -1229    -1227    -1225    -1225    -1225 
   -1228    -1228    -1225    -1227    -1228    -1227    -1225    -1225 
   -1225    -1224    -1225    -1231    -1231    -1225    -1227    -1229 
   -1228    -1227    -1227    -1224    -1225    -1228    -1228    -1224 
   -1224    -1227    -1229    -1228    -1225    -1228    -1231    -1229 
   -1227    -1227    -1227    -1228    -1228    -1225    -1224    -1227 
   -1227    -1227    -1227    -1229    -1227    -1224    -1227    -1227 
   -1227    -1227    -1227    -1228    -1225    -1227    -1228    -1225 
   -1224    -1225    -1228    -1228    -1228    -1231    -1229    -1225 
   -1225    -1227    -1227    -1228    -1229    -1227    -1227    -1228 
   -1227    -1223    -1224    -1225    -1224    -1228    -1232    -1228 
   -1225    -1228    -1227    -1225    -1227    -1229    -1229    -1225 
   -1224    -1227    -1227    -1227    -1225    -1225    -1228    -1229 
   -1227    -1224    -1225    -1228    -1225    -1225    -1228    -1228 
   -1225    -1224    -1227    -1227    -1224    -1225    -1227    -1225 
   -1227    -1228    -1224    -1223    -1227    -1228    -1229    -1228 
   -1224    -1227    -1229    -1224    -1223    -1224    -1227    -1229 
   -1227    -1224    -1227    -1227    -1224    -1225    -1229    -1229 
   -1227    -1224    -1228    -1229    -1228    -1227    -1228    -1227 
   -1225    -1225    -1227    -1228    -1227    -1225    -1225    -1225 
   -1228    -1229    -1228    -1227    -1227    -1227    -1228    -1229 
   -1229    -1228    -1227    -1227    -1228    -1228    -1229    -1228 
   -1227    -1227    -1225    -1225    -1227    -1225    -1227    -1231 
   -1229    -1228    -1227    -1224    -1227    -1229    -1225    -1225 
   -1227    -1227    -1228    -1228    -1227    -1228    -1228    -1228 
   -1228    -1227    -1228    -1228    -1225    -1224    -1224    -1225 
   -1225    -1227    -1231    -1227    -1223    -1225    -1227    -1227 
   -1228    -1227    -1225    -1225    -1225    -1225    -1227    -1228 
   -1227    -1227    -1229    -1227    -1225    -1228    -1228    -1225 
   -1227    -1228    -1227    -1229    -1229    -1225    -1225    -1227 
   -1225    -1228    -1227    -1224    -1228    -1227    -1225    -1228 
   -1228    -1227    -1227    -1227    -1225    -1227    -1231    -1229 
   -1227    -1228    -1228    -1228    -1227    -1227    -1227    -1228 
   -1227    -1225    -1225    -1225    -1224    -1224    -1225    -1228 
   -1229    -1228    -1224    -1223    -1225    -1229    -1229    -1227 
   -1225    -1227    -1225    -1225    -1227    -1227    -1227    -1227 
   -1228    -1228    -1227    -1224    -1223    -1225    -1228    -1225 
   -1225    -1229    -1231    -1229    -1228    -1227    -1228    -1228 
   -1225    -1225    -1228    -1228    -1223    -1224    -1225    -1224 
   -1225    -1227    -1228    -1227    -1227    -1227    -1227    -1225 
   -1227    -1227    -1228    -1228    -1225    -1224    -1227    -1227 
   -1225    -1227    -1229    -1228    -1224    -1223    -1221    -1225 
   -1228    -1228    -1225    -1223    -1224    -1224    -1224    -1223 
   -1224    -1224    -1224    -1225    -1227    -1225    -1227    -1227 
   -1227    -1227    -1224    -1225    -1228    -1228    -1225    -1227 
   -1228    -1227    -1227    -1228    -1227    -1225    -1225    -1227 
   -1227    -1227    -1225    -1223    -1223    -1227    -1228    -1224 
   -1223    -1227    -1225    -1224    -1228    -1228    -1227    -1227 
   -1227    -1228    -1225    -1223    -1227    -1227    -1224    -1225 
   -1227    -1224    -1227    -1231    -1228    -1225    -1228    -1225 
   -1225    -1227    -1227    -1225    -1224    -1225    -1228    -1225 
   -1227    -1229    -1227    -1225    -1227    -1224    -1225    -1227 
   -1225    -1223    -1224    -1225    -1228    -1228    -1225    -1227 
   -1227    -1223    -1224    -1227    -1225    -1225    -1227    -1224 
   -1224    -1227    -1228    -1228    -1231    -1231    -1229    -1225 
   -1225    -1229    -1229    -1227    -1229    -1231    -1228    -1225 
   -1225    -1227    -1227    -1224    -1225    -1229    -1224    -1221 
   -1228    -1228    -1227    -1228    -1228    -1231    -1229    -1228 
   -1229    -1229    -1224    -1221    -1231    -1236    -1231    -1232 
   -1237    -1235    -1229    -1225    -1219    -1213    -1220    -1227 
   -1232    -1237    -1240    -1237    -1232    -1231    -1229    -1220 
   -1210    -1213    -1224    -1236    -1240    -1239    -1242    -1244 
   -1242    -1240    -1231    -1223    -1227    -1228    -1223    -1227 
   -1231    -1228    -1232    -1235    -1224    -1205    -1190    -1181 
   -1182    -1189    -1202    -1217    -1231    -1242    -1244    -1235 
   -1215    -1190    -1181    -1192    -1215    -1240    -1252    -1251 
   -1243    -1240    -1242    -1251    -1259    -1247    -1224    -1221 
   -1240    -1259    -1260    -1242    -1224    -1224    -1242    -1254 
   -1237    -1201    -1170    -1167    -1196    -1219    -1215    -1210 
   -1235    -1279    -1304    -1279    -1227    -1179    -1158    -1161 
   -1166    -1171    -1196    -1250    -1309    -1335    -1304    -1251 
   -1217    -1188    -1163    -1162    -1182    -1216    -1256    -1291 
   -1314    -1309    -1266    -1220    -1189    -1165    -1151    -1163 
   -1201    -1254    -1300    -1310    -1291    -1270    -1247    -1206 
   -1161    -1142    -1156    -1178    -1193    -1208    -1210    -1190 
   -1167    -1156    -1152    -1175    -1258    -1375    -1449    -1443 
   -1364    -1242    -1112    -1013     -976    -1019    -1143    -1309 
   -1462    -1543    -1534    -1459    -1323    -1148    -1011     -969 
   -1008    -1088    -1190    -1296    -1371    -1399    -1377    -1308 
   -1215    -1140    -1097    -1078    -1094    -1156    -1217    -1235 
   -1231    -1244    -1270    -1270    -1235    -1202    -1210    -1251 
   -1281    -1264    -1209    -1158    -1152    -1206    -1286    -1333 
   -1318    -1275    -1239    -1208    -1174    -1166    -1232    -1337 
   -1382    -1339    -1269    -1221    -1183    -1143    -1102    -1069 
   -1069    -1132    -1233    -1318    -1345    -1314    -1252    -1186 
   -1139    -1119    -1115    -1131    -1188    -1270    -1323    -1310 
   -1255    -1196    -1169    -1194    -1237    -1248    -1243    -1274 
   -1333    -1355    -1314    -1250    -1197    -1158    -1125    -1123 
   -1152    -1193    -1247    -1312    -1356    -1352    -1309    -1256 
   -1192    -1119    -1086    -1113    -1183    -1267    -1324    -1324 
   -1269    -1190    -1128    -1098    -1102    -1142    -1208    -1274 
   -1314    -1309    -1274    -1252    -1260    -1270    -1247    -1198 
   -1161    -1159    -1189    -1240    -1291    -1316    -1314    -1306 
   -1293    -1242    -1155    -1096    -1105    -1154    -1208    -1247 
   -1274    -1298    -1309    -1289    -1247    -1198    -1171    -1166 
   -1174    -1196    -1223    -1248    -1273    -1275    -1246    -1198 
   -1161    -1148    -1165    -1201    -1235    -1267    -1300    -1312 
   -1289    -1248    -1215    -1197    -1186    -1181    -1193    -1221 
   -1252    -1281    -1306    -1310    -1269    -1200    -1144    -1119 
   -1128    -1183    -1260    -1309    -1316    -1306    -1290    -1250 
   -1193    -1146    -1113    -1093    -1104    -1154    -1231    -1305 
   -1350    -1356    -1339    -1309    -1256    -1183    -1131    -1109 
   -1101    -1107    -1136    -1179    -1236    -1297    -1331    -1336 
   -1327    -1297    -1250    -1192    -1138    -1116    -1139    -1188 
   -1246    -1297    -1316    -1305    -1289    -1266    -1231    -1193 
   -1165    -1161    -1190    -1237    -1273    -1291    -1289    -1256 
   -1208    -1163    -1144    -1159    -1197    -1240    -1271    -1289 
   -1282    -1240    -1188    -1158    -1155    -1162    -1174    -1201 
   -1232    -1266    -1302    -1324    -1309    -1258    -1193    -1147 
   -1136    -1156    -1190    -1220    -1251    -1287    -1316    -1320 
   -1294    -1254    -1219    -1197    -1190    -1196    -1205    -1219 
   -1247    -1287    -1313    -1305    -1264    -1217    -1179    -1146 
   -1113    -1105    -1136    -1204    -1286    -1341    -1332    -1259 
   -1170    -1111    -1090    -1112    -1165    -1225    -1283    -1336 
   -1370    -1360    -1305    -1236    -1194    -1185    -1192    -1198 
   -1202    -1213    -1242    -1260    -1242    -1196    -1162    -1163 
   -1192    -1221    -1233    -1228    -1231    -1266    -1306    -1304 
   -1244    -1169    -1124    -1111    -1123    -1166    -1212    -1246 
   -1287    -1329    -1335    -1294    -1220    -1154    -1139    -1173 
   -1216    -1255    -1293    -1318    -1317    -1291    -1250    -1205 
   -1175    -1171    -1179    -1189    -1204    -1227    -1252    -1266 
   -1259    -1235    -1206    -1174    -1136    -1115    -1132    -1183 
   -1240    -1285    -1313    -1332    -1332    -1302    -1250    -1196 
   -1156    -1138    -1146    -1186    -1244    -1302    -1345    -1358 
   -1333    -1287    -1236    -1186    -1135    -1093    -1080    -1108 
   -1175    -1248    -1290    -1296    -1267    -1229    -1217    -1224 
   -1223    -1215    -1217    -1242    -1270    -1274    -1259    -1244 
   -1229    -1212    -1202    -1202    -1208    -1221    -1244    -1273 
   -1279    -1252    -1213    -1179    -1159    -1152    -1156    -1169 
   -1197    -1239    -1275    -1291    -1286    -1267    -1244    -1221 
   -1205    -1204    -1216    -1235    -1259    -1282    -1300    -1304 
   -1296    -1275    -1237    -1190    -1162    -1158    -1171    -1201 
   -1236    -1258    -1271    -1281    -1267    -1231    -1192    -1170 
   -1174    -1186    -1197    -1210    -1227    -1235    -1237    -1240 
   -1235    -1223    -1209    -1196    -1189    -1197    -1217    -1235 
   -1240    -1239    -1233    -1224    -1212    -1196    -1188    -1197 
   -1217    -1225    -1221    -1224    -1248    -1277    -1286    -1275 
   -1247    -1213    -1194    -1196    -1205    -1220    -1243    -1274 
   -1301    -1312    -1290    -1243    -1194    -1161    -1155    -1175 
   -1204    -1223    -1225    -1219    -1219    -1233    -1250    -1254 
   -1254    -1259    -1264    -1259    -1236    -1206    -1190    -1188 
   -1186    -1181    -1177    -1189    -1216    -1231    -1231    -1233 
   -1244    -1260    -1283    -1289    -1259    -1212    -1181    -1183 
   -1213    -1246    -1266    -1271    -1264    -1252    -1251    -1255 
   -1247    -1221    -1192    -1175    -1171    -1170    -1175    -1198 
   -1235    -1269    -1271    -1240    -1202    -1174    -1163    -1170 
   -1182    -1204    -1240    -1279    -1305    -1306    -1286    -1256 
   -1231    -1208    -1188    -1178    -1188    -1213    -1244    -1262 
   -1263    -1269    -1281    -1289    -1282    -1256    -1227    -1213 
   -1210    -1204    -1197    -1200    -1213    -1228    -1232    -1220 
   -1193    -1171    -1170    -1186    -1212    -1233    -1239    -1233 
   -1228    -1221    -1215    -1206    -1193    -1196    -1220    -1247 
   -1269    -1278    -1263    -1242    -1236    -1237    -1229    -1216 
   -1213    -1227    -1243    -1243    -1228    -1213    -1217    -1233 
   -1250    -1254    -1246    -1227    -1212    -1204    -1190    -1178 
   -1181    -1202    -1240    -1273    -1279    -1266    -1248    -1236 
   -1228    -1213    -1198    -1200    -1216    -1242    -1266    -1273 
   -1262    -1239    -1216    -1204    -1202    -1208    -1216    -1217 
