Origin Time       2021/08/14 22:38:00
Lat.              37.5
Long.             137.2
Depth. (km)       10
Mag.              4.1
Station Code      NIGH18
Station Lat.      36.9425
Station Long.     138.2594
Station Height(m) 240
Record Time       2021/08/14 22:38:27
Sampling Freq(Hz) 100Hz
Duration Time(s)  120
Dir.              5
Scale Factor      7845(gal)/8223790
Max. Acc. (gal)   1.238
Last Correction   2021/08/14 22:38:27
Memo.             
[...]
   12568    12680    12781    12833    12810    12721    12627    12595 
   12611    12630    12638    12656    12676    12660    12613    12580 
   12568    12564    12586    12640    12702    12739    12756    12773 
   12772    12721    12631    12540    12483    12490    12548    12621 
   12688    12731    12739    12718    12690    12658    12603    12521 
   12440    12386    12390    12467    12599    12748    12856    12881 
   12829    12730    12631    12557    12501    12468    12486    12556 
   12663    12771    12843    12877    12865    12800    12710    12640 
   12604    12588    12567    12541    12525    12521    12519    12519 
   12528    12548    12582    12634    12712    12796    12853    12866 
   12831    12758    12668    12559    12438    12356    12351    12420 
   12525    12630    12715    12760    12771    12772    12762    12737 
   12712    12683    12642    12621    12625    12621    12594    12575 
   12576    12575    12559    12555    12586    12649    12727    12810 
   12885    12926    12903    12814    12685    12555    12438    12345 
   12295    12305    12374    12482    12594    12683    12737    12742 
   12707    12668    12657    12681    12729    12775    12804    12804 
   12764    12696    12619    12541    12474    12430    12415    12438 
   12507    12613    12727    12827    12892    12903    12861    12776 
   12657    12548    12492    12484    12505    12542    12591    12648 
   12695    12711    12687    12646    12610    12591    12587    12587 
   12602    12649    12703    12739    12752    12742    12717    12688 
   12664    12634    12590    12542    12515    12507    12514    12537 
   12563    12583    12610    12640    12664    12681    12706    12733 
   12750    12744    12703    12625    12544    12506    12515    12548 
   12595    12658    12721    12766    12793    12803    12791    12764 
   12739    12722    12696    12656    12615    12586    12555    12522 
   12501    12492    12479    12460    12453    12448    12440    12449 
   12509    12627    12776    12899    12970    12991    12960    12879 
   12758    12618    12494    12428    12425    12456    12502    12567 
   12650    12730    12780    12785    12753    12704    12656    12610 
   12584    12592    12625    12657    12679    12688    12680    12652 
   12615    12579    12561    12567    12584    12609    12629    12622 
   12603    12590    12587    12591    12599    12618    12658    12703 
   12721    12700    12668    12637    12598    12555    12533    12550 
   12604    12681    12758    12812    12827    12800    12735    12650 
   12571    12525    12529    12582    12661    12733    12775    12787 
   12761    12706    12636    12557    12471    12402    12380    12420 
   12499    12599    12687    12739    12761    12757    12711    12630 
   12555    12510    12505    12537    12603    12692    12781    12846 
   12872    12852    12784    12700    12633    12590    12557    12537 
   12532    12538    12563    12609    12664    12710    12733    12729 
   12692    12641    12614    12607    12590    12553    12515    12487 
   12478    12494    12533    12591    12652    12695    12714    12717 
   12717    12717    12712    12698    12683    12692    12730    12780 
   12819    12833    12816    12761    12667    12553    12464    12429 
   12447    12496    12559    12615    12652    12667    12661    12631 
   12588    12548    12513    12491    12492    12526    12588    12648 
   12688    12718    12738    12754    12756    12737    12714    12692 
   12675    12676    12673    12656    12654    12669    12676    12669 
   12653    12634    12622    12602    12564    12519    12496    12506 
   12544    12598    12656    12695    12714    12722    12722    12700 
   12663    12625    12600    12586    12584    12610    12642    12661 
   12679    12704    12725    12738    12742    12729    12704    12680 
   12646    12598    12555    12542    12544    12544    12549    12559 
   12580    12606    12622    12629    12636    12644    12650    12653 
   12654    12656    12654    12656    12658    12650    12638    12637 
   12641    12648    12652    12648    12644    12642    12641    12644 
   12640    12623    12613    12617    12627    12645    12672    12702 
   12726    12738    12742    12733    12704    12657    12596    12534 
   12486    12455    12451    12479    12533    12607    12685    12744 
   12779    12791    12779    12741    12679    12609    12557    12549 
   12583    12630    12669    12702    12725    12737    12727    12685 
   12623    12569    12540    12536    12545    12559    12584    12629 
   12671    12692    12688    12663    12629    12604    12582    12565 
   12569    12595    12637    12684    12715    12734    12742    12730 
   12692    12634    12568    12514    12491    12503    12541    12595 
   12664    12745    12812    12842    12835    12802    12750    12691 
   12617    12540    12492    12487    12503    12522    12553    12602 
   12648    12681    12692    12681    12663    12641    12633    12645 
   12648    12640    12637    12637    12633    12625    12609    12586 
   12573    12591    12626    12661    12692    12715    12714    12690 
   12649    12600    12561    12540    12530    12542    12582    12642 
   12712    12771    12803    12807    12780    12735    12684    12637 
   12602    12576    12560    12557    12564    12582    12621    12669 
   12703    12717    12706    12677    12636    12602    12590    12594 
   12606    12618    12618    12602    12587    12577    12559    12537 
   12533    12546    12576    12623    12672    12700    12704    12692 
   12684    12683    12680    12685    12706    12729    12734    12730 
   12725    12711    12684    12642    12595    12557    12544    12546 
   12557    12579    12611    12644    12646    12621    12587    12553 
   12541    12563    12603    12652    12710    12766    12792    12775 
   12742    12717    12688    12644    12590    12552    12538    12542 
   12563    12604    12642    12660    12669    12673    12663    12640 
   12614    12606    12618    12630    12641    12657    12667    12658 
   12633    12594    12553    12533    12544    12590    12653    12714 
   12762    12789    12789    12762    12715    12656    12598    12560 
   12552    12565    12584    12603    12618    12631    12640    12633 
   12615    12596    12584    12587    12599    12618    12652    12683 
   12690    12679    12656    12637    12636    12640    12650    12675 
   12703    12721    12719    12696    12665    12633    12606    12599 
   12615    12653    12699    12727    12730    12711    12676    12634 
   12602    12573    12545    12529    12523    12528    12541    12565 
   12592    12617    12638    12658    12680    12696    12700    12694 
   12683    12667    12648    12629    12611    12606    12611    12613 
   12607    12600    12594    12600    12621    12644    12664    12676 
   12680    12681    12676    12673    12677    12677    12668    12658 
   12656    12661    12664    12676    12698    12706    12696    12677 
   12652    12626    12599    12564    12528    12502    12496    12503 
   12515    12550    12598    12640    12677    12703    12704    12700 
   12703    12700    12699    12695    12672    12644    12634    12631 
   12622    12613    12603    12603    12619    12648    12680    12706 
   12725    12729    12710    12681    12652    12622    12599    12582 
   12568    12564    12563    12561    12557    12550    12548    12561 
   12594    12642    12695    12742    12779    12789    12773    12745 
   12707    12667    12623    12582    12557    12557    12573    12596 
   12609    12618    12636    12652    12657    12660    12660    12652 
   12640    12623    12603    12599    12614    12629    12638    12641 
   12636    12630    12626    12622    12617    12611    12604    12602 
   12610    12626    12640    12646    12658    12671    12676    12677 
   12684    12687    12683    12676    12665    12652    12634    12611 
   12590    12577    12573    12583    12613    12641    12664    12694 
   12718    12721    12711    12696    12667    12627    12592    12576 
   12573    12572    12577    12592    12609    12631    12663    12691 
   12710    12718    12711    12685    12648    12617    12600    12588 
   12579    12584    12594    12596    12594    12594    12606    12631 
   12665    12703    12739    12761    12748    12702    12644    12586 
   12540    12515    12523    12560    12606    12641    12663    12676 
   12676    12665    12649    12630    12617    12615    12617    12607 
   12590    12588    12622    12667    12702    12734    12752    12745 
   12711    12664    12619    12592    12583    12588    12610    12645 
   12680    12708    12714    12687    12642    12604    12575    12546 
   12538    12556    12580    12613    12644    12667    12683    12685 
   12677    12663    12644    12630    12627    12633    12642    12653 
   12652    12637    12627    12630    12625    12614    12613    12622 
   12630    12641    12656    12665    12667    12658    12642    12622 
   12599    12583    12575    12580    12595    12613    12630    12648 
   12664    12669    12668    12671    12679    12681    12681    12685 
   12692    12696    12694    12675    12648    12619    12592    12576 
   12573    12580    12595    12617    12637    12657    12681    12698 
   12708    12712    12699    12669    12637    12606    12582    12572 
   12573    12582    12588    12590    12595    12610    12630    12652 
   12672    12687    12692    12700    12719    12719    12688    12650 
   12622    12596    12575    12567    12575    12587    12591    12595 
   12604    12623    12645    12663    12680    12692    12690    12671 
   12645    12618    12595    12588    12598    12626    12675    12723 
   12746    12741    12710    12657    12586    12517    12475    12461 
   12479    12522    12583    12652    12719    12765    12793    12808 
   12793    12753    12700    12649    12604    12572    12560    12577 
   12618    12656    12671    12665    12653    12631    12596    12567 
   12548    12541    12556    12579    12599    12621    12642    12669 
   12698    12708    12708    12710    12706    12695    12672    12641 
   12621    12604    12596    12613    12642    12665    12676    12679 
   12680    12681    12677    12669    12652    12623    12594    12568 
   12552    12541    12534    12540    12568    12610    12657    12708 
   12758    12798    12812    12795    12756    12703    12633    12569 
   12529    12514    12523    12540    12561    12592    12615    12622 
   12622    12622    12629    12642    12661    12681    12695    12696 
   12691    12683    12675    12671    12675    12676    12671    12652 
   12619    12586    12567    12557    12553    12548    12546    12559 
   12575    12584    12598    12631    12685    12739    12798    12852 
   12873    12849    12787    12702    12611    12528    12463    12426 
   12420    12433    12452    12464    12480    12511    12542    12576 
   12625    12675    12711    12731    12742    12741    12723    12702 
   12692    12700    12725    12756    12785    12807    12820    12827 
   12823    12800    12762    12714    12661    12615    12580    12560 
   12561    12579    12604    12638    12656    12640    12602    12571 
   12561    12561    12546    12502    12424    12329    12243    12179 
   12166    12225    12355    12533    12727    12900    13024    13070 
   13046    12981    12884    12775    12696    12681    12746    12865 
   12982    13062    13103    13095    13030    12891    12669    12382 
   12081    11840    11724    11751    11904    12145    12425    12677 
   12843    12910    12888    12804    12694    12595    12530    12515 
   12563    12652    12753    12842    12904    12935    12946    12930 
   12879    12787    12660    12507    12355    12224    12144    12147 
   12241    12398    12567    12715    12833    12922    12978    13011 
   13031    13032    13020    13007    12976    12916    12852    12795 
   12746    12699    12649    12594    12534    12467    12386    12295 
   12218    12186    12206    12253    12295    12326    12351    12366 
   12375    12398    12468    12594    12752    12916    13050    13140 
   13188    13174    13092    12958    12781    12576    12387    12259 
   12232    12322    12519    12785    13065    13294    13416    13414 
   13315    13140    12919    12687    12461    12271    12150    12102 
   12112    12148    12178    12186    12187    12197    12220    12268 
   12344    12434    12530    12626    12711    12775    12804    12800 
   12758    12661    12513    12356    12256    12259    12374    12591 
   12881    13181    13433    13609    13676    13622    13456    13208 
   12918    12636    12402    12229    12120    12069    12059    12075 
   12125    12225    12375    12572    12798    13007    13154    13213 
   13171    13042    12858    12660    12469    12309    12195    12136 
   12141    12217    12334    12447    12526    12567    12567    12549 
   12525    12482    12420    12366    12337    12364    12476    12685 
   12960    13230    13446    13574    13606    13563    13450    13261 
   13003    12704    12405    12137    11919    11767    11697    11709 
   11808    12005    12285    12600    12896    13130    13266    13293 
   13242    13150    13054    12989    12976    12996    13011    12980 
   12865    12657    12368    12033    11711    11462    11341    11365 
   11518    11778    12114    12476    12818    13105    13317    13448 
   13498    13477    13383    13228    13039    12847    12681    12568 
   12514    12509    12544    12584    12609    12626    12648    12687 
   12754    12847    12955    13053    13101    13059    12914    12683 
   12414    12170    11994    11907    11904    11978    12104    12252 
   12413    12567    12691    12781    12845    12885    12924    12980 
   13028    13046    13009    12920    12814    12718    12645    12587 
   12522    12469    12463    12501    12568    12641    12671    12633 
   12549    12455    12395    12391    12432    12496    12556    12588 
   12609    12641    12687    12750    12822    12877    12903    12923 
   12957    12984    12962    12866    12721    12575    12471    12422 
   12437    12498    12565    12625    12673    12688    12660    12582 
   12437    12241    12058    11947    11946    12067    12290    12571 
   12860    13113    13294    13383    13385    13305    13162    12977 
   12779    12595    12451    12360    12337    12372    12444    12534 
   12617    12657    12642    12582    12507    12448    12428    12483 
   12636    12861    13107    13300    13369    13277    13038    12706 
   12355    12044    11819    11705    11704    11788    11924    12082 
   12236    12380    12537    12721    12927    13140    13324    13428 
   13428    13335    13176    12995    12838    12718    12629    12563 
   12511    12478    12472    12501    12564    12665    12789    12908 
   12988    12991    12893    12707    12479    12263    12114    12075 
   12137    12268    12437    12594    12704    12762    12771    12745 
   12707    12672    12637    12599    12559    12540    12559    12625 
   12729    12841    12924    12968    12961    12904    12806    12668 
   12509    12366    12276    12253    12290    12355    12421    12476 
   12522    12568    12626    12700    12785    12868    12937    12984 
   13004    12996    12954    12881    12785    12672    12548    12429 
   12328    12258    12229    12252    12326    12438    12565    12699 
   12823    12916    12968    12970    12922    12830    12712    12596 
   12511    12469    12464    12490    12534    12582    12627    12664 
   12684    12696    12711    12725    12731    12730    12719    12696 
   12673    12661    12656    12661    12676    12680    12667    12636 
   12600    12571    12544    12517    12495    12479    12474    12463 
   12445    12425    12409    12409    12445    12513    12599    12696 
   12788    12857    12889    12883    12853    12819    12791    12787 
   12808    12835    12856    12846    12798    12725    12644    12577 
   12545    12537    12549    12575    12600    12621    12623    12599 
   12556    12510    12479    12468    12469    12482    12507    12526 
   12533    12536    12541    12568    12627    12710    12814    12924 
   13005    13047    13049    13004    12916    12789    12641    12487 
   12347    12244    12194    12205    12270    12361    12465    12568 
   12649    12703    12731    12744    12752    12757    12749    12725 
   12690    12652    12613    12582    12561    12563    12591    12636 
   12691    12744    12779    12787    12758    12699    12615    12526 
   12463    12434    12436    12472    12540    12627    12725    12807 
   12860    12884    12881    12850    12808    12765    12725    12688 
   12658    12637    12629    12634    12657    12685    12706    12707 
   12680    12625    12550    12467    12393    12344    12328    12351 
   12407    12484    12571    12648    12702    12738    12764    12775 
   12775    12764    12746    12725    12698    12671    12646    12623 
   12603    12594    12595    12602    12615    12638    12663    12684 
   12702    12708    12703    12683    12657    12626    12604    12596 
   12602    12619    12640    12644    12636    12621    12598    12573 
   12549    12517    12487    12468    12455    12451    12471    12514 
   12573    12652    12739    12822    12889    12927    12914    12860 
   12787    12711    12645    12614    12622    12648    12677    12711 
   12733    12749    12772    12792    12804    12810    12791    12748 
   12691    12621    12541    12469    12407    12351    12309    12283 
   12274    12293    12337    12403    12484    12567    12636    12685 
   12715    12726    12719    12707    12702    12702    12712    12745 
   12784    12810    12823    12820    12800    12773    12752    12737 
   12733    12744    12760    12764    12756    12738    12707    12664 
   12618    12568    12518    12483    12476    12488    12511    12542 
   12579    12610    12638    12665    12679    12681    12676    12657 
   12629    12602    12575    12545    12519    12503    12494    12488 
   12488    12496    12513    12537    12563    12588    12614    12636 
   12654    12679    12706    12731    12765    12807    12849    12887 
   12900    12881    12841    12781    12708    12644    12603    12582 
   12565    12545    12521    12491    12471    12465    12472    12488 
   12519    12557    12592    12618    12642    12665    12673    12675 
   12679    12677    12672    12667    12657    12654    12661    12675 
   12698    12723    12742    12762    12769    12754    12729    12691 
   12645    12604    12575    12552    12534    12526    12528    12528 
   12532    12553    12584    12626    12681    12734    12773    12796 
   12800    12793    12777    12748    12715    12683    12642    12598 
   12557    12519    12492    12472    12467    12476    12488    12509 
   12536    12561    12592    12622    12648    12680    12712    12730 
   12737    12726    12696    12654    12610    12572    12545    12534 
   12546    12587    12653    12729    12791    12841    12874    12872 
