Origin Time       2021/08/14 22:38:00
Lat.              37.5
Long.             137.2
Depth. (km)       10
Mag.              4.1
Station Code      NIGH18
Station Lat.      36.9425
Station Long.     138.2594
Station Height(m) 240
Record Time       2021/08/14 22:38:27
Sampling Freq(Hz) 100Hz
Duration Time(s)  120
Dir.              4
Scale Factor      7845(gal)/8223790
Max. Acc. (gal)   0.945
Last Correction   2021/08/14 22:38:27
Memo.             
[...]
  -20004   -19973   -19897   -19808   -19735   -19699   -19715   -19762 
  -19809   -19816   -19755   -19680   -19658   -19699   -19774   -19840 
  -19865   -19863   -19850   -19840   -19850   -19869   -19884   -19880 
  -19835   -19780   -19747   -19743   -19773   -19827   -19874   -19897 
  -19893   -19876   -19866   -19859   -19851   -19835   -19792   -19730 
  -19669   -19618   -19602   -19638   -19716   -19813   -19889   -19928 
  -19962   -19996   -20020   -20020   -19982   -19916   -19842   -19772 
  -19730   -19718   -19695   -19647   -19600   -19589   -19641   -19734 
  -19843   -19950   -20019   -20039   -20017   -19955   -19877   -19813 
  -19776   -19766   -19765   -19764   -19780   -19809   -19839   -19843 
  -19801   -19730   -19662   -19618   -19623   -19680   -19769   -19869 
  -19946   -19970   -19953   -19907   -19855   -19822   -19800   -19786 
  -19777   -19761   -19761   -19786   -19813   -19830   -19828   -19813 
  -19809   -19823   -19866   -19939   -19997   -20013   -19981   -19896 
  -19781   -19673   -19596   -19575   -19599   -19647   -19716   -19778 
  -19830   -19881   -19927   -19963   -19980   -19962   -19928   -19894 
  -19866   -19854   -19838   -19804   -19770   -19734   -19696   -19669 
  -19651   -19646   -19668   -19710   -19774   -19855   -19930   -19993 
  -20035   -20034   -20000   -19932   -19832   -19742   -19678   -19649 
  -19658   -19688   -19728   -19769   -19793   -19808   -19823   -19830 
  -19834   -19839   -19845   -19870   -19912   -19955   -19974   -19940 
  -19863   -19770   -19677   -19624   -19627   -19666   -19739   -19816 
  -19867   -19893   -19889   -19874   -19878   -19881   -19870   -19849 
  -19815   -19768   -19728   -19720   -19751   -19785   -19800   -19805 
  -19804   -19812   -19840   -19873   -19909   -19946   -19953   -19935 
  -19897   -19836   -19777   -19738   -19732   -19761   -19786   -19786 
  -19759   -19719   -19703   -19720   -19753   -19793   -19823   -19832 
  -19847   -19869   -19890   -19915   -19927   -19928   -19931   -19923 
  -19892   -19832   -19746   -19664   -19603   -19564   -19565   -19612 
  -19691   -19788   -19884   -19954   -19988   -19980   -19954   -19928 
  -19896   -19867   -19854   -19845   -19840   -19836   -19818   -19788 
  -19751   -19728   -19743   -19766   -19778   -19780   -19773   -19777 
  -19788   -19793   -19793   -19784   -19768   -19768   -19778   -19791 
  -19800   -19809   -19834   -19878   -19932   -19985   -20019   -20016 
  -19996   -19955   -19886   -19804   -19712   -19633   -19604   -19623 
  -19672   -19737   -19792   -19827   -19840   -19830   -19813   -19797 
  -19784   -19791   -19808   -19834   -19876   -19911   -19923   -19909 
  -19858   -19792   -19742   -19708   -19707   -19738   -19782   -19826 
  -19843   -19828   -19792   -19747   -19724   -19746   -19797   -19859 
  -19907   -19916   -19899   -19865   -19834   -19820   -19805   -19789 
  -19784   -19782   -19803   -19851   -19897   -19924   -19931   -19916 
  -19892   -19857   -19801   -19747   -19708   -19692   -19711   -19747 
  -19785   -19815   -19827   -19823   -19803   -19773   -19746   -19726 
  -19723   -19749   -19785   -19823   -19862   -19893   -19920   -19935 
  -19919   -19874   -19812   -19745   -19707   -19711   -19742   -19805 
  -19882   -19935   -19954   -19936   -19904   -19877   -19858   -19845 
  -19830   -19803   -19772   -19738   -19700   -19674   -19662   -19669 
  -19699   -19737   -19777   -19823   -19855   -19876   -19889   -19873 
  -19834   -19795   -19770   -19781   -19823   -19870   -19904   -19909 
  -19896   -19882   -19859   -19832   -19813   -19791   -19772   -19762 
  -19768   -19799   -19842   -19886   -19920   -19915   -19872   -19812 
  -19743   -19695   -19683   -19691   -19708   -19728   -19745   -19761 
  -19777   -19782   -19782   -19782   -19793   -19830   -19877   -19920 
  -19954   -19969   -19967   -19951   -19919   -19892   -19869   -19840 
  -19818   -19792   -19762   -19741   -19722   -19711   -19716   -19735 
  -19768   -19805   -19836   -19862   -19863   -19834   -19789   -19743 
  -19711   -19705   -19719   -19750   -19797   -19845   -19892   -19931 
  -19943   -19928   -19885   -19827   -19789   -19776   -19776   -19788 
  -19793   -19797   -19813   -19822   -19822   -19823   -19824   -19834 
  -19843   -19850   -19855   -19851   -19838   -19827   -19809   -19789 
  -19780   -19772   -19762   -19757   -19755   -19757   -19749   -19739 
  -19757   -19792   -19828   -19874   -19907   -19904   -19881   -19849 
  -19813   -19788   -19786   -19812   -19846   -19870   -19892   -19903 
  -19894   -19877   -19853   -19826   -19803   -19776   -19751   -19734 
  -19707   -19685   -19678   -19685   -19720   -19770   -19815   -19867 
  -19911   -19920   -19892   -19836   -19784   -19758   -19758   -19785 
  -19822   -19851   -19880   -19899   -19899   -19889   -19869   -19842 
  -19822   -19807   -19805   -19813   -19813   -19808   -19800   -19776 
  -19753   -19745   -19742   -19758   -19791   -19823   -19849   -19853 
  -19849   -19854   -19855   -19842   -19819   -19788   -19761   -19739 
  -19718   -19718   -19739   -19773   -19827   -19888   -19943   -19981 
  -19988   -19974   -19942   -19882   -19815   -19764   -19728   -19714 
  -19708   -19699   -19699   -19707   -19712   -19715   -19720   -19735 
  -19764   -19800   -19845   -19878   -19912   -19962   -19997   -20011 
  -20004   -19954   -19878   -19808   -19741   -19688   -19664   -19657 
  -19676   -19711   -19746   -19785   -19815   -19836   -19859   -19870 
  -19869   -19861   -19847   -19845   -19858   -19870   -19880   -19878 
  -19857   -19823   -19788   -19757   -19737   -19726   -19730   -19745 
  -19751   -19761   -19776   -19778   -19785   -19800   -19812   -19835 
  -19857   -19872   -19884   -19878   -19865   -19865   -19867   -19867 
  -19870   -19863   -19853   -19845   -19838   -19835   -19826   -19804 
  -19788   -19773   -19755   -19741   -19724   -19718   -19722   -19727 
  -19738   -19750   -19762   -19782   -19809   -19847   -19892   -19912 
  -19908   -19893   -19866   -19843   -19826   -19812   -19815   -19831 
  -19846   -19857   -19857   -19854   -19859   -19857   -19832   -19801 
  -19766   -19730   -19708   -19705   -19716   -19737   -19755   -19768 
  -19766   -19755   -19764   -19796   -19839   -19888   -19928   -19954 
  -19957   -19940   -19920   -19900   -19873   -19851   -19836   -19819 
  -19811   -19803   -19788   -19768   -19734   -19705   -19695   -19692 
  -19703   -19726   -19746   -19772   -19801   -19831   -19859   -19872 
  -19872   -19874   -19869   -19854   -19834   -19800   -19774   -19766 
  -19762   -19774   -19795   -19816   -19842   -19857   -19854   -19849 
  -19839   -19828   -19823   -19820   -19828   -19842   -19847   -19849 
  -19839   -19820   -19807   -19796   -19786   -19789   -19795   -19803 
  -19823   -19846   -19859   -19865   -19854   -19831   -19795   -19754 
  -19731   -19730   -19741   -19770   -19812   -19847   -19857   -19845 
  -19846   -19863   -19876   -19885   -19886   -19865   -19836   -19800 
  -19766   -19754   -19750   -19749   -19758   -19769   -19776   -19785 
  -19801   -19819   -19823   -19815   -19812   -19813   -19819   -19830 
  -19831   -19824   -19815   -19792   -19778   -19788   -19803   -19822 
  -19846   -19861   -19855   -19831   -19807   -19793   -19784   -19785 
  -19804   -19823   -19838   -19846   -19845   -19853   -19863   -19863 
  -19861   -19846   -19827   -19822   -19816   -19811   -19804   -19781 
  -19751   -19730   -19719   -19730   -19758   -19793   -19834   -19854 
  -19855   -19859   -19861   -19863   -19869   -19862   -19847   -19823 
  -19781   -19746   -19731   -19739   -19770   -19813   -19859   -19896 
  -19905   -19899   -19884   -19855   -19828   -19808   -19780   -19755 
  -19741   -19722   -19715   -19720   -19728   -19746   -19774   -19811 
  -19851   -19885   -19913   -19921   -19905   -19888   -19872   -19846 
  -19823   -19799   -19776   -19766   -19764   -19766   -19784   -19805 
  -19824   -19835   -19822   -19799   -19780   -19766   -19772   -19788 
  -19796   -19793   -19769   -19743   -19746   -19766   -19803   -19853 
  -19892   -19916   -19926   -19913   -19894   -19873   -19853   -19846 
  -19847   -19845   -19839   -19832   -19826   -19813   -19792   -19781 
  -19780   -19778   -19782   -19789   -19788   -19786   -19784   -19786 
  -19796   -19801   -19815   -19839   -19855   -19866   -19866   -19842 
  -19809   -19772   -19734   -19711   -19699   -19705   -19741   -19781 
  -19822   -19863   -19888   -19899   -19894   -19870   -19853   -19838 
  -19827   -19824   -19809   -19786   -19776   -19769   -19770   -19784 
  -19800   -19823   -19847   -19862   -19876   -19885   -19885   -19881 
  -19861   -19824   -19791   -19759   -19734   -19723   -19722   -19732 
  -19751   -19768   -19793   -19820   -19836   -19857   -19873   -19872 
  -19866   -19851   -19819   -19789   -19768   -19765   -19789   -19828 
  -19865   -19885   -19890   -19884   -19859   -19828   -19796   -19759 
  -19735   -19727   -19723   -19739   -19774   -19807   -19836   -19855 
  -19859   -19857   -19839   -19812   -19784   -19753   -19734   -19734 
  -19746   -19777   -19818   -19851   -19878   -19889   -19889   -19894 
  -19892   -19884   -19888   -19888   -19880   -19867   -19845   -19818 
  -19788   -19754   -19737   -19737   -19747   -19777   -19816   -19850 
  -19876   -19873   -19853   -19818   -19759   -19703   -19664   -19635 
  -19637   -19665   -19708   -19764   -19819   -19870   -19913   -19935 
  -19939   -19936   -19921   -19905   -19888   -19869   -19855   -19838 
  -19816   -19808   -19808   -19812   -19818   -19811   -19795   -19781 
  -19761   -19746   -19753   -19766   -19780   -19785   -19773   -19764 
  -19770   -19788   -19815   -19834   -19843   -19853   -19855   -19857 
  -19862   -19862   -19862   -19862   -19857   -19855   -19850   -19839 
  -19834   -19828   -19818   -19813   -19808   -19807   -19804   -19799 
  -19805   -19818   -19816   -19805   -19782   -19755   -19745   -19737 
  -19730   -19739   -19747   -19754   -19766   -19776   -19784   -19791 
  -19797   -19811   -19827   -19849   -19874   -19885   -19888   -19884 
  -19863   -19842   -19826   -19811   -19804   -19803   -19800   -19813 
  -19831   -19836   -19840   -19840   -19832   -19822   -19800   -19774 
  -19759   -19757   -19778   -19816   -19847   -19870   -19886   -19890 
  -19892   -19881   -19857   -19827   -19791   -19761   -19742   -19730 
  -19746   -19784   -19816   -19846   -19861   -19854   -19834   -19801 
  -19765   -19738   -19719   -19719   -19741   -19773   -19808   -19842 
  -19872   -19897   -19903   -19886   -19873   -19858   -19845   -19845 
  -19842   -19827   -19813   -19796   -19778   -19765   -19751   -19745 
  -19743   -19754   -19788   -19823   -19854   -19885   -19901   -19905 
  -19907   -19893   -19861   -19815   -19774   -19757   -19762   -19781 
  -19812   -19842   -19857   -19853   -19824   -19789   -19755   -19710 
  -19669   -19650   -19651   -19687   -19746   -19812   -19888   -19950 
  -19985   -19994   -19970   -19932   -19900   -19876   -19867   -19870 
  -19866   -19855   -19824   -19774   -19727   -19697   -19680   -19673 
  -19669   -19670   -19680   -19696   -19738   -19801   -19862   -19924 
  -19981   -20008   -20004   -19970   -19919   -19870   -19832   -19809 
  -19808   -19818   -19831   -19839   -19836   -19839   -19849   -19843 
  -19827   -19797   -19759   -19719   -19669   -19623   -19589   -19561 
  -19554   -19587   -19637   -19696   -19758   -19811   -19850   -19869 
  -19865   -19851   -19832   -19826   -19832   -19836   -19839   -19845 
  -19843   -19859   -19904   -19961   -20025   -20077   -20096   -20094 
  -20069   -20029   -19986   -19935   -19885   -19835   -19772   -19701 
  -19627   -19564   -19543   -19566   -19619   -19689   -19742   -19772 
  -19778   -19746   -19683   -19612   -19553   -19535   -19569   -19639 
  -19735   -19839   -19931   -20000   -20017   -19973   -19889   -19793 
  -19719   -19695   -19715   -19765   -19838   -19934   -20063   -20210 
  -20348   -20441   -20439   -20309   -20082   -19805   -19548   -19371 
  -19296   -19321   -19422   -19569   -19743   -19909   -20039   -20124 
  -20150   -20119   -20038   -19893   -19684   -19441   -19211   -19080 
  -19090   -19226   -19457   -19726   -19975   -20179   -20320   -20394 
  -20410   -20367   -20283   -20191   -20092   -19988   -19886   -19776 
  -19656   -19537   -19444   -19406   -19415   -19467   -19558   -19668 
  -19778   -19892   -19988   -20055   -20081   -20061   -20016   -19955 
  -19873   -19777   -19676   -19596   -19564   -19577   -19635   -19716 
  -19782   -19813   -19808   -19772   -19741   -19726   -19738   -19788 
  -19859   -19935   -20001   -20028   -19996   -19905   -19762   -19620 
  -19527   -19496   -19529   -19587   -19631   -19661   -19672   -19683 
  -19715   -19765   -19847   -19967   -20093   -20220   -20344   -20436 
  -20484   -20467   -20356   -20164   -19911   -19627   -19364   -19161 
  -19068   -19114   -19280   -19537   -19849   -20169   -20448   -20630 
  -20679   -20599   -20407   -20151   -19877   -19618   -19427   -19338 
  -19323   -19354   -19388   -19379   -19325   -19252   -19190   -19187 
  -19256   -19386   -19568   -19784   -20013   -20221   -20341   -20335 
  -20209   -19990   -19755   -19587   -19523   -19576   -19735   -19970 
  -20231   -20461   -20623   -20684   -20611   -20430   -20200   -19962 
  -19777   -19681   -19661   -19715   -19813   -19897   -19916   -19830 
  -19622   -19334   -19052   -18870   -18823   -18895   -19066   -19288 
  -19525   -19770   -20000   -20174   -20277   -20308   -20285   -20232 
  -20152   -20070   -20019   -19993   -19980   -19959   -19913   -19847 
  -19758   -19641   -19519   -19402   -19326   -19338   -19435   -19589 
  -19774   -19944   -20083   -20177   -20209   -20187   -20124   -20031 
  -19935   -19854   -19805   -19807   -19831   -19850   -19842   -19793 
  -19741   -19711   -19715   -19765   -19851   -19947   -20020   -20023 
  -19955   -19842   -19699   -19573   -19504   -19492   -19552   -19653 
  -19741   -19782   -19768   -19714   -19653   -19602   -19588   -19635 
  -19732   -19876   -20044   -20190   -20299   -20359   -20363   -20337 
  -20299   -20250   -20181   -20058   -19873   -19661   -19450   -19280 
  -19175   -19129   -19136   -19188   -19269   -19377   -19514   -19681 
  -19876   -20073   -20260   -20424   -20524   -20548   -20495   -20345 
  -20127   -19877   -19623   -19434   -19346   -19348   -19427   -19545 
  -19650   -19720   -19738   -19716   -19681   -19651   -19656   -19711 
  -19811   -19934   -20025   -20052   -20028   -19965   -19888   -19831 
  -19807   -19820   -19857   -19885   -19903   -19894   -19862   -19835 
  -19820   -19813   -19834   -19865   -19896   -19938   -19980   -20024 
  -20077   -20108   -20096   -20036   -19921   -19776   -19623   -19477 
  -19353   -19252   -19178   -19147   -19167   -19240   -19353   -19483 
  -19612   -19738   -19851   -19950   -20035   -20110   -20185   -20247 
  -20275   -20263   -20198   -20100   -20005   -19938   -19904   -19897 
  -19904   -19912   -19915   -19919   -19934   -19938   -19924   -19885 
  -19801   -19673   -19530   -19392   -19287   -19246   -19283   -19402 
  -19577   -19780   -19986   -20164   -20287   -20362   -20385   -20374 
  -20347   -20293   -20213   -20106   -19961   -19799   -19639   -19494 
  -19391   -19344   -19359   -19438   -19548   -19647   -19705   -19696 
  -19645   -19595   -19560   -19562   -19602   -19642   -19662   -19662 
  -19666   -19703   -19764   -19846   -19947   -20043   -20117   -20170 
  -20190   -20175   -20128   -20061   -19992   -19938   -19899   -19873 
  -19865   -19877   -19896   -19901   -19903   -19897   -19876   -19858 
  -19839   -19801   -19754   -19696   -19630   -19583   -19557   -19557 
  -19597   -19660   -19730   -19796   -19846   -19884   -19904   -19897 
  -19884   -19859   -19812   -19746   -19672   -19612   -19596   -19626 
  -19691   -19768   -19830   -19872   -19890   -19884   -19878   -19884 
  -19901   -19928   -19946   -19947   -19948   -19947   -19955   -19973 
  -19981   -19980   -19967   -19935   -19890   -19828   -19750   -19670 
  -19596   -19537   -19494   -19464   -19454   -19473   -19518   -19599 
  -19722   -19863   -20005   -20125   -20208   -20244   -20228   -20154 
  -20040   -19897   -19745   -19603   -19473   -19380   -19332   -19322 
  -19365   -19462   -19599   -19759   -19916   -20050   -20150   -20204 
  -20221   -20205   -20158   -20106   -20054   -19998   -19965   -19944 
  -19924   -19916   -19905   -19889   -19873   -19836   -19784   -19732 
  -19684   -19657   -19658   -19672   -19692   -19704   -19696   -19678 
  -19657   -19631   -19615   -19611   -19627   -19669   -19724   -19793 
  -19869   -19921   -19950   -19953   -19923   -19886   -19861   -19849 
  -19858   -19880   -19901   -19911   -19884   -19828   -19769   -19715 
  -19672   -19651   -19649   -19672   -19715   -19772   -19843   -19909 
  -19961   -19994   -19997   -19973   -19938   -19897   -19872   -19865 
  -19873   -19893   -19913   -19924   -19923   -19893   -19845   -19792 
  -19731   -19681   -19658   -19653   -19672   -19714   -19759   -19809 
  -19847   -19855   -19830   -19769   -19692   -19614   -19546   -19511 
  -19508   -19523   -19569   -19643   -19732   -19834   -19923   -19981 
  -20017   -20027   -20013   -19994   -19975   -19963   -19961   -19958 
  -19959   -19963   -19958   -19940   -19917   -19901   -19901   -19903 
  -19909   -19919   -19913   -19884   -19840   -19786   -19735   -19692 
  -19657   -19639   -19637   -19635   -19641   -19650   -19657   -19668 
  -19688   -19720   -19753   -19770   -19774   -19773   -19759   -19751 
  -19758   -19776   -19805   -19834   -19855   -19884   -19912   -19939 
  -19961   -19962   -19953   -19943   -19928   -19917   -19907   -19892 
  -19885   -19876   -19861   -19851   -19838   -19830   -19827   -19813 
  -19799   -19776   -19728   -19683   -19641   -19608   -19603   -19620 
  -19651   -19699   -19742   -19777   -19815   -19855   -19901   -19947 
  -19984   -20002   -19997   -19973   -19948   -19930   -19928   -19946 
  -19962   -19980   -19993   -19990   -19975   -19947   -19900   -19838 
  -19766   -19689   -19620   -19560   -19506   -19473   -19461   -19476 
  -19522   -19581   -19641   -19692   -19722   -19730   -19728   -19743 
  -19795   -19862   -19939   -20021   -20081   -20101   -20093   -20056 
  -20008   -19966   -19934   -19909   -19890   -19866   -19849   -19842 
  -19845   -19862   -19874   -19870   -19846   -19791   -19715   -19641 
  -19581   -19562   -19581   -19627   -19693   -19759   -19811   -19847 
  -19854   -19831   -19799   -19764   -19741   -19732   -19739   -19773 
  -19828   -19892   -19957   -20005   -20027   -20029   -20005   -19961 
  -19911   -19850   -19793   -19742   -19687   -19647   -19631   -19635 
  -19662   -19708   -19765   -19819   -19855   -19874   -19874   -19857 
  -19842   -19839   -19840   -19855   -19880   -19899   -19912   -19915 
  -19905   -19894   -19873   -19846   -19828   -19809   -19785   -19755 
  -19724   -19700   -19681   -19673   -19689   -19714   -19741   -19778 
  -19813   -19835   -19851   -19859   -19857   -19849   -19835   -19823 
  -19822   -19820   -19824   -19830   -19834   -19853   -19869   -19873 
  -19876   -19869   -19850   -19826   -19793   -19766   -19743   -19718 
