Origin Time       2021/08/14 22:38:00
Lat.              37.5
Long.             137.2
Depth. (km)       10
Mag.              4.1
Station Code      NIGH18
Station Lat.      36.9425
Station Long.     138.2594
Station Height(m) 240
Record Time       2021/08/14 22:38:27
Sampling Freq(Hz) 100Hz
Duration Time(s)  120
Dir.              6
Scale Factor      7845(gal)/8223790
Max. Acc. (gal)   0.519
Last Correction   2021/08/14 22:38:27
Memo.             
[...]
   -3198    -3302    -3300    -3210    -3144    -3148    -3194    -3258 
   -3295    -3261    -3152    -3003    -2926    -2988    -3132    -3261 
   -3319    -3318    -3349    -3410    -3384    -3238    -3071    -2995 
   -3002    -2995    -3006    -3103    -3227    -3323    -3376    -3343 
   -3214    -3059    -2999    -3105    -3245    -3280    -3240    -3210 
   -3215    -3206    -3156    -3137    -3165    -3165    -3109    -3048 
   -3079    -3215    -3335    -3354    -3288    -3173    -3080    -3056 
   -3080    -3129    -3168    -3181    -3199    -3225    -3242    -3258 
   -3268    -3280    -3288    -3240    -3141    -3060    -3049    -3119 
   -3204    -3218    -3161    -3084    -3034    -3030    -3065    -3156 
   -3300    -3407    -3404    -3326    -3244    -3211    -3200    -3150 
   -3072    -2990    -2913    -2899    -2990    -3160    -3337    -3433 
   -3438    -3402    -3342    -3258    -3157    -3053    -2987    -2955 
   -2945    -2995    -3106    -3252    -3388    -3447    -3435    -3395 
   -3302    -3156    -3026    -2992    -3051    -3103    -3109    -3123 
   -3165    -3204    -3223    -3208    -3179    -3150    -3122    -3136 
   -3223    -3337    -3404    -3376    -3272    -3171    -3094    -3034 
   -3019    -3061    -3123    -3160    -3142    -3110    -3109    -3129 
   -3161    -3199    -3233    -3256    -3238    -3203    -3214    -3269 
   -3321    -3329    -3267    -3163    -3061    -2990    -2983    -3048 
   -3142    -3219    -3246    -3231    -3218    -3229    -3254    -3267 
   -3248    -3227    -3218    -3180    -3106    -3056    -3107    -3250 
   -3358    -3335    -3203    -3055    -2984    -3005    -3038    -3057 
   -3090    -3154    -3250    -3334    -3346    -3291    -3202    -3137 
   -3140    -3175    -3196    -3217    -3245    -3281    -3303    -3276 
   -3202    -3115    -3067    -3072    -3090    -3094    -3098    -3113 
   -3161    -3222    -3223    -3164    -3118    -3137    -3192    -3217 
   -3198    -3183    -3192    -3225    -3280    -3303    -3249    -3160 
   -3096    -3088    -3125    -3164    -3192    -3202    -3183    -3165 
   -3163    -3142    -3105    -3086    -3136    -3245    -3312    -3300 
   -3258    -3226    -3210    -3200    -3179    -3164    -3161    -3148 
   -3103    -3042    -3038    -3136    -3253    -3306    -3287    -3230 
   -3177    -3132    -3076    -3049    -3083    -3159    -3234    -3254 
   -3238    -3265    -3321    -3349    -3325    -3249    -3153    -3069 
   -3007    -2990    -3033    -3138    -3256    -3312    -3298    -3246 
   -3194    -3175    -3157    -3082    -2995    -2979    -3049    -3177 
   -3281    -3315    -3318    -3303    -3260    -3211    -3164    -3133 
   -3134    -3154    -3190    -3221    -3227    -3238    -3252    -3235 
   -3191    -3123    -3055    -3030    -3063    -3140    -3229    -3264 
   -3237    -3199    -3179    -3186    -3186    -3160    -3145    -3148 
   -3156    -3175    -3177    -3172    -3198    -3227    -3229    -3207 
   -3180    -3175    -3180    -3186    -3215    -3258    -3281    -3277 
   -3237    -3161    -3094    -3056    -3044    -3053    -3090    -3165 
   -3250    -3296    -3296    -3245    -3168    -3132    -3144    -3157 
   -3159    -3160    -3180    -3208    -3208    -3198    -3208    -3213 
   -3181    -3113    -3046    -3048    -3110    -3179    -3221    -3235 
   -3246    -3257    -3235    -3200    -3175    -3157    -3160    -3153 
   -3118    -3117    -3179    -3273    -3341    -3314    -3218    -3123 
   -3059    -3045    -3080    -3132    -3191    -3237    -3242    -3225 
   -3215    -3223    -3230    -3211    -3195    -3196    -3179    -3134 
   -3080    -3048    -3088    -3172    -3229    -3241    -3214    -3190 
   -3211    -3240    -3235    -3217    -3204    -3206    -3180    -3106 
   -3044    -3053    -3118    -3190    -3219    -3222    -3230    -3225 
   -3213    -3223    -3226    -3194    -3153    -3137    -3161    -3198 
   -3217    -3217    -3188    -3161    -3176    -3198    -3187    -3149 
   -3102    -3091    -3126    -3165    -3199    -3231    -3269    -3306 
   -3273    -3164    -3068    -3038    -3057    -3094    -3119    -3156 
   -3219    -3275    -3302    -3303    -3294    -3291    -3271    -3213 
   -3140    -3075    -3049    -3067    -3090    -3115    -3152    -3194 
   -3245    -3288    -3310    -3308    -3271    -3217    -3169    -3109 
   -3056    -3051    -3080    -3123    -3156    -3154    -3133    -3109 
   -3102    -3148    -3227    -3289    -3312    -3288    -3242    -3211 
   -3198    -3203    -3206    -3188    -3177    -3176    -3154    -3119 
   -3088    -3091    -3152    -3223    -3250    -3227    -3180    -3160 
   -3186    -3206    -3195    -3165    -3140    -3149    -3173    -3173 
   -3161    -3164    -3187    -3204    -3187    -3146    -3133    -3169 
   -3233    -3265    -3246    -3215    -3187    -3167    -3169    -3172 
   -3171    -3184    -3200    -3199    -3188    -3175    -3172    -3175 
   -3163    -3140    -3122    -3130    -3165    -3184    -3163    -3130 
   -3113    -3142    -3200    -3225    -3211    -3200    -3214    -3250 
   -3268    -3250    -3238    -3231    -3203    -3141    -3067    -3037 
   -3073    -3129    -3188    -3215    -3183    -3145    -3150    -3184 
   -3222    -3238    -3230    -3230    -3231    -3215    -3177    -3125 
   -3115    -3164    -3210    -3230    -3229    -3221    -3225    -3221 
   -3194    -3160    -3122    -3099    -3102    -3110    -3122    -3144 
   -3161    -3181    -3192    -3180    -3164    -3159    -3181    -3227 
   -3260    -3268    -3265    -3245    -3227    -3215    -3192    -3160 
   -3127    -3109    -3126    -3165    -3199    -3210    -3187    -3161 
   -3160    -3156    -3148    -3148    -3146    -3150    -3149    -3140 
   -3157    -3196    -3233    -3271    -3276    -3240    -3192    -3145 
   -3114    -3099    -3082    -3098    -3160    -3213    -3231    -3231 
   -3234    -3248    -3238    -3190    -3142    -3126    -3144    -3163 
   -3156    -3156    -3184    -3211    -3213    -3179    -3142    -3149 
   -3179    -3191    -3175    -3145    -3163    -3227    -3262    -3249 
   -3223    -3206    -3194    -3160    -3121    -3122    -3141    -3157 
   -3181    -3188    -3163    -3127    -3110    -3144    -3199    -3219 
   -3222    -3218    -3207    -3215    -3233    -3241    -3248    -3237 
   -3211    -3191    -3153    -3105    -3075    -3082    -3125    -3176 
   -3227    -3280    -3299    -3276    -3222    -3126    -3036    -3015 
   -3045    -3100    -3169    -3218    -3245    -3257    -3252    -3237 
   -3204    -3183    -3188    -3183    -3152    -3123    -3115    -3140 
   -3164    -3157    -3146    -3148    -3148    -3160    -3176    -3206 
   -3256    -3284    -3284    -3284    -3273    -3241    -3184    -3107 
   -3049    -3034    -3060    -3129    -3200    -3241    -3265    -3265 
   -3238    -3203    -3172    -3163    -3161    -3144    -3130    -3127 
   -3126    -3134    -3149    -3192    -3262    -3291    -3258    -3206 
   -3163    -3156    -3168    -3165    -3156    -3144    -3132    -3146 
   -3169    -3180    -3188    -3194    -3202    -3210    -3210    -3225 
   -3245    -3235    -3210    -3179    -3140    -3110    -3100    -3118 
   -3164    -3195    -3199    -3200    -3200    -3196    -3173    -3130 
   -3121    -3152    -3180    -3186    -3168    -3159    -3175    -3183 
   -3173    -3171    -3172    -3187    -3217    -3237    -3237    -3223 
   -3211    -3211    -3207    -3190    -3176    -3180    -3206    -3231 
   -3210    -3161    -3126    -3110    -3117    -3133    -3141    -3163 
   -3190    -3202    -3204    -3191    -3180    -3180    -3173    -3173 
   -3192    -3203    -3202    -3188    -3169    -3161    -3153    -3144 
   -3148    -3153    -3169    -3213    -3252    -3269    -3249    -3191 
   -3161    -3167    -3153    -3126    -3114    -3129    -3167    -3187 
   -3180    -3190    -3219    -3249    -3250    -3217    -3191    -3194 
   -3202    -3202    -3180    -3149    -3145    -3159    -3168    -3172 
   -3161    -3150    -3153    -3154    -3154    -3150    -3149    -3173 
   -3200    -3206    -3203    -3183    -3159    -3156    -3157    -3175 
   -3210    -3221    -3215    -3210    -3191    -3172    -3161    -3149 
   -3148    -3164    -3183    -3199    -3195    -3177    -3169    -3171 
   -3187    -3213    -3229    -3244    -3242    -3218    -3195    -3165 
   -3123    -3090    -3071    -3088    -3137    -3175    -3198    -3211 
   -3218    -3238    -3248    -3214    -3157    -3105    -3086    -3107 
   -3149    -3207    -3261    -3273    -3264    -3254    -3242    -3226 
   -3195    -3171    -3183    -3191    -3164    -3136    -3121    -3115 
   -3117    -3123    -3153    -3191    -3202    -3199    -3196    -3188 
   -3175    -3153    -3132    -3127    -3146    -3199    -3254    -3248 
   -3187    -3136    -3118    -3127    -3146    -3184    -3246    -3284 
   -3272    -3230    -3177    -3142    -3142    -3150    -3165    -3179 
   -3180    -3181    -3177    -3164    -3180    -3222    -3246    -3242 
   -3213    -3179    -3161    -3153    -3161    -3181    -3183    -3172 
   -3165    -3164    -3175    -3177    -3156    -3137    -3133    -3136 
   -3136    -3133    -3153    -3192    -3222    -3242    -3256    -3256 
   -3248    -3225    -3202    -3192    -3176    -3154    -3152    -3159 
   -3167    -3168    -3153    -3138    -3130    -3122    -3132    -3163 
   -3192    -3202    -3184    -3176    -3202    -3226    -3231    -3219 
   -3196    -3186    -3180    -3169    -3184    -3211    -3218    -3204 
   -3173    -3154    -3156    -3138    -3118    -3123    -3145    -3179 
   -3203    -3206    -3213    -3230    -3248    -3241    -3198    -3156 
   -3141    -3134    -3141    -3150    -3142    -3141    -3165    -3199 
   -3235    -3250    -3238    -3234    -3233    -3208    -3164    -3125 
   -3123    -3134    -3132    -3153    -3188    -3191    -3172    -3153 
   -3154    -3183    -3202    -3200    -3198    -3192    -3195    -3208 
   -3208    -3202    -3177    -3136    -3110    -3107    -3132    -3184 
   -3223    -3231    -3240    -3244    -3244    -3245    -3225    -3184 
   -3144    -3121    -3123    -3133    -3145    -3171    -3194    -3202 
   -3200    -3180    -3161    -3165    -3161    -3144    -3141    -3164 
   -3203    -3218    -3199    -3199    -3214    -3218    -3211    -3177 
   -3129    -3100    -3103    -3133    -3164    -3180    -3198    -3211 
   -3214    -3217    -3227    -3257    -3283    -3267    -3238    -3218 
   -3172    -3113    -3068    -3061    -3107    -3148    -3150    -3142 
   -3133    -3142    -3192    -3252    -3285    -3284    -3254    -3227 
   -3200    -3150    -3096    -3064    -3068    -3122    -3188    -3229 
   -3241    -3219    -3198    -3204    -3213    -3199    -3167    -3132 
   -3129    -3150    -3157    -3161    -3176    -3203    -3241    -3253 
   -3226    -3199    -3192    -3199    -3190    -3149    -3119    -3117 
   -3130    -3160    -3177    -3181    -3198    -3213    -3213    -3210 
   -3198    -3196    -3223    -3249    -3237    -3179    -3115    -3100 
   -3119    -3149    -3198    -3240    -3241    -3208    -3175    -3181 
   -3218    -3231    -3222    -3206    -3169    -3117    -3064    -3045 
   -3084    -3142    -3173    -3186    -3191    -3192    -3183    -3171 
   -3180    -3192    -3179    -3168    -3177    -3203    -3222    -3202 
   -3167    -3160    -3176    -3213    -3254    -3275    -3289    -3289 
   -3252    -3200    -3148    -3098    -3087    -3111    -3157    -3196 
   -3181    -3123    -3084    -3102    -3168    -3226    -3237    -3223 
   -3199    -3167    -3154    -3168    -3210    -3246    -3215    -3136 
   -3072    -3044    -3056    -3099    -3164    -3252    -3311    -3314 
   -3289    -3277    -3277    -3250    -3175    -3109    -3088    -3087 
   -3094    -3111    -3148    -3207    -3262    -3291    -3289    -3235 
   -3134    -3028    -2926    -2862    -2867    -2943    -3090    -3268 
   -3399    -3462    -3449    -3369    -3291    -3254    -3248    -3258 
   -3268    -3275    -3281    -3258    -3210    -3161    -3137    -3160 
   -3208    -3245    -3246    -3200    -3142    -3100    -3061    -3041 
   -3053    -3076    -3105    -3130    -3148    -3165    -3149    -3095 
   -3057    -3071    -3138    -3237    -3299    -3311    -3295    -3245 
   -3181    -3119    -3071    -3064    -3103    -3165    -3229    -3265 
   -3296    -3346    -3375    -3356    -3299    -3233    -3186    -3140 
   -3059    -2978    -2949    -2998    -3103    -3207    -3300    -3392 
   -3437    -3399    -3302    -3195    -3129    -3105    -3098    -3099 
   -3088    -3059    -3040    -3059    -3132    -3237    -3307    -3311 
   -3261    -3181    -3122    -3115    -3141    -3188    -3238    -3254 
   -3225    -3144    -3044    -2975    -2949    -2963    -3005    -3056 
   -3129    -3231    -3354    -3489    -3576    -3547    -3434    -3302 
   -3203    -3148    -3109    -3082    -3061    -3005    -2932    -2902 
   -2943    -3056    -3191    -3292    -3358    -3388    -3380    -3358 
   -3341    -3341    -3337    -3268    -3141    -2999    -2862    -2771 
   -2755    -2814    -2955    -3146    -3337    -3485    -3570    -3603 
   -3581    -3478    -3326    -3175    -3061    -3014    -2995    -2970 
   -2965    -2986    -3005    -3033    -3068    -3115    -3177    -3226 
   -3260    -3284    -3303    -3330    -3326    -3261    -3175    -3115 
   -3125    -3211    -3302    -3357    -3392    -3403    -3388    -3346 
   -3268    -3169    -3055    -2928    -2835    -2783    -2748    -2733 
   -2762    -2882    -3106    -3362    -3570    -3696    -3724    -3676 
   -3566    -3393    -3192    -3021    -2924    -2918    -2970    -3055 
   -3163    -3254    -3311    -3319    -3264    -3190    -3123    -3057 
   -3021    -3033    -3086    -3168    -3226    -3249    -3260    -3245 
   -3211    -3175    -3132    -3111    -3109    -3082    -3055    -3046 
   -3067    -3132    -3204    -3260    -3303    -3314    -3299    -3276 
   -3245    -3237    -3264    -3302    -3337    -3346    -3312    -3244 
   -3134    -2999    -2884    -2826    -2860    -2972    -3098    -3199 
   -3250    -3245    -3229    -3237    -3276    -3323    -3329    -3294 
   -3249    -3198    -3146    -3110    -3083    -3096    -3159    -3226 
   -3288    -3343    -3377    -3384    -3346    -3285    -3241    -3203 
   -3164    -3117    -3036    -2952    -2899    -2897    -2961    -3044 
   -3088    -3100    -3094    -3111    -3188    -3279    -3357    -3434 
   -3489    -3497    -3442    -3337    -3237    -3154    -3065    -2975 
   -2901    -2894    -2982    -3111    -3227    -3311    -3349    -3357 
   -3334    -3276    -3210    -3133    -3042    -2988    -2991    -3055 
   -3181    -3318    -3414    -3445    -3399    -3308    -3213    -3121 
   -3061    -3034    -3009    -2971    -2906    -2852    -2890    -3021 
   -3191    -3334    -3387    -3364    -3318    -3275    -3246    -3226 
   -3203    -3192    -3194    -3206    -3235    -3253    -3242    -3213 
   -3156    -3084    -3030    -2998    -3003    -3038    -3086    -3149 
   -3196    -3215    -3234    -3256    -3291    -3338    -3375    -3395 
   -3388    -3337    -3256    -3159    -3072    -3041    -3056    -3100 
   -3159    -3184    -3177    -3175    -3175    -3188    -3226    -3272 
   -3310    -3318    -3285    -3230    -3165    -3110    -3080    -3060 
   -3052    -3063    -3076    -3099    -3136    -3157    -3171    -3180 
   -3186    -3206    -3244    -3276    -3288    -3256    -3195    -3136 
   -3091    -3094    -3150    -3223    -3285    -3311    -3281    -3217 
   -3134    -3065    -3036    -3032    -3041    -3065    -3094    -3126 
   -3159    -3177    -3204    -3241    -3277    -3326    -3373    -3387 
   -3369    -3330    -3291    -3268    -3235    -3198    -3169    -3123 
   -3053    -2984    -2955    -2992    -3072    -3150    -3213    -3253 
   -3277    -3287    -3276    -3257    -3238    -3202    -3156    -3117 
   -3091    -3100    -3141    -3198    -3252    -3279    -3280    -3275 
   -3240    -3191    -3157    -3133    -3115    -3096    -3067    -3057 
   -3073    -3088    -3105    -3119    -3145    -3179    -3190    -3188 
   -3187    -3172    -3157    -3142    -3122    -3129    -3154    -3181 
   -3223    -3264    -3287    -3306    -3315    -3318    -3329    -3338 
   -3337    -3302    -3234    -3161    -3090    -3032    -3011    -3022 
   -3069    -3156    -3237    -3285    -3304    -3285    -3245    -3200 
   -3153    -3118    -3100    -3098    -3121    -3154    -3171    -3169 
   -3149    -3130    -3125    -3114    -3113    -3126    -3138    -3146 
   -3141    -3129    -3142    -3175    -3208    -3237    -3250    -3256 
   -3258    -3238    -3210    -3183    -3153    -3138    -3129    -3113 
   -3109    -3114    -3129    -3171    -3218    -3246    -3257    -3262 
   -3284    -3302    -3287    -3260    -3234    -3202    -3177    -3157 
   -3156    -3184    -3204    -3202    -3190    -3157    -3130    -3140 
   -3163    -3199    -3238    -3254    -3257    -3238    -3188    -3137 
   -3099    -3080    -3073    -3057    -3052    -3068    -3094    -3134 
   -3177    -3202    -3221    -3225    -3217    -3222    -3226    -3210 
   -3192    -3180    -3176    -3169    -3146    -3133    -3146    -3181 
   -3238    -3288    -3310    -3311    -3292    -3256    -3222    -3177 
   -3133    -3107    -3088    -3086    -3094    -3094    -3103    -3125 
   -3145    -3164    -3177    -3198    -3229    -3237    -3221    -3199 
   -3175    -3164    -3168    -3171    -3188    -3211    -3211    -3207 
   -3208    -3210    -3211    -3194    -3164    -3140    -3107    -3079 
   -3084    -3117    -3177    -3246    -3292    -3316    -3304    -3268 
   -3242    -3230    -3237    -3252    -3242    -3221    -3196    -3164 
   -3149    -3157    -3164    -3163    -3153    -3142    -3144    -3129 
   -3100    -3088    -3084    -3100    -3134    -3154    -3171    -3183 
   -3183    -3183    -3181    -3183    -3202    -3225    -3249    -3271 
   -3267    -3238    -3191    -3137    -3103    -3088    -3084    -3098 
   -3110    -3125    -3156    -3194    -3242    -3294    -3318    -3311 
   -3281    -3234    -3187    -3146    -3125    -3137    -3157    -3175 
   -3195    -3202    -3196    -3195    -3184    -3177    -3171    -3140 
   -3114    -3119    -3136    -3146    -3142    -3134    -3140    -3150 
   -3154    -3160    -3167    -3173    -3180    -3190    -3211    -3233 
   -3245    -3258    -3256    -3233    -3221    -3217    -3219    -3237 
   -3244    -3240    -3223    -3181    -3129    -3083    -3053    -3059 
   -3079    -3095    -3121    -3156    -3191    -3221    -3229    -3231 
   -3235    -3214    -3183    -3160    -3148    -3159    -3176    -3191 
   -3222    -3249    -3262    -3271    -3258    -3235    -3221    -3206 
   -3198    -3190    -3172    -3157    -3138    -3114    -3111    -3115 
   -3129    -3159    -3179    -3188    -3195    -3184    -3173    -3171 
   -3159    -3149    -3156    -3167    -3183    -3195    -3203    -3208 
   -3196    -3184    -3177    -3157    -3141    -3137    -3133    -3141 
   -3145    -3145    -3165    -3191    -3200    -3210    -3213    -3210 
   -3208    -3200    -3199    -3211    -3230    -3260    -3279    -3277 
   -3268    -3244    -3213    -3195    -3172    -3161    -3176    -3187 
   -3188    -3180    -3157    -3146    -3149    -3152    -3161    -3164 
   -3159    -3153    -3138    -3130    -3140    -3146    -3159    -3183 
