Origin Time       2021/08/14 22:38:00
Lat.              37.5
Long.             137.2
Depth. (km)       10
Mag.              4.1
Station Code      NIGH18
Station Lat.      36.9425
Station Long.     138.2594
Station Height(m) 130
Record Time       2021/08/14 22:38:27
Sampling Freq(Hz) 100Hz
Duration Time(s)  120
Dir.              2
Scale Factor      3923(gal)/8224838
Max. Acc. (gal)   0.196
Last Correction   2021/08/14 22:38:27
Memo.             
[...]
   -3510    -3588    -3645    -3661    -3655    -3636    -3596    -3546 
   -3505    -3480    -3478    -3510    -3562    -3595    -3576    -3530 
   -3507    -3514    -3546    -3591    -3601    -3572    -3551    -3564 
   -3573    -3572    -3580    -3592    -3578    -3546    -3528    -3520 
   -3514    -3519    -3537    -3541    -3535    -3546    -3569    -3566 
   -3520    -3480    -3484    -3511    -3532    -3551    -3570    -3574 
   -3576    -3584    -3573    -3542    -3531    -3534    -3523    -3515 
   -3535    -3568    -3581    -3565    -3532    -3520    -3550    -3585 
   -3588    -3576    -3580    -3601    -3607    -3578    -3542    -3523 
   -3515    -3516    -3542    -3572    -3572    -3546    -3523    -3505 
   -3495    -3511    -3555    -3588    -3580    -3546    -3515    -3516 
   -3546    -3557    -3526    -3495    -3500    -3532    -3562    -3565 
   -3534    -3496    -3496    -3542    -3601    -3655    -3672    -3636 
   -3592    -3569    -3541    -3518    -3530    -3541    -3518    -3500 
   -3518    -3545    -3564    -3588    -3607    -3592    -3557    -3542 
   -3545    -3550    -3573    -3601    -3593    -3557    -3516    -3481 
   -3454    -3450    -3476    -3512    -3532    -3534    -3534    -3550 
   -3581    -3603    -3592    -3573    -3565    -3557    -3551    -3546 
   -3546    -3558    -3557    -3531    -3512    -3512    -3524    -3539 
   -3553    -3564    -3572    -3572    -3554    -3528    -3520    -3530 
   -3543    -3569    -3608    -3634    -3620    -3572    -3516    -3473 
   -3462    -3492    -3534    -3561    -3565    -3549    -3543    -3557 
   -3568    -3564    -3554    -3546    -3538    -3534    -3541    -3549 
   -3561    -3578    -3589    -3585    -3569    -3542    -3523    -3538 
   -3569    -3595    -3607    -3592    -3549    -3504    -3487    -3493 
   -3510    -3538    -3569    -3586    -3585    -3581    -3564    -3524 
   -3501    -3515    -3534    -3542    -3532    -3505    -3478    -3480 
   -3510    -3546    -3566    -3569    -3555    -3539    -3530    -3526 
   -3534    -3578    -3643    -3686    -3689    -3647    -3577    -3514 
   -3476    -3454    -3450    -3468    -3493    -3524    -3565    -3600 
   -3604    -3589    -3584    -3584    -3574    -3558    -3539    -3515 
   -3497    -3510    -3539    -3550    -3537    -3531    -3541    -3553 
   -3561    -3568    -3568    -3565    -3564    -3572    -3578    -3569 
   -3547    -3523    -3503    -3492    -3489    -3505    -3541    -3578 
   -3603    -3601    -3578    -3554    -3542    -3542    -3550    -3561 
   -3576    -3582    -3557    -3518    -3505    -3518    -3538    -3554 
   -3557    -3538    -3518    -3515    -3526    -3538    -3557    -3569 
   -3564    -3557    -3554    -3541    -3523    -3523    -3542    -3555 
   -3562    -3573    -3576    -3569    -3564    -3551    -3541    -3545 
   -3545    -3523    -3512    -3534    -3570    -3589    -3586    -3576 
   -3570    -3564    -3543    -3514    -3495    -3484    -3484    -3507 
   -3545    -3578    -3605    -3620    -3609    -3584    -3569    -3565 
   -3557    -3543    -3518    -3491    -3477    -3478    -3488    -3514 
   -3550    -3576    -3582    -3577    -3566    -3557    -3558    -3564 
   -3566    -3569    -3564    -3550    -3542    -3545    -3558    -3569 
   -3573    -3566    -3549    -3530    -3524    -3523    -3505    -3487 
   -3492    -3516    -3542    -3561    -3573    -3570    -3557    -3547 
   -3551    -3565    -3569    -3565    -3562    -3564    -3572    -3582 
   -3597    -3609    -3604    -3578    -3541    -3512    -3507    -3515 
   -3530    -3542    -3537    -3512    -3493    -3499    -3519    -3534 
   -3535    -3530    -3524    -3515    -3512    -3530    -3562    -3593 
   -3616    -3624    -3608    -3578    -3554    -3541    -3528    -3515 
   -3507    -3511    -3530    -3555    -3570    -3576    -3582    -3576 
   -3554    -3527    -3512    -3515    -3531    -3546    -3551    -3551 
   -3554    -3558    -3554    -3546    -3542    -3543    -3550    -3558 
   -3564    -3557    -3545    -3539    -3550    -3573    -3597    -3613 
   -3607    -3581    -3553    -3531    -3527    -3535    -3528    -3510 
   -3505    -3512    -3518    -3526    -3542    -3555    -3568    -3577 
   -3568    -3554    -3553    -3551    -3539    -3526    -3527    -3534 
   -3539    -3543    -3546    -3542    -3549    -3565    -3569    -3555 
   -3541    -3524    -3520    -3537    -3553    -3558    -3557    -3557 
   -3550    -3537    -3535    -3551    -3557    -3550    -3551    -3561 
   -3568    -3569    -3562    -3547    -3539    -3543    -3545    -3538 
   -3534    -3543    -3554    -3565    -3574    -3574    -3570    -3564 
   -3550    -3547    -3564    -3576    -3576    -3570    -3559    -3547 
   -3538    -3526    -3515    -3507    -3495    -3495    -3512    -3527 
   -3528    -3527    -3528    -3534    -3549    -3561    -3561    -3559 
   -3566    -3569    -3561    -3553    -3557    -3565    -3570    -3572 
   -3564    -3551    -3553    -3568    -3576    -3572    -3566    -3566 
   -3566    -3559    -3546    -3538    -3542    -3545    -3532    -3523 
   -3528    -3538    -3543    -3547    -3543    -3526    -3511    -3507 
   -3508    -3518    -3546    -3572    -3569    -3541    -3508    -3493 
   -3507    -3537    -3569    -3593    -3600    -3596    -3592    -3576 
   -3549    -3532    -3532    -3541    -3562    -3592    -3600    -3580 
   -3557    -3546    -3551    -3566    -3570    -3564    -3553    -3543 
   -3542    -3542    -3545    -3551    -3542    -3518    -3503    -3499 
   -3501    -3514    -3531    -3553    -3568    -3581    -3593    -3585 
   -3559    -3539    -3534    -3542    -3554    -3558    -3549    -3535 
   -3530    -3535    -3546    -3554    -3564    -3570    -3565    -3549 
   -3528    -3515    -3518    -3535    -3547    -3553    -3555    -3555 
   -3543    -3535    -3541    -3549    -3558    -3558    -3545    -3539 
   -3553    -3568    -3577    -3577    -3562    -3541    -3527    -3516 
   -3511    -3523    -3543    -3551    -3554    -3558    -3558    -3553 
   -3551    -3553    -3538    -3520    -3523    -3532    -3541    -3553 
   -3576    -3597    -3600    -3586    -3570    -3555    -3550    -3554 
   -3553    -3543    -3541    -3555    -3574    -3580    -3574    -3569 
   -3555    -3537    -3520    -3510    -3514    -3530    -3538    -3527 
   -3523    -3539    -3559    -3566    -3558    -3541    -3526    -3522 
   -3527    -3537    -3545    -3553    -3557    -3561    -3558    -3541 
   -3530    -3538    -3551    -3562    -3566    -3568    -3566    -3566 
   -3570    -3574    -3569    -3559    -3546    -3527    -3518    -3524 
   -3547    -3565    -3558    -3545    -3539    -3532    -3519    -3518 
   -3530    -3539    -3545    -3555    -3566    -3570    -3572    -3569 
   -3564    -3559    -3559    -3559    -3558    -3551    -3546    -3547 
   -3546    -3538    -3527    -3523    -3531    -3545    -3555    -3561 
   -3555    -3545    -3541    -3541    -3534    -3528    -3522    -3512 
   -3511    -3527    -3551    -3569    -3569    -3555    -3541    -3537 
   -3551    -3569    -3570    -3558    -3549    -3549    -3545    -3537 
   -3530    -3520    -3518    -3531    -3549    -3565    -3577    -3576 
   -3568    -3564    -3559    -3551    -3539    -3523    -3512    -3516 
   -3524    -3531    -3549    -3580    -3599    -3591    -3569    -3545 
   -3524    -3522    -3535    -3539    -3537    -3549    -3562    -3564 
   -3557    -3547    -3539    -3541    -3547    -3553    -3566    -3588 
   -3609    -3613    -3593    -3558    -3527    -3511    -3516    -3530 
   -3532    -3527    -3530    -3550    -3566    -3570    -3574    -3574 
   -3555    -3530    -3514    -3505    -3510    -3528    -3545    -3542 
   -3530    -3523    -3527    -3535    -3545    -3551    -3547    -3538 
   -3538    -3547    -3562    -3580    -3589    -3592    -3591    -3578 
   -3558    -3545    -3531    -3520    -3514    -3514    -3520    -3528 
   -3537    -3549    -3565    -3582    -3591    -3586    -3573    -3559 
   -3558    -3564    -3559    -3546    -3535    -3532    -3541    -3547 
   -3537    -3526    -3530    -3535    -3541    -3554    -3568    -3569 
   -3565    -3561    -3555    -3546    -3549    -3555    -3543    -3524 
   -3518    -3522    -3535    -3551    -3566    -3574    -3578    -3581 
   -3578    -3566    -3549    -3534    -3532    -3539    -3542    -3542 
   -3539    -3541    -3550    -3555    -3551    -3550    -3549    -3542 
   -3541    -3551    -3558    -3555    -3551    -3545    -3534    -3531 
   -3538    -3553    -3569    -3581    -3584    -3577    -3566    -3557 
   -3553    -3553    -3554    -3551    -3545    -3538    -3535    -3546 
   -3565    -3566    -3553    -3542    -3537    -3528    -3528    -3541 
   -3545    -3534    -3524    -3526    -3532    -3542    -3555    -3568 
   -3574    -3573    -3568    -3558    -3539    -3519    -3516    -3523 
   -3528    -3538    -3550    -3562    -3576    -3588    -3591    -3584 
   -3573    -3561    -3549    -3543    -3546    -3549    -3555    -3562 
   -3559    -3564    -3573    -3568    -3547    -3528    -3520    -3522 
   -3526    -3531    -3534    -3538    -3551    -3565    -3568    -3565 
   -3564    -3561    -3554    -3541    -3528    -3526    -3527    -3532 
   -3542    -3549    -3555    -3559    -3559    -3559    -3557    -3555 
   -3561    -3564    -3564    -3564    -3557    -3543    -3538    -3541 
   -3543    -3547    -3557    -3554    -3537    -3523    -3523    -3530 
   -3546    -3562    -3565    -3558    -3559    -3559    -3551    -3545 
   -3541    -3538    -3534    -3532    -3534    -3535    -3542    -3549 
   -3551    -3550    -3545    -3538    -3541    -3547    -3555    -3566 
   -3580    -3592    -3596    -3585    -3568    -3558    -3553    -3547 
   -3554    -3564    -3558    -3546    -3546    -3546    -3545    -3550 
   -3551    -3537    -3526    -3528    -3534    -3535    -3534    -3527 
   -3520    -3522    -3523    -3524    -3530    -3532    -3532    -3539 
   -3551    -3559    -3566    -3573    -3569    -3558    -3547    -3539 
   -3531    -3524    -3522    -3531    -3551    -3566    -3574    -3580 
   -3580    -3570    -3558    -3558    -3559    -3554    -3550    -3542 
   -3527    -3520    -3524    -3531    -3539    -3547    -3557    -3566 
   -3572    -3574    -3576    -3570    -3566    -3565    -3562    -3564 
   -3569    -3562    -3554    -3547    -3534    -3523    -3524    -3527 
   -3522    -3518    -3527    -3551    -3573    -3581    -3573    -3554 
   -3543    -3546    -3559    -3574    -3585    -3585    -3574    -3561 
   -3553    -3550    -3557    -3562    -3557    -3538    -3512    -3495 
   -3496    -3511    -3530    -3535    -3527    -3515    -3501    -3500 
   -3523    -3549    -3561    -3565    -3569    -3570    -3572    -3573 
   -3570    -3573    -3580    -3572    -3546    -3523    -3516    -3526 
   -3530    -3519    -3511    -3511    -3520    -3543    -3572    -3588 
   -3591    -3589    -3589    -3588    -3584    -3577    -3565    -3543 
   -3527    -3520    -3520    -3518    -3511    -3510    -3515    -3518 
   -3516    -3526    -3542    -3551    -3550    -3546    -3539    -3526 
   -3522    -3535    -3557    -3565    -3558    -3553    -3557    -3565 
   -3568    -3572    -3573    -3568    -3559    -3549    -3541    -3532 
   -3520    -3511    -3508    -3518    -3532    -3551    -3577    -3599 
   -3607    -3601    -3585    -3572    -3576    -3586    -3586    -3582 
   -3581    -3578    -3576    -3581    -3581    -3578    -3584    -3582 
   -3562    -3542    -3527    -3511    -3505    -3510    -3507    -3504 
   -3516    -3535    -3550    -3562    -3564    -3557    -3546    -3527 
   -3497    -3477    -3472    -3468    -3469    -3481    -3491    -3501 
   -3528    -3553    -3555    -3554    -3576    -3611    -3640    -3662 
   -3682    -3692    -3666    -3611    -3547    -3499    -3496    -3546 
   -3607    -3634    -3616    -3568    -3508    -3457    -3419    -3391 
   -3379    -3393    -3424    -3458    -3497    -3547    -3604    -3654 
   -3681    -3682    -3663    -3628    -3588    -3553    -3547    -3564 
   -3578    -3596    -3608    -3588    -3559    -3558    -3585    -3619 
   -3634    -3616    -3580    -3543    -3515    -3501    -3511    -3535 
   -3574    -3630    -3677    -3696    -3694    -3666    -3619    -3570 
   -3516    -3456    -3392    -3341    -3326    -3357    -3420    -3492 
   -3554    -3593    -3597    -3573    -3553    -3541    -3522    -3504 
   -3504    -3528    -3558    -3586    -3609    -3615    -3592    -3564 
   -3558    -3573    -3599    -3626    -3649    -3655    -3643    -3632 
   -3632    -3624    -3600    -3569    -3519    -3445    -3381    -3350 
   -3361    -3415    -3499    -3584    -3655    -3715    -3743    -3724 
   -3663    -3564    -3434    -3308    -3215    -3168    -3173    -3234 
   -3326    -3420    -3499    -3553    -3593    -3634    -3674    -3703 
   -3703    -3672    -3632    -3607    -3585    -3564    -3545    -3519 
   -3489    -3476    -3500    -3572    -3690    -3819    -3913    -3948 
   -3917    -3844    -3743    -3619    -3492    -3380    -3299    -3273 
   -3304    -3383    -3476    -3558    -3615    -3630    -3609    -3582 
   -3554    -3520    -3483    -3450    -3438    -3454    -3483    -3488 
   -3454    -3400    -3352    -3343    -3396    -3492    -3593    -3676 
   -3716    -3712    -3680    -3639    -3600    -3564    -3524    -3485 
   -3454    -3462    -3508    -3569    -3642    -3713    -3759    -3784 
   -3800    -3802    -3778    -3730    -3655    -3557    -3458    -3368 
   -3276    -3187    -3137    -3153    -3238    -3356    -3470    -3551 
   -3595    -3619    -3631    -3636    -3653    -3669    -3667    -3653 
   -3631    -3613    -3613    -3611    -3596    -3574    -3541    -3501 
   -3470    -3445    -3439    -3465    -3496    -3507    -3511    -3539 
   -3592    -3646    -3685    -3693    -3663    -3618    -3572    -3531 
   -3504    -3505    -3543    -3607    -3667    -3694    -3680    -3640 
   -3593    -3538    -3466    -3393    -3343    -3331    -3369    -3458 
   -3559    -3639    -3681    -3673    -3638    -3615    -3601    -3573 
   -3515    -3443    -3389    -3379    -3416    -3483    -3565    -3658 
   -3727    -3754    -3753    -3732    -3703    -3677    -3654    -3623 
   -3603    -3600    -3593    -3568    -3534    -3504    -3472    -3435 
   -3400    -3379    -3366    -3360    -3365    -3387    -3424    -3476 
   -3520    -3543    -3534    -3491    -3439    -3412    -3416    -3450 
   -3505    -3569    -3623    -3658    -3674    -3682    -3681    -3673 
   -3657    -3640    -3628    -3619    -3600    -3572    -3558    -3562 
   -3566    -3564    -3557    -3542    -3520    -3501    -3492    -3495 
   -3511    -3543    -3572    -3586    -3609    -3636    -3627    -3578 
   -3522    -3472    -3434    -3414    -3419    -3445    -3480    -3519 
   -3566    -3608    -3628    -3626    -3605    -3576    -3550    -3538 
   -3546    -3574    -3611    -3646    -3662    -3650    -3622    -3595 
   -3572    -3539    -3505    -3478    -3453    -3438    -3445    -3458 
   -3468    -3476    -3484    -3489    -3503    -3531    -3561    -3580 
   -3586    -3591    -3596    -3612    -3646    -3680    -3694    -3704 
   -3720    -3742    -3744    -3715    -3658    -3599    -3549    -3515 
   -3501    -3510    -3524    -3516    -3477    -3416    -3362    -3349 
   -3384    -3438    -3481    -3500    -3492    -3469    -3449    -3447 
   -3473    -3507    -3526    -3538    -3557    -3569    -3573    -3576 
   -3573    -3565    -3562    -3565    -3572    -3580    -3589    -3601 
   -3619    -3631    -3628    -3615    -3600    -3586    -3568    -3542 
   -3520    -3504    -3507    -3532    -3566    -3589    -3597    -3582 
   -3557    -3541    -3531    -3523    -3515    -3505    -3497    -3499 
   -3503    -3508    -3512    -3508    -3505    -3505    -3510    -3523 
   -3538    -3545    -3557    -3577    -3586    -3582    -3580    -3572 
   -3555    -3547    -3546    -3550    -3566    -3581    -3580    -3564 
   -3537    -3508    -3495    -3501    -3518    -3543    -3580    -3611 
   -3619    -3609    -3593    -3581    -3585    -3600    -3622    -3635 
   -3619    -3584    -3537    -3489    -3470    -3481    -3496    -3507 
   -3518    -3531    -3547    -3559    -3559    -3546    -3531    -3515 
   -3503    -3505    -3511    -3508    -3504    -3504    -3516    -3535 
   -3557    -3582    -3616    -3647    -3654    -3630    -3588    -3541 
   -3496    -3464    -3449    -3457    -3491    -3535    -3586    -3636 
   -3672    -3685    -3677    -3649    -3618    -3599    -3588    -3572 
   -3543    -3505    -3465    -3435    -3426    -3441    -3469    -3496 
   -3515    -3523    -3527    -3535    -3551    -3568    -3581    -3584 
   -3569    -3543    -3530    -3534    -3550    -3576    -3596    -3597 
   -3580    -3557    -3531    -3508    -3503    -3507    -3505    -3499 
   -3492    -3481    -3470    -3469    -3478    -3500    -3537    -3570 
   -3592    -3609    -3620    -3628    -3635    -3638    -3638    -3646 
   -3653    -3653    -3640    -3616    -3584    -3547    -3510    -3478 
   -3458    -3456    -3469    -3489    -3508    -3524    -3543    -3561 
   -3566    -3559    -3547    -3532    -3520    -3516    -3526    -3549 
   -3574    -3597    -3609    -3601    -3581    -3558    -3542    -3534 
   -3530    -3530    -3531    -3541    -3549    -3550    -3551    -3564 
   -3581    -3588    -3585    -3586    -3589    -3581    -3581    -3593 
   -3603    -3607    -3600    -3577    -3551    -3526    -3503    -3491 
   -3487    -3478    -3462    -3449    -3449    -3460    -3480    -3501 
   -3510    -3508    -3505    -3500    -3504    -3520    -3538    -3553 
   -3561    -3564    -3566    -3564    -3558    -3555    -3550    -3549 
   -3555    -3558    -3555    -3564    -3577    -3595    -3619    -3632 
   -3630    -3620    -3604    -3582    -3572    -3569    -3565    -3559 
   -3550    -3538    -3523    -3508    -3505    -3518    -3537    -3559 
   -3584    -3599    -3603    -3603    -3600    -3595    -3580    -3559 
   -3545    -3528    -3510    -3493    -3488    -3489    -3492    -3493 
   -3496    -3501    -3512    -3530    -3547    -3558    -3564    -3564 
   -3557    -3546    -3532    -3519    -3511    -3512    -3522    -3537 
   -3550    -3558    -3559    -3555    -3550    -3546    -3547    -3554 
   -3566    -3577    -3578    -3570    -3561    -3545    -3528    -3522 
   -3516    -3516    -3522    -3522    -3516    -3519    -3523    -3524 
   -3537    -3555    -3569    -3576    -3572    -3561    -3551    -3543 
   -3538    -3537    -3535    -3532    -3531    -3537    -3546    -3557 
   -3565    -3572    -3573    -3564    -3550    -3535    -3519    -3511 
   -3515    -3528    -3546    -3558    -3564    -3573    -3584    -3589 
   -3592    -3588    -3574    -3559    -3541    -3522    -3504    -3492 
   -3500    -3519    -3531    -3542    -3554    -3561    -3565    -3569 
   -3577    -3588    -3607    -3631    -3642    -3638    -3624    -3608 
   -3589    -3574    -3562    -3549    -3539    -3537    -3535    -3535 
   -3537    -3538    -3541    -3549    -3559    -3566    -3559    -3547 
   -3537    -3523    -3511    -3501    -3495    -3497    -3505    -3518 
   -3535    -3549    -3555    -3561    -3568    -3570    -3570    -3570 
   -3572    -3570    -3568    -3564    -3561    -3558    -3549    -3535 
   -3524    -3518    -3512    -3507    -3499    -3491    -3487    -3492 
