Origin Time       2021/08/14 22:38:00
Lat.              37.5
Long.             137.2
Depth. (km)       10
Mag.              4.1
Station Code      NIGH18
Station Lat.      36.9425
Station Long.     138.2594
Station Height(m) 130
Record Time       2021/08/14 22:38:27
Sampling Freq(Hz) 100Hz
Duration Time(s)  120
Dir.              1
Scale Factor      3923(gal)/8224838
Max. Acc. (gal)   0.168
Last Correction   2021/08/14 22:38:27
Memo.             
[...]
  -11955   -11962   -11947   -11923   -11894   -11857   -11839   -11870 
  -11909   -11916   -11904   -11908   -11920   -11917   -11913   -11913 
  -11882   -11838   -11828   -11831   -11824   -11848   -11913   -11961 
  -11951   -11915   -11896   -11897   -11909   -11934   -11955   -11944 
  -11911   -11889   -11885   -11893   -11911   -11919   -11912   -11901 
  -11882   -11851   -11834   -11850   -11888   -11932   -11975   -11994 
  -11970   -11923   -11902   -11904   -11896   -11873   -11865   -11871 
  -11871   -11884   -11929   -11978   -11982   -11936   -11869   -11805 
  -11773   -11792   -11851   -11908   -11939   -11944   -11946   -11948 
  -11950   -11948   -11939   -11923   -11917   -11927   -11927   -11911 
  -11902   -11901   -11885   -11858   -11850   -11859   -11867   -11885 
  -11925   -11963   -11962   -11932   -11900   -11880   -11874   -11890 
  -11916   -11927   -11913   -11885   -11870   -11882   -11907   -11909 
  -11884   -11855   -11840   -11855   -11898   -11929   -11924   -11909 
  -11907   -11917   -11924   -11924   -11924   -11919   -11897   -11867 
  -11850   -11862   -11892   -11921   -11943   -11955   -11950   -11932 
  -11921   -11916   -11905   -11902   -11917   -11924   -11911   -11894 
  -11889   -11889   -11889   -11885   -11873   -11859   -11855   -11865 
  -11889   -11919   -11928   -11912   -11900   -11909   -11927   -11939 
  -11942   -11932   -11917   -11921   -11942   -11942   -11917   -11898 
  -11882   -11863   -11855   -11854   -11853   -11865   -11902   -11944 
  -11959   -11940   -11900   -11859   -11855   -11885   -11923   -11952 
  -11950   -11929   -11913   -11886   -11859   -11858   -11870   -11873 
  -11871   -11878   -11890   -11904   -11919   -11934   -11938   -11923 
  -11905   -11890   -11881   -11892   -11927   -11961   -11962   -11928 
  -11885   -11861   -11861   -11878   -11886   -11884   -11890   -11912 
  -11925   -11917   -11901   -11905   -11927   -11944   -11940   -11921 
  -11905   -11900   -11900   -11909   -11916   -11907   -11890   -11880 
  -11882   -11894   -11909   -11917   -11916   -11907   -11900   -11902 
  -11894   -11874   -11867   -11878   -11882   -11873   -11874   -11888 
  -11885   -11885   -11907   -11924   -11929   -11931   -11923   -11912 
  -11901   -11894   -11900   -11917   -11932   -11931   -11916   -11897 
  -11890   -11896   -11905   -11912   -11905   -11882   -11867   -11871 
  -11884   -11892   -11898   -11904   -11901   -11897   -11900   -11905 
  -11916   -11938   -11958   -11951   -11923   -11898   -11882   -11869 
  -11859   -11867   -11894   -11919   -11924   -11920   -11904   -11886 
  -11888   -11889   -11875   -11870   -11884   -11904   -11925   -11948 
  -11965   -11966   -11956   -11935   -11907   -11880   -11865   -11873 
  -11896   -11911   -11908   -11894   -11880   -11867   -11870   -11889 
  -11904   -11897   -11878   -11870   -11878   -11897   -11920   -11931 
  -11923   -11912   -11900   -11877   -11863   -11878   -11897   -11905 
  -11911   -11917   -11920   -11917   -11925   -11940   -11935   -11919 
  -11913   -11908   -11892   -11875   -11871   -11884   -11896   -11900 
  -11911   -11925   -11938   -11944   -11921   -11881   -11866   -11884 
  -11901   -11900   -11881   -11858   -11846   -11855   -11877   -11893 
  -11904   -11911   -11912   -11909   -11916   -11931   -11943   -11946 
  -11935   -11921   -11913   -11912   -11921   -11931   -11931   -11927 
  -11921   -11902   -11878   -11875   -11894   -11904   -11892   -11863 
  -11848   -11859   -11877   -11884   -11888   -11890   -11893   -11893 
  -11894   -11901   -11905   -11908   -11913   -11905   -11882   -11869 
  -11877   -11898   -11915   -11911   -11897   -11894   -11901   -11908 
  -11913   -11924   -11940   -11947   -11935   -11924   -11917   -11909 
  -11905   -11907   -11902   -11897   -11900   -11901   -11890   -11881 
  -11892   -11907   -11900   -11874   -11859   -11857   -11861   -11877 
  -11897   -11916   -11929   -11935   -11932   -11927   -11924   -11928 
  -11932   -11925   -11908   -11897   -11889   -11866   -11848   -11854 
  -11875   -11893   -11907   -11915   -11909   -11908   -11927   -11948 
  -11955   -11952   -11936   -11911   -11896   -11896   -11897   -11890 
  -11894   -11901   -11885   -11869   -11874   -11877   -11866   -11869 
  -11888   -11908   -11927   -11944   -11946   -11928   -11916   -11905 
  -11881   -11869   -11888   -11908   -11915   -11921   -11924   -11913 
  -11911   -11920   -11921   -11908   -11901   -11904   -11900   -11885 
  -11878   -11871   -11865   -11878   -11904   -11923   -11932   -11929 
  -11917   -11907   -11904   -11900   -11900   -11905   -11908   -11908 
  -11902   -11892   -11882   -11873   -11867   -11878   -11893   -11905 
  -11916   -11923   -11929   -11931   -11920   -11898   -11878   -11871 
  -11881   -11893   -11904   -11915   -11920   -11916   -11904   -11896 
  -11901   -11915   -11929   -11935   -11924   -11909   -11898   -11890 
  -11885   -11877   -11874   -11890   -11909   -11916   -11915   -11913 
  -11912   -11907   -11901   -11901   -11897   -11890   -11893   -11896 
  -11892   -11888   -11885   -11881   -11885   -11894   -11902   -11911 
  -11924   -11934   -11931   -11924   -11924   -11927   -11919   -11902 
  -11892   -11885   -11881   -11880   -11881   -11882   -11882   -11886 
  -11897   -11904   -11909   -11909   -11896   -11885   -11888   -11893 
  -11901   -11909   -11915   -11915   -11911   -11909   -11913   -11912 
  -11905   -11902   -11901   -11893   -11886   -11890   -11909   -11925 
  -11928   -11921   -11912   -11901   -11900   -11904   -11900   -11896 
  -11902   -11908   -11901   -11898   -11894   -11881   -11874   -11871 
  -11866   -11866   -11869   -11870   -11874   -11886   -11902   -11909 
  -11912   -11924   -11939   -11948   -11946   -11935   -11921   -11909 
  -11907   -11907   -11905   -11901   -11897   -11900   -11908   -11909 
  -11900   -11892   -11888   -11884   -11881   -11873   -11867   -11880 
  -11893   -11897   -11902   -11912   -11908   -11896   -11897   -11904 
  -11909   -11919   -11925   -11920   -11909   -11893   -11880   -11877 
  -11880   -11882   -11888   -11901   -11917   -11928   -11939   -11959 
  -11970   -11950   -11913   -11893   -11890   -11888   -11886   -11882 
  -11869   -11862   -11869   -11878   -11882   -11890   -11905   -11920 
  -11923   -11912   -11902   -11905   -11919   -11921   -11907   -11896 
  -11893   -11889   -11890   -11900   -11907   -11898   -11890   -11902 
  -11919   -11925   -11928   -11931   -11924   -11905   -11886   -11880 
  -11878   -11881   -11888   -11902   -11909   -11900   -11885   -11878 
  -11880   -11896   -11915   -11920   -11917   -11909   -11896   -11882 
  -11882   -11894   -11896   -11896   -11908   -11919   -11915   -11905 
  -11898   -11896   -11894   -11892   -11889   -11894   -11911   -11927 
  -11934   -11929   -11923   -11919   -11913   -11904   -11894   -11881 
  -11870   -11870   -11873   -11875   -11882   -11890   -11900   -11911 
  -11923   -11931   -11929   -11928   -11927   -11915   -11898   -11885 
  -11881   -11881   -11889   -11902   -11912   -11913   -11924   -11943 
  -11948   -11940   -11927   -11907   -11881   -11862   -11854   -11862 
  -11880   -11893   -11901   -11912   -11925   -11935   -11934   -11927 
  -11919   -11905   -11892   -11877   -11858   -11843   -11846   -11863 
  -11874   -11874   -11884   -11902   -11920   -11934   -11940   -11935 
  -11923   -11911   -11908   -11911   -11909   -11905   -11901   -11901 
  -11902   -11904   -11904   -11911   -11917   -11913   -11902   -11898 
  -11893   -11884   -11882   -11889   -11894   -11897   -11901   -11897 
  -11889   -11882   -11886   -11905   -11924   -11925   -11923   -11921 
  -11909   -11892   -11882   -11881   -11885   -11898   -11905   -11901 
  -11901   -11908   -11916   -11927   -11934   -11935   -11928   -11917 
  -11911   -11905   -11904   -11908   -11909   -11904   -11893   -11889 
  -11890   -11886   -11880   -11882   -11886   -11888   -11888   -11885 
  -11884   -11892   -11908   -11920   -11923   -11916   -11907   -11901 
  -11905   -11911   -11904   -11889   -11877   -11871   -11874   -11886 
  -11908   -11925   -11923   -11912   -11908   -11905   -11909   -11917 
  -11919   -11909   -11898   -11896   -11893   -11890   -11897   -11900 
  -11894   -11900   -11911   -11911   -11908   -11911   -11912   -11904 
  -11901   -11901   -11892   -11892   -11909   -11925   -11935   -11946 
  -11950   -11928   -11896   -11884   -11890   -11900   -11911   -11920 
  -11919   -11909   -11904   -11902   -11893   -11889   -11898   -11901 
  -11893   -11896   -11902   -11897   -11886   -11884   -11882   -11875 
  -11877   -11890   -11901   -11908   -11923   -11932   -11925   -11915 
  -11908   -11902   -11901   -11900   -11889   -11880   -11885   -11898 
  -11907   -11909   -11908   -11898   -11889   -11892   -11905   -11911 
  -11901   -11902   -11902   -11888   -11881   -11889   -11904   -11919 
  -11934   -11947   -11952   -11947   -11935   -11915   -11894   -11880 
  -11871   -11870   -11873   -11873   -11877   -11890   -11897   -11892 
  -11893   -11907   -11921   -11925   -11917   -11905   -11888   -11871 
  -11862   -11865   -11873   -11880   -11886   -11893   -11905   -11925 
  -11947   -11951   -11944   -11940   -11942   -11935   -11917   -11897 
  -11890   -11900   -11912   -11905   -11890   -11886   -11884   -11874 
  -11877   -11896   -11909   -11915   -11923   -11927   -11909   -11886 
  -11881   -11888   -11897   -11905   -11909   -11908   -11908   -11907 
  -11900   -11896   -11901   -11898   -11884   -11878   -11884   -11889 
  -11894   -11904   -11909   -11913   -11924   -11932   -11929   -11924 
  -11919   -11917   -11921   -11913   -11888   -11865   -11851   -11851 
  -11865   -11884   -11897   -11894   -11886   -11889   -11898   -11901 
  -11905   -11915   -11920   -11920   -11912   -11902   -11900   -11902 
  -11905   -11915   -11924   -11932   -11938   -11935   -11929   -11929 
  -11934   -11936   -11929   -11913   -11889   -11869   -11869   -11878 
  -11881   -11886   -11894   -11901   -11901   -11901   -11904   -11900 
  -11885   -11874   -11871   -11870   -11871   -11875   -11886   -11894 
  -11898   -11901   -11894   -11892   -11904   -11915   -11916   -11917 
  -11916   -11909   -11904   -11901   -11900   -11904   -11907   -11900 
  -11896   -11897   -11898   -11901   -11904   -11907   -11904   -11885 
  -11866   -11863   -11874   -11892   -11905   -11908   -11911   -11915 
  -11919   -11927   -11934   -11931   -11919   -11911   -11907   -11904 
  -11900   -11889   -11877   -11871   -11874   -11875   -11881   -11900 
  -11924   -11935   -11934   -11924   -11915   -11913   -11917   -11915 
  -11904   -11898   -11900   -11901   -11901   -11904   -11905   -11905 
  -11911   -11913   -11916   -11920   -11921   -11919   -11908   -11890 
  -11880   -11878   -11888   -11898   -11894   -11886   -11890   -11900 
  -11908   -11917   -11920   -11916   -11909   -11898   -11885   -11874 
  -11867   -11866   -11869   -11875   -11888   -11898   -11912   -11925 
  -11939   -11947   -11946   -11935   -11920   -11902   -11886   -11886 
  -11894   -11901   -11907   -11913   -11921   -11927   -11932   -11935 
  -11927   -11913   -11902   -11898   -11893   -11886   -11889   -11897 
  -11911   -11927   -11932   -11924   -11916   -11916   -11919   -11924 
  -11931   -11935   -11934   -11923   -11912   -11915   -11923   -11923 
  -11916   -11896   -11865   -11853   -11857   -11854   -11853   -11857 
  -11857   -11850   -11850   -11865   -11885   -11890   -11881   -11867 
  -11859   -11861   -11859   -11858   -11863   -11859   -11843   -11839 
  -11847   -11870   -11912   -11961   -12002   -12023   -12015   -11988 
  -11958   -11931   -11917   -11931   -11955   -11967   -11963   -11938 
  -11897   -11862   -11836   -11819   -11820   -11848   -11890   -11935 
  -11963   -11948   -11896   -11838   -11786   -11743   -11726   -11742 
  -11777   -11828   -11888   -11939   -11965   -11952   -11915   -11885 
  -11877   -11873   -11855   -11828   -11819   -11854   -11934   -12024 
  -12094   -12136   -12139   -12097   -12029   -11956   -11885   -11821 
  -11786   -11796   -11834   -11867   -11892   -11916   -11938   -11956 
  -11983   -12000   -11982   -11932   -11865   -11804   -11769   -11766 
  -11789   -11832   -11889   -11940   -11973   -11978   -11974   -11971 
  -11958   -11924   -11884   -11851   -11846   -11871   -11915   -11952 
  -11958   -11934   -11905   -11892   -11901   -11929   -11969   -12016 
  -12056   -12066   -12047   -12010   -11959   -11913   -11880   -11857 
  -11844   -11842   -11855   -11878   -11890   -11892   -11890   -11881 
  -11859   -11835   -11805   -11780   -11776   -11799   -11835   -11865 
  -11881   -11884   -11866   -11836   -11815   -11821   -11867   -11923 
  -11954   -11962   -11958   -11940   -11907   -11861   -11805   -11749 
  -11708   -11709   -11766   -11869   -11992   -12096   -12154   -12166 
  -12150   -12106   -12035   -11939   -11835   -11742   -11677   -11662 
  -11693   -11757   -11843   -11944   -12042   -12104   -12112   -12077 
  -12023   -11978   -11950   -11921   -11892   -11867   -11857   -11862 
  -11881   -11907   -11927   -11921   -11889   -11842   -11796   -11770 
  -11766   -11780   -11820   -11890   -11955   -11974   -11940   -11884 
  -11834   -11812   -11835   -11890   -11954   -12002   -12028   -12039 
  -12033   -12032   -12047   -12059   -12058   -12036   -11993   -11959 
  -11955   -11977   -12006   -12024   -12006   -11958   -11885   -11792 
  -11691   -11601   -11549   -11554   -11618   -11709   -11793   -11850 
  -11881   -11893   -11898   -11902   -11909   -11927   -11958   -11988 
  -12006   -12012   -12006   -11994   -11983   -11963   -11929   -11897 
  -11892   -11919   -11955   -11970   -11950   -11892   -11799   -11699 
  -11638   -11646   -11712   -11811   -11907   -11970   -11994   -12004 
  -12015   -12027   -12032   -12031   -12021   -12005   -11969   -11915 
  -11854   -11803   -11781   -11790   -11819   -11858   -11904   -11948 
  -11970   -11956   -11920   -11877   -11836   -11816   -11826   -11863 
  -11902   -11913   -11896   -11861   -11830   -11809   -11794   -11788 
  -11799   -11823   -11865   -11916   -11966   -12028   -12096   -12145 
  -12187   -12229   -12245   -12216   -12148   -12062   -11970   -11865 
  -11755   -11662   -11605   -11604   -11659   -11745   -11828   -11892 
  -11915   -11897   -11865   -11840   -11840   -11866   -11904   -11939 
  -11965   -11966   -11940   -11901   -11871   -11866   -11890   -11931 
  -11971   -11992   -11982   -11954   -11927   -11921   -11935   -11950 
  -11952   -11934   -11901   -11871   -11851   -11835   -11815   -11797 
  -11786   -11794   -11832   -11894   -11944   -11963   -11965   -11962 
  -11950   -11927   -11896   -11861   -11850   -11888   -11962   -12039 
  -12097   -12131   -12137   -12100   -12027   -11946   -11870   -11807 
  -11763   -11732   -11700   -11674   -11678   -11707   -11742   -11778 
  -11819   -11854   -11880   -11896   -11902   -11901   -11901   -11919 
  -11950   -11975   -11993   -12006   -11998   -11974   -11950   -11935 
  -11912   -11880   -11846   -11816   -11800   -11811   -11842   -11873 
  -11902   -11929   -11946   -11954   -11947   -11920   -11888   -11867 
  -11865   -11875   -11890   -11905   -11919   -11917   -11898   -11892 
  -11900   -11912   -11938   -11962   -11971   -11973   -11963   -11940 
  -11924   -11927   -11946   -11973   -12002   -12032   -12042   -12020 
  -11978   -11935   -11897   -11867   -11844   -11827   -11817   -11808 
  -11801   -11801   -11801   -11805   -11817   -11828   -11839   -11855 
  -11870   -11881   -11889   -11901   -11925   -11943   -11946   -11939 
  -11934   -11938   -11943   -11940   -11928   -11916   -11911   -11915 
  -11916   -11917   -11919   -11907   -11877   -11853   -11836   -11824 
  -11826   -11843   -11873   -11902   -11928   -11951   -11965   -11969 
  -11975   -11974   -11951   -11923   -11902   -11884   -11870   -11873 
  -11885   -11894   -11900   -11909   -11925   -11944   -11966   -11975 
  -11955   -11919   -11888   -11874   -11874   -11877   -11878   -11878 
  -11880   -11875   -11865   -11863   -11882   -11908   -11925   -11936 
  -11931   -11911   -11890   -11867   -11847   -11844   -11850   -11842 
  -11830   -11832   -11844   -11867   -11900   -11931   -11946   -11948 
  -11939   -11924   -11912   -11894   -11873   -11858   -11854   -11859 
  -11871   -11882   -11890   -11897   -11900   -11904   -11902   -11901 
  -11904   -11908   -11909   -11915   -11921   -11928   -11931   -11921 
  -11911   -11917   -11929   -11938   -11946   -11954   -11955   -11943 
  -11920   -11904   -11900   -11896   -11892   -11894   -11901   -11912 
  -11919   -11916   -11915   -11911   -11901   -11890   -11882   -11888 
  -11902   -11915   -11923   -11931   -11936   -11939   -11936   -11928 
  -11920   -11921   -11927   -11931   -11923   -11907   -11896   -11890 
  -11880   -11878   -11884   -11882   -11882   -11890   -11904   -11911 
  -11911   -11905   -11888   -11855   -11830   -11815   -11807   -11816 
  -11847   -11875   -11892   -11905   -11911   -11909   -11916   -11932 
  -11952   -11971   -11982   -11992   -12002   -12005   -12004   -11996 
  -11973   -11936   -11901   -11877   -11859   -11850   -11848   -11847 
  -11838   -11831   -11830   -11827   -11823   -11824   -11831   -11838 
  -11850   -11871   -11894   -11920   -11946   -11959   -11969   -11973 
  -11966   -11954   -11935   -11908   -11881   -11857   -11835   -11826 
  -11832   -11838   -11846   -11867   -11892   -11902   -11913   -11921 
  -11921   -11924   -11935   -11946   -11947   -11943   -11935   -11923 
  -11913   -11917   -11929   -11940   -11938   -11925   -11908   -11888 
  -11867   -11857   -11855   -11859   -11862   -11867   -11880   -11898 
  -11920   -11936   -11944   -11943   -11939   -11924   -11905   -11893 
  -11885   -11881   -11885   -11890   -11894   -11897   -11902   -11916 
  -11928   -11932   -11931   -11927   -11921   -11919   -11919   -11913 
  -11902   -11884   -11861   -11840   -11831   -11840   -11855   -11861 
  -11867   -11871   -11869   -11873   -11889   -11917   -11951   -11977 
  -11992   -11992   -11983   -11979   -11979   -11979   -11975   -11967 
  -11958   -11939   -11909   -11885   -11871   -11863   -11869   -11880 
  -11892   -11904   -11915   -11920   -11916   -11909   -11898   -11886 
  -11882   -11885   -11884   -11884   -11888   -11894   -11901   -11905 
  -11909   -11911   -11904   -11896   -11897   -11907   -11916   -11919 
  -11917   -11919   -11920   -11917   -11909   -11900   -11885   -11861 
  -11835   -11821   -11828   -11850   -11870   -11892   -11909   -11915 
  -11909   -11900   -11889   -11880   -11874   -11881   -11900   -11920 
  -11936   -11943   -11947   -11954   -11951   -11936   -11923   -11915 
  -11905   -11904   -11905   -11902   -11898   -11892   -11892   -11894 
  -11897   -11904   -11915   -11920   -11924   -11920   -11900   -11878 
  -11870   -11863   -11854   -11857   -11871   -11884   -11897   -11913 
  -11929   -11943   -11955   -11966   -11971   -11967   -11962   -11954 
  -11943   -11932   -11920   -11907   -11896   -11885   -11878   -11873 
  -11867   -11863   -11862   -11859   -11858   -11863   -11870   -11880 
  -11886   -11886   -11884   -11882   -11884   -11889   -11894   -11901 
  -11909   -11912   -11911   -11909   -11913   -11920   -11925   -11931 
