Origin Time       2021/08/14 22:38:00
Lat.              37.5
Long.             137.2
Depth. (km)       10
Mag.              4.1
Station Code      TYM011
Station Lat.      36.5781
Station Long.     137.3850
Station Height(m) 390
Record Time       2021/08/14 22:38:37
Sampling Freq(Hz) 100Hz
Duration Time(s)  60
Dir.              N-S
Scale Factor      7845(gal)/8223790
Max. Acc. (gal)   1.583
Last Correction   2021/08/14 22:38:37
Memo.             
[...]
    6386     6403     6403     6392     6388     6389     6392     6392 
    6389     6392     6400     6401     6388     6377     6382     6390 
    6394     6390     6384     6384     6392     6400     6407     6401 
    6386     6385     6393     6393     6394     6400     6394     6377 
    6362     6367     6386     6394     6388     6385     6392     6397 
    6405     6413     6407     6393     6389     6384     6378     6384 
    6394     6400     6404     6401     6393     6389     6388     6382 
    6378     6380     6381     6376     6380     6397     6409     6404 
    6392     6385     6382     6382     6390     6403     6409     6415 
    6409     6390     6373     6372     6380     6384     6381     6376 
    6378     6390     6401     6403     6394     6386     6386     6394 
    6405     6408     6401     6394     6389     6384     6384     6384 
    6380     6377     6377     6382     6393     6396     6392     6396 
    6407     6405     6396     6390     6390     6389     6381     6382 
    6392     6396     6388     6378     6374     6378     6393     6400 
    6399     6401     6400     6385     6377     6378     6385     6392 
    6390     6377     6369     6369     6377     6403     6427     6443 
    6453     6435     6385     6330     6296     6301     6351     6421 
    6478     6509     6500     6453     6388     6318     6259     6235 
    6261     6346     6485     6615     6627     6501     6358     6305 
    6331     6361     6354     6340     6384     6493     6573     6502 
    6278     6031     5937     6114     6498     6832     6890     6690 
    6415     6201     6080     6048     6146     6409     6702     6756 
    6490     6168     6112     6403     6782     6880     6544     6003 
    5688     5814     6147     6359     6432     6558     6795     6990 
    6963     6705     6322     5922     5675     5779     6241     6781 
    7021     6789     6276     5907     5983     6440     6945     7140 
    6880     6303     5736     5514     5740     6241     6752     7028 
    6922     6512     6081     5926     6123     6508     6804     6804 
    6508     6150     5992     6104     6370     6621     6729     6647 
    6423     6189     6124     6299     6512     6500     6281     6097 
    6123     6346     6606     6724     6636     6417     6215     6145 
    6231     6420     6585     6616     6536     6421     6305     6245 
    6280     6384     6511     6571     6436     6150     5979     6138 
    6551     6916     6945     6612     6161     5890     5945     6258 
    6588     6679     6482     6214     6127     6297     6578     6720 
    6600     6339     6160     6172     6330     6505     6573     6475 
    6273     6135     6196     6420     6620     6647     6519     6351 
    6250     6232     6259     6320     6421     6523     6554     6498 
    6416     6362     6330     6308     6322     6397     6497     6529 
    6458     6345     6296     6354     6462     6513     6451     6303 
    6168     6145     6265     6442     6527     6465     6350     6303 
    6342     6408     6444     6443     6424     6436     6498     6543 
    6505     6411     6324     6281     6268     6285     6365     6447 
    6442     6380     6340     6359     6421     6470     6455     6399 
    6358     6394     6490     6535     6470     6349     6246     6220 
    6288     6370     6397     6382     6363     6359     6367     6363 
    6365     6415     6490     6511     6466     6412     6359     6308 
    6297     6347     6405     6424     6409     6373     6345     6374 
    6466     6547     6561     6481     6335     6231     6245     6326 
    6415     6489     6493     6404     6303     6280     6335     6409 
    6444     6409     6324     6266     6286     6355     6426     6488 
    6527     6516     6462     6403     6374     6380     6385     6366 
    6331     6305     6311     6361     6434     6467     6432     6361 
    6311     6311     6359     6435     6480     6438     6334     6245 
    6247     6357     6489     6540     6497     6431     6428     6474 
    6485     6455     6426     6397     6373     6372     6366     6322 
    6254     6204     6216     6343     6535     6635     6575     6446 
    6339     6273     6272     6353     6434     6415     6324     6282 
    6353     6474     6543     6513     6427     6349     6300     6299 
    6370     6467     6488     6389     6261     6241     6342     6454 
    6480     6399     6307     6338     6450     6497     6439     6351 
    6311     6359     6443     6462     6413     6373     6365     6363 
    6370     6416     6471     6475     6423     6354     6301     6307 
    6367     6394     6355     6327     6355     6420     6502     6540 
    6457     6316     6278     6388     6536     6577     6430     6210 
    6133     6251     6423     6515     6494     6416     6343     6292 
    6276     6323     6400     6450     6459     6428     6392     6384 
    6393     6394     6373     6350     6386     6457     6454     6378 
    6322     6322     6366     6432     6493     6529     6501     6405 
    6301     6261     6299     6374     6415     6409     6397     6388 
    6385     6412     6453     6492     6519     6481     6346     6204 
    6181     6296     6454     6539     6497     6385     6312     6309 
    6327     6330     6343     6397     6474     6540     6540     6432 
    6268     6168     6203     6347     6501     6569     6542     6469 
    6384     6308     6295     6372     6465     6454     6330     6212 
    6203     6309     6450     6516     6486     6457     6478     6489 
    6438     6338     6245     6228     6323     6470     6552     6508 
    6382     6274     6280     6412     6540     6543     6436     6324 
    6293     6346     6411     6428     6392     6340     6322     6331 
    6342     6355     6374     6388     6401     6409     6403     6409 
    6430     6435     6430     6427     6421     6409     6390     6373 
    6385     6399     6367     6323     6308     6309     6345     6431 
    6498     6486     6397     6289     6259     6336     6440     6488 
    6469     6412     6354     6345     6403     6496     6565     6525 
    6347     6150     6106     6249     6471     6631     6632     6492 
    6319     6218     6242     6359     6467     6494     6442     6361 
    6307     6312     6369     6438     6447     6396     6366     6392 
    6408     6369     6303     6268     6316     6439     6550     6556 
    6455     6313     6216     6250     6409     6558     6561     6438 
    6311     6272     6330     6416     6471     6489     6473     6420 
    6346     6288     6278     6319     6380     6421     6430     6431 
    6435     6420     6384     6355     6363     6412     6465     6454 
    6366     6269     6234     6300     6431     6523     6501     6394 
    6316     6338     6405     6439     6421     6372     6328     6330 
    6382     6446     6462     6440     6435     6454     6444     6374 
    6268     6195     6210     6301     6416     6512     6544     6490 
    6405     6373     6405     6453     6469     6430     6351     6293 
    6301     6362     6397     6362     6307     6316     6400     6490 
    6511     6432     6327     6295     6331     6413     6507     6497 
    6369     6258     6270     6401     6552     6582     6451     6278 
    6212     6295     6431     6509     6496     6416     6336     6319 
    6353     6413     6486     6501     6409     6266     6178     6218 
    6361     6492     6515     6443     6366     6365     6430     6489 
    6501     6458     6392     6354     6350     6358     6370     6357 
    6313     6291     6315     6378     6466     6525     6498     6403 
    6299     6243     6282     6401     6490     6482     6413     6343 
    6320     6366     6446     6493     6473     6411     6373     6380 
    6380     6354     6342     6372     6415     6427     6411     6404 
    6413     6404     6340     6259     6265     6384     6509     6547 
    6496     6390     6292     6273     6335     6417     6478     6486 
    6415     6315     6295     6355     6415     6432     6399     6327 
    6289     6327     6417     6516     6558     6492     6372     6295 
    6295     6355     6428     6462     6451     6416     6372     6342 
    6345     6372     6409     6439     6417     6357     6324     6372 
    6482     6565     6525     6376     6235     6219     6313     6424 
    6480     6458     6384     6309     6272     6284     6346     6434 
    6500     6493     6426     6377     6384     6415     6443     6453 
    6416     6339     6273     6270     6322     6381     6417     6436 
    6444     6431     6405     6389     6386     6394     6424     6454 
    6436     6386     6349     6347     6381     6421     6423     6388 
    6343     6303     6288     6332     6416     6486     6511     6484 
    6426     6374     6351     6369     6400     6397     6357     6322 
    6313     6323     6345     6396     6461     6486     6457     6403 
    6366     6358     6369     6388     6396     6382     6359     6343 
    6350     6394     6457     6496     6494     6446     6376     6342 
    6372     6432     6436     6350     6253     6245     6347     6471 
    6507     6432     6345     6345     6420     6471     6450     6378 
    6311     6296     6353     6444     6497     6455     6370     6332 
    6359     6413     6446     6409     6318     6247     6258     6351 
    6474     6536     6501     6424     6372     6361     6386     6409 
    6382     6309     6249     6278     6405     6531     6566     6497 
    6372     6273     6284     6400     6507     6502     6409     6330 
    6327     6381     6450     6489     6466     6388     6308     6277 
    6292     6318     6357     6404     6430     6440     6446     6423 
    6376     6335     6327     6357     6409     6467     6508     6505 
    6467     6412     6366     6354     6350     6323     6296     6304 
    6343     6381     6401     6411     6413     6405     6396     6400 
    6408     6408     6394     6372     6369     6415     6480     6494 
    6431     6322     6257     6285     6372     6439     6434     6380 
    6369     6435     6504     6501     6421     6313     6254     6295 
    6397     6480     6490     6426     6320     6251     6268     6350 
    6447     6501     6477     6381     6282     6261     6332     6450 
    6534     6517     6424     6342     6322     6359     6439     6511 
    6520     6448     6332     6242     6242     6336     6463     6524 
    6462     6342     6264     6258     6312     6400     6457     6461 
    6448     6428     6403     6389     6397     6409     6413     6407 
    6400     6393     6367     6332     6336     6403     6480     6484 
    6413     6336     6313     6359     6440     6488     6447     6343 
    6262     6259     6307     6363     6415     6453     6473     6466 
    6421     6355     6326     6358     6415     6446     6430     6385 
    6353     6355     6385     6427     6443     6408     6353     6328 
    6346     6373     6396     6409     6401     6394     6413     6423 
    6390     6355     6366     6413     6446     6427     6390     6397 
    6444     6467     6439     6394     6346     6296     6268     6274 
    6336     6440     6511     6490     6413     6354     6358     6392 
    6390     6347     6304     6304     6358     6423     6457     6440 
    6393     6359     6361     6408     6496     6550     6485     6338 
    6235     6269     6403     6520     6535     6440     6308     6243 
    6293     6419     6511     6492     6384     6282     6282     6378 
    6463     6453     6373     6299     6284     6322     6384     6446 
    6474     6439     6362     6322     6363     6447     6485     6435 
    6346     6311     6355     6413     6424     6392     6361     6374 
    6413     6430     6431     6459     6489     6459     6351     6239 
    6238     6338     6435     6467     6438     6385     6385     6439 
    6462     6411     6338     6309     6340     6392     6426     6438 
    6427     6404     6378     6355     6342     6357     6393     6426 
    6451     6467     6471     6453     6394     6323     6295     6332 
    6404     6431     6389     6331     6315     6345     6369     6370 
    6369     6362     6334     6312     6312     6336     6405     6485 
    6500     6451     6415     6426     6444     6435     6396     6359 
    6350     6354     6351     6372     6436     6511     6515     6420 
    6286     6216     6264     6388     6498     6527     6453     6320 
    6235     6268     6384     6492     6528     6474     6372     6318 
    6359     6423     6420     6374     6362     6419     6504     6529 
    6480     6428     6408     6393     6385     6374     6354     6345 
    6355     6389     6440     6488     6497     6411     6220     6079 
    6145     6384     6590     6565     6293     5999     5906     6054 
    6340     6574     6616     6494     6355     6363     6532     6654 
    6538     6199     5836     5718     5983     6523     7083     7383 
    7272     6853     6397     6114     6011     6022     6166     6480 
    6856     7094     7069     6818     6485     6215     6102     6122 
    6141     6069     5967     5903     5896     6008     6284     6570 
    6635     6442     6201     6212     6597     7137     7433     7318 
    6998     6750     6582     6323     5892     5401     5127     5336 
    6039     6860     7254     6972     6277     5682     5512     5641 
    5634     5278     4889     5008     5837     7017     7894     8050 
    7607     7056     6839     7029     7329     7349     6939     6323 
    5944     6093     6625     7049     6960     6370     5706     5441 
    5726     6320     6775     6736     6257     5745     5578     5833 
    6277     6589     6647     6574     6573     6713     6858     6832 
    6604     6266     6007     5971     6088     6174     6154     6097 
    6112     6253     6471     6670     6786     6829     6843     6805 
    6592     6153     5661     5359     5377     5730     6299     6793 
    6937     6683     6251     5972     6030     6340     6689     6887 
    6855     6691     6635     6799     7053     7191     7134     6945 
    6744     6608     6532     6434     6246     6011     5867     5876 
    5926     5832     5551     5265     5228     5570     6176     6755 
    7040     6961     6679     6444     6407     6492     6543     6515 
    6475     6489     6543     6613     6700     6775     6787     6686 
    6466     6219     6088     6174     6459     6751     6781     6454 
    5991     5749     5890     6253     6543     6585     6436     6295 
    6316     6504     6729     6833     6702     6372     6027     5873 
    5983     6300     6666     6875     6829     6632     6424     6253 
    6133     6122     6245     6411     6462     6336     6134     6003 
    6021     6151     6295     6378     6459     6628     6843     6924 
    6725     6316     5961     5884     6114     6480     6727     6701 
    6470     6254     6227     6366     6496     6497     6389     6291 
    6318     6474     6648     6714     6654     6531     6409     6312 
    6241     6200     6188     6208     6266     6303     6261     6210 
    6239     6347     6471     6535     6474     6350     6305     6388 
    6511     6561     6500     6389     6353     6457     6606     6650 
    6538     6349     6212     6238     6438     6675     6764     6647 
    6416     6212     6127     6165     6257     6318     6301     6246 
    6231     6272     6315     6336     6332     6293     6224     6178 
    6231     6399     6589     6677     6613     6486     6446     6544 
    6691     6774     6729     6578     6421     6342     6312     6254 
    6154     6054     5989     6006     6158     6404     6588     6598 
    6457     6285     6204     6228     6304     6376     6399     6394 
    6421     6513     6666     6831     6905     6793     6512     6231 
    6141     6266     6442     6482     6335     6118     6025     6134 
    6349     6538     6597     6496     6328     6210     6176     6222 
    6327     6438     6507     6528     6548     6597     6642     6619 
    6500     6345     6251     6238     6232     6192     6141     6145 
    6228     6339     6419     6455     6432     6345     6265     6282 
    6413     6588     6706     6727     6660     6527     6370     6272 
    6278     6351     6401     6362     6266     6227     6292     6417 
    6542     6590     6511     6346     6201     6166     6270     6443 
    6575     6605     6542     6442     6355     6319     6342     6378 
    6362     6316     6326     6403     6444     6376     6253     6184 
    6210     6319     6466     6585     6648     6640     6527     6342 
    6201     6178     6277     6436     6558     6597     6561     6465 
    6359     6311     6326     6340     6320     6300     6350     6469 
    6550     6496     6330     6178     6170     6330     6551     6706 
    6710     6578     6404     6269     6210     6226     6268     6280 
    6272     6281     6340     6413     6427     6369     6301     6289 
    6322     6336     6332     6354     6386     6376     6340     6358 
    6455     6582     6652     6604     6453     6292     6215     6270 
    6393     6457     6405     6309     6274     6347     6466     6515 
    6446     6320     6272     6388     6606     6777     6781     6601 
    6353     6208     6241     6388     6505     6502     6409     6309 
    6265     6300     6382     6431     6411     6372     6367     6373 
    6343     6286     6234     6214     6239     6304     6372     6401 
    6399     6386     6361     6336     6350     6405     6473     6489 
    6439     6382     6378     6436     6527     6585     6586     6555 
    6512     6466     6426     6373     6303     6264     6278     6311 
    6313     6261     6174     6114     6126     6208     6330     6442 
    6497     6513     6525     6517     6492     6486     6509     6519 
    6475     6393     6328     6332     6408     6497     6534     6478 
    6358     6258     6246     6319     6420     6493     6519     6502 
    6443     6340     6234     6197     6270     6403     6502     6507 
    6416     6307     6258     6288     6355     6407     6408     6373 
    6347     6342     6355     6366     6342     6312     6351     6457 
    6547     6566     6496     6361     6241     6228     6338     6482 
    6555     6519     6413     6316     6299     6350     6382     6365 
    6366     6442     6555     6636     6621     6502     6367     6301 
    6323     6411     6489     6478     6400     6323     6295     6328 
    6394     6426     6374     6269     6210     6289     6458     6567 
    6538     6399     6253     6188     6220     6293     6335     6305 
    6243     6224     6277     6392     6527     6602     6579     6507 
    6440     6419     6440     6454     6421     6372     6334     6328 
    6358     6409     6454     6454     6407     6385     6448     6540 
    6567     6490     6347     6242     6261     6358     6431     6428 
    6367     6309     6301     6326     6328     6292     6243     6226 
    6273     6373     6486     6556     6540     6451     6369     6355 
    6417     6505     6548     6505     6389     6264     6203     6241 
    6350     6484     6593     6609     6509     6369     6295     6315 
