Origin Time       2021/08/14 22:38:00
Lat.              37.5
Long.             137.2
Depth. (km)       10
Mag.              4.1
Station Code      TYM011
Station Lat.      36.5781
Station Long.     137.3850
Station Height(m) 390
Record Time       2021/08/14 22:38:37
Sampling Freq(Hz) 100Hz
Duration Time(s)  60
Dir.              U-D
Scale Factor      7845(gal)/8223790
Max. Acc. (gal)   0.873
Last Correction   2021/08/14 22:38:37
Memo.             
   32984    32989    33000    32996    32988    32988    32995    32996 
   32994    32991    32991    32987    32983    32984    32983    32984 
   32994    32991    32983    32984    32987    32991    32992    32988 
   32992    32996    32988    32989    32998    33000    32999    32989 
   32984    32989    32988    32987    32999    33000    32987    32984 
   32989    32992    32995    32992    32988    32989    32981    32980 
   32989    32991    32992    32996    32995    33000    33003    32991 
   32984    32989    32996    32989    32980    32983    32988    32985 
   32991    32998    32995    32989    32988    32992    32996    32994 
   32989    32992    32994    32985    32983    32988    32994    32995 
   32992    32989    32989    32992    32994    32988    32983    32984 
   32989    32995    32992    32984    32988    33002    33000    32989 
   32992    32999    32994    32983    32987    32999    33002    32994 
   32984    32984    32988    32987    32989    32991    32983    32985 
   33000    32999    32987    32981    32983    32991    32992    32984 
   32981    32988    32989    32991    32996    33002    32998    32984 
   32983    32998    33002    32992    32985    32981    32985    32995 
   32992    32981    32985    32991    32995    32998    32987    32981 
   32996    33002    32989    32984    32987    32985    32988    32995 
   32995    32994    32992    32987    32984    32996    33007    33000 
   32991    32992    32994    32992    32994    32995    32987    32977 
   32981    32987    32988    32991    32985    32983    32989    32995 
   32992    32987    32989    32996    32999    32998    32988    32977 
   32979    32992    32998    32994    32991    32988    32992    33000 
   32998    32987    32979    32985    33000    33002    32991    32988 
   32989    32995    32994    32981    32985    32995    32987    32981 
   32987    32991    32996    32996    32985    32988    32996    32992 
   32989    32989    32989    32996    32996    32985    32984    32992 
   32995    32991    32992    32999    33012    33016    33003    33000 
   33006    32999    32992    33006    33025    33034    33033    33027 
   33011    32969    32892    32821    32803    32853    32942    33029 
   33083    33123    33119    33042    32938    32869    32845    32853 
   32887    32981    33151    33280    33216    33004    32856    32852 
   32890    32886    32869    32907    33029    33166    33223    33138 
   32894    32611    32576    32962    33563    33906    33743    33301 
   32926    32638    32343    32201    32466    33045    33505    33457 
   32948    32471    32472    32953    33517    33664    33215    32574 
   32344    32648    33027    33120    33104    33243    33442    33454 
   33243    32937    32661    32524    32594    32823    32976    32883 
   32790    33021    33436    33613    33372    32927    32664    32730 
   32915    33012    32998    32904    32838    32902    33102    33370 
   33490    33222    32728    32441    32491    32701    32910    33026 
   33080    33228    33444    33471    33191    32795    32599    32737 
   33025    33133    32964    32764    32769    32956    33189    33323 
   33222    32983    32884    32987    33087    33012    32810    32699 
   32796    32976    33107    33192    33242    33234    33133    32942 
   32756    32682    32742    32884    32979    32972    32992    33085 
   33115    33077    33069    33041    32964    32952    33008    33034 
   33008    32972    32964    33011    33092    33150    33141    33048 
   32911    32792    32725    32730    32838    33029    33170    33151 
   33053    33014    33052    33095    33068    32957    32854    32840 
   32887    32949    32999    33015    33006    33006    33011    33000 
   32998    33023    33049    33064    33083    33089    33037    32919 
   32832    32868    32949    32994    33060    33124    33081    32965 
   32898    32935    33041    33096    33034    32917    32863    32911 
   32996    33035    33030    33014    33000    32999    32994    32962 
   32942    32967    32999    32983    32913    32881    32983    33149 
   33218    33131    32973    32859    32844    32895    32933    32937 
   32942    32998    33081    33093    33008    32949    32985    33075 
   33147    33099    32919    32794    32832    32956    33072    33107 
   33034    32971    33019    33103    33107    33018    32852    32721 
   32783    32971    33068    33075    33096    33099    33054    32999 
   32946    32921    32941    32958    32931    32910    32956    33002 
   32996    33034    33114    33119    33084    33088    33060    32957 
   32883    32890    32941    32984    32984    32960    32971    33025 
   33070    33072    33008    32910    32864    32913    33003    33058 
   33046    33033    33083    33139    33107    32999    32876    32783 
   32769    32848    32964    33050    33081    33057    32996    32958 
   32979    33018    33022    32962    32902    32940    33049    33099 
   33064    33019    33010    33031    33056    33048    32995    32873 
   32749    32761    32888    33011    33079    33073    33076    33150 
   33156    33014    32902    32919    32967    32984    32992    33029 
   33084    33062    32953    32929    33011    33025    32931    32860 
   32894    33007    33084    33061    33003    32972    32960    32961 
   32977    32996    33008    33038    33087    33054    32938    32879 
   32906    32965    33056    33088    32991    32890    32864    32879 
   32925    32962    32972    33045    33158    33180    33085    32956 
   32894    32927    32983    33026    33068    33072    33046    33043 
   33022    32941    32904    32965    32995    32930    32859    32868 
   33012    33176    33141    32995    32948    32944    32926    32948 
   32956    32930    32962    33019    33045    33050    33007    32969 
   33019    33066    33049    33033    33012    32925    32811    32802 
   32923    33033    33031    33022    33116    33219    33174    33019 
   32883    32832    32886    32991    33025    32981    32956    32953 
   32942    32961    33006    33037    33068    33046    32914    32827 
   32942    33120    33174    33110    33012    32960    32967    32946 
   32873    32856    32925    33021    33115    33154    33102    33012 
   32907    32832    32879    32977    32992    32956    32957    33019 
   33097    33104    33014    32904    32868    32914    32977    33011 
   33008    32995    33029    33089    33095    33045    32995    32991 
   33046    33065    32967    32821    32763    32871    33061    33151 
   33104    33012    32940    32972    33080    33073    32929    32832 
   32876    33015    33124    33107    33037    33004    32988    32968 
   32908    32814    32807    32921    33033    33112    33157    33103 
   33018    32992    32979    32984    33037    33041    32967    32902 
   32887    32944    33030    33045    33007    32984    32983    33035 
   33084    32987    32818    32782    32903    33062    33115    33026 
   32938    32968    33060    33137    33157    33088    32987    32919 
   32863    32810    32841    32975    33112    33183    33166    33045 
   32876    32794    32844    32973    33104    33118    32998    32895 
   32913    32998    33084    33108    33011    32876    32842    32906 
   32969    32983    32987    33030    33058    33021    33003    33062 
   33095    33012    32904    32910    33015    33072    33007    32925 
   32954    33049    33080    33030    32972    32944    32946    32969 
   32979    32950    32931    32988    33088    33141    33114    33038 
   32948    32888    32883    32921    32983    33023    33025    33003 
   32961    32903    32868    32902    33006    33091    33076    33012 
   33007    33066    33093    33034    32944    32907    32944    32994 
   33018    33010    32964    32940    33004    33070    33025    32917 
   32875    32949    33077    33139    33111    33052    32976    32908 
   32926    33021    33066    33004    32917    32881    32873    32879 
   32937    33026    33052    33010    33021    33106    33147    33100 
   33021    32941    32887    32881    32896    32918    32991    33054 
   33038    33029    33048    33014    32967    32983    32999    32973 
   32958    32968    32995    33038    33049    32987    32914    32929 
   33011    33048    33004    32953    32935    32944    32976    33014 
   33053    33088    33088    33062    33045    33023    32972    32899 
   32832    32832    32942    33080    33118    33054    32975    32929 
   32933    32987    33038    33035    33011    33015    33030    33016 
   32977    32934    32923    32958    33000    33022    33019    32972 
   32902    32900    32979    33056    33069    33027    32989    32991 
   32991    32976    32992    33018    32994    32958    32975    33021 
   33041    33023    32979    32911    32877    32948    33066    33129 
   33112    33046    32977    32945    32933    32914    32923    32989 
   33035    33021    32999    32984    32953    32964    33025    33042 
   33003    32981    32983    32988    32988    32957    32915    32929 
   32988    33031    33035    32987    32926    32948    33019    33049 
   33048    33025    32991    33031    33091    33049    32972    32948 
   32954    32980    32976    32884    32833    32930    33049    33062 
   33018    32987    33004    33052    33064    33029    32983    32950 
   32940    32956    32999    33039    33043    33031    33037    33031 
   32971    32877    32845    32914    32989    32991    32962    33002 
   33095    33137    33096    33007    32892    32836    32892    32992 
   33058    33077    33054    33031    33012    32979    32957    32957 
   32961    32957    32946    32958    32984    32977    32972    33015 
   33046    33041    33068    33102    33066    32999    32956    32934 
   32913    32863    32840    32931    33053    33077    33043    33010 
   32987    32985    32987    32969    32960    32979    33010    33050 
   33088    33084    33041    32995    32979    32988    32971    32930 
   32938    32983    32973    32927    32938    32998    33045    33053 
   33004    32953    32984    33052    33062    33010    32948    32927 
   32950    32981    33025    33054    33018    32952    32925    32930 
   32957    32995    33023    33022    32969    32895    32890    32954 
   33027    33092    33130    33123    33087    33026    32960    32931 
   32931    32931    32926    32929    32962    33011    33026    33008 
   32985    32962    32985    33062    33069    32968    32906    32945 
   33000    33026    33046    33060    33026    32968    32942    32945 
   32942    32929    32938    32992    33057    33092    33088    33046 
   33006    33004    33004    32968    32933    32944    32983    33010 
   33012    33000    32981    32972    32948    32910    32937    33022 
   33060    33027    32976    32925    32910    32965    33029    33038 
   33019    33010    32998    32981    32979    33012    33060    33070 
   33031    32971    32915    32895    32933    33011    33065    33052 
   32999    32985    33012    33021    33011    33002    32969    32941 
   32957    32992    33002    32994    32994    33010    33010    32967 
   32923    32934    32980    33018    33039    33053    33045    33003 
   32961    32958    32976    32972    32957    32975    33014    33021 
   33004    32980    32948    32953    33010    33042    33033    33019 
   32991    32961    32972    32985    32956    32935    32958    32989 
   33015    33037    33053    33048    33022    32991    32956    32926 
   32941    32991    33011    32994    32981    32991    33007    33018 
   33025    33004    32956    32956    33022    33062    33021    32949 
   32929    32989    33057    33049    32989    32961    32984    33006 
   32991    32965    32965    32979    32995    33025    33048    33012 
   32938    32922    32981    33015    32987    32950    32941    32983 
   33043    33046    32996    32944    32913    32946    33046    33096 
   33026    32941    32949    33010    33038    33008    32969    32988 
   33029    33038    33038    33034    32991    32925    32877    32884 
   32957    33048    33064    33004    32965    32985    33025    33052 
   33038    32976    32926    32958    33048    33081    33010    32918 
   32880    32914    32983    33016    33011    33004    32995    32989 
   33014    33035    33004    32962    32980    33027    33029    33002 
   32976    32965    32988    33016    33004    32985    33000    33019 
   33012    33000    33003    33014    32996    32931    32903    32976 
   33062    33050    32954    32894    32941    33022    33034    32994 
   32969    32992    33058    33089    33016    32935    32944    32983 
   32995    32984    32965    32969    32992    33011    33014    32995 
   32975    32996    33027    33002    32952    32954    32999    33027 
   32992    32925    32918    32962    32964    32949    33014    33112 
   33122    33046    32979    32952    32957    32992    33031    33039 
   33016    32995    33004    33022    32996    32961    32976    32996 
   32961    32896    32876    32944    33033    33061    33027    32956 
   32914    32965    33035    33046    33011    32971    32979    33037 
   33030    32954    32949    33035    33095    33054    32957    32914 
   32940    32968    33004    33066    33085    33046    33003    32979 
   32944    32907    32935    33023    33065    33016    32930    32876 
   32914    32996    33033    33049    33060    33030    32999    33004 
   33029    33023    32950    32891    32938    33000    33000    32992 
   32977    32948    32964    33007    33025    33037    33025    32989 
   32987    32983    32919    32853    32877    32991    33075    33050 
   33007    33027    33075    33091    33046    32988    32985    33011 
   33034    33072    33084    33046    33035    33088    33139    33127 
   33016    32846    32724    32701    32755    32863    33011    33122 
   33119    33019    32930    32938    32975    32921    32844    32856 
   32906    32960    33058    33157    33177    33146    33138    33160 
   33170    33205    33273    33268    33124    32911    32753    32730 
   32775    32765    32690    32624    32648    32757    32868    32886 
   32822    32805    32898    33002    33030    33038    33138    33345 
   33556    33662    33633    33544    33431    33214    32917    32703 
   32584    32474    32463    32657    32926    33102    33169    33119 
   32938    32764    32772    32937    33066    33021    32803    32590 
   32641    32958    33259    33376    33335    33177    32977    32872 
   32902    32999    33058    32996    32881    32886    33029    33173 
   33201    33084    32887    32749    32767    32894    32998    33033 
   33072    33156    33238    33245    33154    33085    33129    33177 
   33126    33026    32926    32809    32706    32710    32853    32988 
   32989    32925    32896    32904    32892    32842    32821    32856 
   32873    32829    32742    32701    32802    33008    33199    33345 
   33440    33446    33381    33303    33196    33041    32921    32927 
   33060    33274    33471    33509    33335    33025    32711    32505 
   32401    32359    32432    32629    32832    32967    33030    33015 
   32977    32922    32772    32613    32643    32852    33073    33230 
   33286    33253    33223    33247    33257    33212    33170    33147 
   33108    33085    33130    33195    33197    33131    33012    32890 
   32868    32946    32975    32904    32836    32788    32751    32771 
   32857    32937    32949    32898    32832    32821    32888    32957 
   32952    32948    33049    33191    33243    33207    33165    33111 
   33030    32983    33008    33076    33139    33156    33110    33007 
   32871    32764    32725    32703    32688    32765    32954    33127 
   33139    32999    32872    32864    32933    33021    33083    33096 
   33100    33122    33147    33147    33069    32944    32890    32919 
   32958    33010    33083    33100    33034    32953    32921    32953 
   32998    32994    32984    33011    33052    33081    33073    33033 
   33022    33057    33108    33131    33073    32949    32853    32861 
   32925    32935    32891    32872    32913    32989    33068    33075 
   32977    32875    32881    32972    33048    33056    33012    32961 
   32952    32979    33000    32988    32942    32883    32853    32902 
   33030    33150    33160    33068    32942    32827    32768    32791 
   32883    33002    33095    33157    33169    33089    32989    32989 
   33083    33162    33139    33045    33018    33103    33172    33115 
   32976    32876    32856    32848    32849    32910    32984    33000 
   32968    32940    32954    32980    32956    32888    32840    32846 
   32906    32973    33008    33006    32981    32964    32964    32988 
   33072    33196    33250    33191    33081    32992    32967    32991 
   33003    32996    33015    33049    33080    33087    33011    32875 
   32809    32854    32930    32977    33000    33029    33064    33061 
   32991    32923    32938    33008    33035    32998    32956    32946 
   32973    33010    32980    32911    32908    32960    33003    33053 
   33076    33035    33006    33034    33035    32964    32872    32853 
   32964    33112    33153    33085    33010    32976    32994    33037 
   33035    32998    32971    32949    32945    32962    32948    32910 
   32899    32895    32896    32934    32964    32957    32961    32985 
   32984    32949    32915    32935    33004    33052    33061    33061 
   33066    33100    33138    33104    33022    32991    33027    33069 
   33076    33039    32985    32961    32975    32988    32999    33021 
   33026    32995    32952    32908    32865    32852    32877    32902 
   32899    32903    32933    32950    32942    32957    33014    33081 
   33127    33150    33146    33097    33018    32969    32972    32980 
   32979    32992    33004    32972    32923    32913    32944    33000 
   33052    33060    33042    33026    33021    33008    32976    32944 
   32930    32938    32973    33010    33003    32994    33025    33052 
   33042    33004    32969    32989    33046    33057    33007    32938 
   32902    32946    33018    33052    33073    33075    33025    32946 
   32881    32873    32925    32968    32972    32960    32942    32923 
   32926    32938    32940    32946    32981    33025    33038    33019 
   32984    32944    32918    32935    32994    33056    33092    33095 
   33083    33079    33054    32991    32948    32972    33037    33083 
   33080    33060    33049    33033    33007    32972    32923    32900 
   32915    32948    32983    32987    32965    32964    32983    33012 
   33054    33066    33027    32968    32919    32906    32935    32972 
   32967    32953    32971    32994    33002    33002    32995    32987 
   32968    32937    32941    32992    33029    33049    33112    33165 
   33110    33010    32954    32918    32886    32886    32899    32926 
   32983    33016    33004    32992    33002    33031    33058    33045 
   33008    32996    33014    33045    33054    33011    32960    32973 
   33031    33056    33034    32989    32918    32856    32865    32911 
   32946    32967    32976    32983    32984    32950    32921    32965 
