Origin Time       2021/08/14 22:38:00
Lat.              37.5
Long.             137.2
Depth. (km)       10
Mag.              4.1
Station Code      TYM011
Station Lat.      36.5781
Station Long.     137.3850
Station Height(m) 390
Record Time       2021/08/14 22:38:37
Sampling Freq(Hz) 100Hz
Duration Time(s)  60
Dir.              E-W
Scale Factor      7845(gal)/8223790
Max. Acc. (gal)   1.767
Last Correction   2021/08/14 22:38:37
Memo.             
[...]
   -8310    -8303    -8290    -8280    -8272    -8266    -8262    -8260 
   -8266    -8272    -8278    -8284    -8291    -8289    -8282    -8284 
   -8290    -8294    -8302    -8309    -8305    -8297    -8293    -8283 
   -8267    -8255    -8256    -8270    -8279    -8279    -8276    -8282 
   -8293    -8302    -8298    -8286    -8279    -8280    -8290    -8299 
   -8299    -8291    -8282    -8278    -8275    -8271    -8268    -8274 
   -8278    -8279    -8283    -8283    -8283    -8291    -8299    -8298 
   -8293    -8287    -8290    -8298    -8297    -8284    -8274    -8267 
   -8266    -8279    -8287    -8278    -8272    -8278    -8283    -8289 
   -8295    -8298    -8293    -8279    -8270    -8270    -8276    -8287 
   -8294    -8287    -8280    -8293    -8305    -8306    -8313    -8314 
   -8305    -8295    -8279    -8245    -8213    -8202    -8221    -8271 
   -8325    -8349    -8337    -8306    -8279    -8272    -8275    -8270 
   -8257    -8262    -8303    -8371    -8415    -8374    -8252    -8151 
   -8159    -8257    -8337    -8309    -8216    -8186    -8286    -8425 
   -8432    -8240    -7986    -7884    -8046    -8429    -8819    -8949 
   -8748    -8394    -8068    -7830    -7730    -7877    -8259    -8608 
   -8599    -8218    -7862    -7938    -8407    -8816    -8812    -8471 
   -8077    -7874    -7967    -8245    -8507    -8625    -8561    -8349 
   -8089    -7925    -7982    -8256    -8557    -8653    -8506    -8278 
   -8125    -8067    -8043    -8056    -8145    -8249    -8293    -8309 
   -8374    -8521    -8677    -8668    -8432    -8120    -7927    -7997 
   -8298    -8525    -8386    -7987    -7793    -8074    -8596    -8888 
   -8695    -8205    -7854    -7861    -8067    -8249    -8372    -8480 
   -8556    -8586    -8573    -8473    -8270    -8013    -7807    -7803 
   -8055    -8406    -8634    -8640    -8522    -8433    -8364    -8245 
   -8091    -7956    -7904    -7973    -8141    -8361    -8529    -8536 
   -8445    -8413    -8471    -8514    -8430    -8172    -7858    -7749 
   -7973    -8355    -8606    -8586    -8378    -8186    -8158    -8286 
   -8442    -8496    -8418    -8272    -8155    -8145    -8224    -8293 
   -8298    -8263    -8232    -8241    -8298    -8386    -8463    -8465 
   -8353    -8152    -7997    -8036    -8267    -8490    -8526    -8375 
   -8166    -8078    -8191    -8387    -8483    -8410    -8236    -8098 
   -8098    -8202    -8322    -8403    -8411    -8329    -8228    -8182 
   -8187    -8248    -8372    -8472    -8448    -8328    -8222    -8182 
   -8172    -8171    -8191    -8255    -8365    -8463    -8436    -8289 
   -8163    -8145    -8222    -8355    -8446    -8410    -8297    -8225 
   -8228    -8256    -8266    -8229    -8149    -8085    -8101    -8209 
   -8356    -8448    -8434    -8356    -8291    -8287    -8333    -8383 
   -8401    -8368    -8309    -8271    -8256    -8257    -8267    -8267 
   -8274    -8314    -8347    -8313    -8233    -8174    -8178    -8224 
   -8237    -8206    -8206    -8290    -8395    -8433    -8392    -8329 
   -8275    -8235    -8218    -8222    -8236    -8253    -8262    -8255 
   -8278    -8352    -8410    -8410    -8380    -8318    -8214    -8148 
   -8156    -8178    -8205    -8271    -8332    -8344    -8341    -8330 
   -8309    -8325    -8378    -8398    -8345    -8249    -8158    -8110 
   -8174    -8336    -8442    -8407    -8316    -8276    -8325    -8418 
   -8457    -8361    -8185    -8085    -8121    -8232    -8320    -8306 
   -8202    -8108    -8113    -8232    -8387    -8452    -8382    -8260 
   -8195    -8213    -8293    -8372    -8374    -8311    -8278    -8309 
   -8367    -8386    -8333    -8245    -8179    -8168    -8225    -8286 
   -8283    -8251    -8248    -8266    -8283    -8287    -8267    -8266 
   -8329    -8405    -8422    -8379    -8316    -8278    -8287    -8320 
   -8334    -8321    -8249    -8109    -8006    -8056    -8225    -8371 
   -8413    -8387    -8356    -8336    -8299    -8233    -8197    -8236 
   -8291    -8314    -8333    -8367    -8394    -8374    -8287    -8203 
   -8216    -8284    -8311    -8274    -8237    -8266    -8329    -8364 
   -8368    -8337    -8260    -8172    -8109    -8105    -8209    -8348 
   -8402    -8380    -8348    -8320    -8317    -8347    -8348    -8263 
   -8137    -8091    -8191    -8368    -8469    -8410    -8276    -8208 
   -8241    -8318    -8348    -8305    -8256    -8235    -8222    -8229 
   -8244    -8276    -8352    -8405    -8368    -8298    -8253    -8235 
   -8241    -8257    -8279    -8324    -8372    -8386    -8320    -8172 
   -8056    -8101    -8270    -8390    -8368    -8303    -8321    -8388 
   -8401    -8310    -8194    -8179    -8268    -8320    -8278    -8233 
   -8229    -8235    -8259    -8317    -8387    -8445    -8430    -8309 
   -8185    -8182    -8272    -8341    -8321    -8222    -8131    -8120 
   -8187    -8287    -8357    -8364    -8353    -8375    -8394    -8364 
   -8289    -8206    -8186    -8263    -8360    -8374    -8294    -8221 
   -8239    -8307    -8341    -8324    -8291    -8262    -8237    -8226 
   -8249    -8317    -8383    -8386    -8306    -8197    -8137    -8145 
   -8191    -8248    -8321    -8398    -8411    -8334    -8259    -8247 
   -8247    -8233    -8218    -8230    -8321    -8442    -8467    -8391 
   -8303    -8259    -8263    -8267    -8244    -8221    -8210    -8232 
   -8297    -8329    -8291    -8263    -8278    -8294    -8316    -8338 
   -8314    -8259    -8235    -8272    -8343    -8379    -8367    -8313 
   -8218    -8167    -8216    -8278    -8287    -8248    -8186    -8181 
   -8276    -8392    -8418    -8330    -8226    -8220    -8287    -8309 
   -8251    -8193    -8212    -8305    -8395    -8413    -8382    -8357 
   -8322    -8226    -8112    -8095    -8232    -8399    -8452    -8380 
   -8259    -8174    -8171    -8253    -8375    -8457    -8442    -8328 
   -8181    -8121    -8193    -8307    -8372    -8351    -8255    -8148 
   -8121    -8213    -8365    -8473    -8456    -8321    -8170    -8108 
   -8152    -8255    -8348    -8380    -8359    -8336    -8329    -8316 
   -8293    -8282    -8282    -8282    -8290    -8290    -8274    -8260 
   -8259    -8266    -8280    -8291    -8276    -8239    -8222    -8244 
   -8275    -8305    -8338    -8356    -8353    -8330    -8289    -8256 
   -8237    -8216    -8193    -8183    -8222    -8301    -8355    -8368 
   -8365    -8367    -8370    -8349    -8297    -8233    -8195    -8213 
   -8275    -8317    -8313    -8287    -8270    -8287    -8322    -8328 
   -8266    -8190    -8210    -8343    -8473    -8490    -8371    -8194 
   -8090    -8122    -8245    -8338    -8334    -8266    -8206    -8209 
   -8256    -8298    -8318    -8306    -8260    -8221    -8237    -8316 
   -8414    -8461    -8401    -8268    -8160    -8120    -8155    -8270 
   -8371    -8375    -8322    -8274    -8268    -8324    -8384    -8388 
   -8332    -8259    -8235    -8253    -8257    -8249    -8247    -8236 
   -8232    -8244    -8264    -8303    -8359    -8380    -8344    -8275 
   -8226    -8232    -8286    -8343    -8355    -8326    -8290    -8247 
   -8203    -8197    -8240    -8282    -8293    -8274    -8245    -8259 
   -8345    -8426    -8422    -8360    -8289    -8224    -8199    -8230 
   -8283    -8303    -8274    -8232    -8229    -8274    -8328    -8336 
   -8290    -8253    -8271    -8294    -8294    -8294    -8289    -8268 
   -8253    -8251    -8256    -8282    -8328    -8349    -8313    -8251 
   -8230    -8274    -8337    -8360    -8317    -8257    -8266    -8340 
   -8401    -8409    -8364    -8280    -8197    -8154    -8164    -8232 
   -8324    -8360    -8297    -8203    -8175    -8235    -8328    -8382 
   -8361    -8303    -8274    -8283    -8311    -8326    -8290    -8209 
   -8144    -8155    -8244    -8340    -8364    -8326    -8298    -8314 
   -8344    -8337    -8293    -8268    -8294    -8318    -8297    -8266 
   -8283    -8341    -8347    -8257    -8151    -8122    -8197    -8324 
   -8409    -8395    -8326    -8268    -8245    -8243    -8243    -8257 
   -8302    -8347    -8349    -8306    -8257    -8252    -8282    -8297 
   -8279    -8240    -8212    -8225    -8284    -8353    -8376    -8321 
   -8237    -8193    -8214    -8289    -8356    -8355    -8309    -8275 
   -8278    -8313    -8359    -8386    -8361    -8301    -8239    -8183 
   -8166    -8222    -8302    -8332    -8313    -8279    -8248    -8232 
   -8239    -8270    -8313    -8344    -8353    -8349    -8343    -8344 
   -8345    -8311    -8229    -8155    -8144    -8189    -8244    -8268 
   -8262    -8270    -8330    -8411    -8445    -8401    -8318    -8266 
   -8262    -8268    -8247    -8218    -8240    -8325    -8398    -8379 
   -8282    -8189    -8155    -8174    -8208    -8236    -8255    -8280 
   -8314    -8329    -8329    -8349    -8391    -8397    -8320    -8209 
   -8167    -8217    -8316    -8399    -8407    -8337    -8245    -8187 
   -8183    -8214    -8247    -8268    -8278    -8291    -8313    -8324 
   -8328    -8334    -8326    -8298    -8279    -8283    -8290    -8290 
   -8290    -8289    -8286    -8278    -8266    -8283    -8314    -8299 
   -8245    -8203    -8203    -8255    -8320    -8355    -8357    -8343 
   -8324    -8287    -8224    -8190    -8226    -8286    -8318    -8320 
   -8310    -8307    -8310    -8309    -8293    -8257    -8245    -8280 
   -8297    -8264    -8248    -8299    -8370    -8383    -8337    -8267 
   -8195    -8174    -8221    -8282    -8316    -8311    -8264    -8241 
   -8303    -8386    -8379    -8290    -8212    -8198    -8217    -8240 
   -8268    -8297    -8310    -8321    -8347    -8383    -8406    -8401 
   -8361    -8278    -8175    -8112    -8135    -8239    -8363    -8422 
   -8357    -8218    -8147    -8191    -8294    -8374    -8372    -8310 
   -8263    -8266    -8309    -8360    -8374    -8333    -8260    -8201 
   -8203    -8255    -8297    -8299    -8264    -8218    -8208    -8251 
   -8313    -8344    -8322    -8283    -8268    -8283    -8325    -8379 
   -8392    -8336    -8253    -8199    -8191    -8216    -8247    -8278 
   -8303    -8298    -8266    -8245    -8263    -8320    -8386    -8402 
   -8336    -8229    -8163    -8195    -8303    -8403    -8421    -8344 
   -8235    -8186    -8225    -8280    -8284    -8253    -8248    -8293 
   -8352    -8378    -8363    -8330    -8306    -8299    -8284    -8247 
   -8203    -8189    -8218    -8263    -8305    -8348    -8367    -8344 
   -8302    -8249    -8199    -8206    -8282    -8345    -8330    -8272 
   -8237    -8264    -8343    -8407    -8390    -8287    -8162    -8105 
   -8167    -8301    -8398    -8392    -8310    -8241    -8247    -8307 
   -8355    -8333    -8244    -8151    -8143    -8222    -8316    -8372 
   -8372    -8324    -8291    -8316    -8348    -8337    -8286    -8228 
   -8195    -8228    -8329    -8407    -8371    -8270    -8205    -8214 
   -8268    -8313    -8320    -8293    -8267    -8271    -8282    -8280 
   -8284    -8278    -8259    -8262    -8283    -8297    -8282    -8240 
   -8209    -8239    -8326    -8399    -8390    -8325    -8268    -8251 
   -8283    -8316    -8309    -8293    -8289    -8276    -8259    -8241 
   -8235    -8260    -8307    -8336    -8326    -8276    -8218    -8203 
   -8262    -8349    -8375    -8307    -8236    -8239    -8294    -8348 
   -8356    -8306    -8244    -8217    -8220    -8230    -8252    -8289 
   -8328    -8348    -8336    -8316    -8324    -8341    -8314    -8232 
   -8171    -8217    -8345    -8438    -8414    -8309    -8201    -8154 
   -8182    -8236    -8275    -8302    -8338    -8372    -8351    -8293 
   -8280    -8303    -8286    -8229    -8193    -8210    -8268    -8332 
   -8348    -8321    -8310    -8326    -8307    -8248    -8214    -8236 
   -8289    -8330    -8322    -8283    -8275    -8329    -8406    -8401 
   -8279    -8170    -8181    -8263    -8332    -8341    -8279    -8217 
   -8226    -8270    -8276    -8262    -8274    -8297    -8282    -8229 
   -8205    -8253    -8336    -8367    -8332    -8294    -8287    -8289 
   -8283    -8274    -8284    -8340    -8411    -8434    -8398    -8314 
   -8208    -8144    -8158    -8212    -8264    -8289    -8270    -8220 
   -8166    -8143    -8116    -8054    -8036    -8148    -8357    -8567 
   -8667    -8604    -8467    -8376    -8356    -8372    -8394    -8425 
   -8473    -8482    -8379    -8199    -8044    -8013    -8154    -8372 
   -8509    -8482    -8340    -8217    -8176    -8162    -8129    -8090 
   -8048    -8029    -8068    -8185    -8345    -8432    -8359    -8183 
   -8027    -7975    -8032    -8156    -8326    -8506    -8607    -8592 
   -8490    -8355    -8239    -8183    -8224    -8344    -8478    -8600 
   -8685    -8675    -8544    -8301    -7962    -7611    -7412    -7469 
   -7701    -7967    -8212    -8419    -8568    -8602    -8484    -8251 
   -7998    -7892    -8112    -8668    -9367    -9936   -10092    -9698 
   -8947    -8241    -7827    -7712    -7821    -8047    -8241    -8324 
   -8328    -8283    -8094    -7654    -7064    -6583    -6438    -6745 
   -7481    -8388    -9146    -9660   -10004   -10134    -9876    -9115 
   -7974    -6910    -6501    -6975    -8009    -9045    -9655    -9629 
   -9003    -8098    -7296    -6789    -6623    -6794    -7217    -7719 
   -8148    -8480    -8808    -9167    -9425    -9441    -9242    -9030 
   -9024    -9254    -9499    -9499    -9147    -8534    -7897    -7500 
   -7453    -7570    -7558    -7379    -7234    -7299    -7622    -8077 
   -8333    -8125    -7596    -7265    -7574    -8495    -9558   -10137 
   -9850    -8911    -7998    -7703    -8066    -8595    -8775    -8511 
   -8105    -7931    -8118    -8441    -8579    -8386    -7947    -7545 
   -7514    -7921    -8422    -8599    -8421    -8209    -8235    -8513 
   -8803    -8800    -8425    -7912    -7599    -7643    -7904    -8116 
   -8158    -8137    -8221    -8430    -8640    -8703    -8569    -8313 
   -8108    -8141    -8438    -8785    -8910    -8716    -8352    -8120 
   -8252    -8665    -8996    -8957    -8584    -8148    -7901    -7882 
   -7960    -7990    -7950    -7909    -7951    -8139    -8445    -8681 
   -8664    -8428    -8185    -8116    -8206    -8251    -8064    -7727 
   -7528    -7696    -8139    -8518    -8586    -8379    -8124    -8032 
   -8136    -8325    -8482    -8530    -8415    -8181    -8001    -8052 
   -8321    -8606    -8712    -8602    -8394    -8232    -8158    -8151 
   -8187    -8274    -8453    -8702    -8862    -8797    -8515    -8187 
   -8013    -8039    -8156    -8263    -8320    -8343    -8406    -8542 
   -8675    -8669    -8459    -8129    -7827    -7619    -7541    -7616 
   -7831    -8127    -8390    -8483    -8379    -8197    -8090    -8136 
   -8283    -8417    -8491    -8541    -8606    -8679    -8718    -8691 
   -8614    -8534    -8478    -8436    -8387    -8305    -8198    -8124 
   -8118    -8149    -8163    -8104    -7936    -7731    -7662    -7847 
   -8202    -8519    -8654    -8584    -8365    -8143    -8073    -8163 
   -8271    -8305    -8290    -8266    -8274    -8359    -8488    -8552 
   -8467    -8257    -8023    -7870    -7886    -8062    -8294    -8482 
   -8563    -8553    -8556    -8611    -8627    -8499    -8262    -8112 
   -8239    -8596    -8915    -8942    -8646    -8218    -7912    -7859 
   -7985    -8108    -8113    -7994    -7820    -7727    -7834    -8095 
   -8301    -8290    -8118    -7977    -7998    -8183    -8433    -8621 
   -8667    -8577    -8426    -8325    -8345    -8455    -8560    -8576 
   -8484    -8376    -8338    -8355    -8351    -8255    -8105    -8043 
   -8116    -8221    -8307    -8388    -8415    -8344    -8230    -8158 
   -8151    -8201    -8276    -8320    -8297    -8235    -8205    -8253 
   -8357    -8418    -8349    -8201    -8090    -8058    -8104    -8235 
   -8395    -8491    -8448    -8279    -8125    -8113    -8253    -8455 
   -8615    -8672    -8619    -8482    -8329    -8252    -8256    -8256 
   -8201    -8112    -8039    -8062    -8206    -8368    -8415    -8305 
   -8112    -7985    -8002    -8104    -8203    -8276    -8341    -8399 
   -8415    -8371    -8299    -8240    -8210    -8221    -8280    -8382 
   -8486    -8517    -8406    -8230    -8158    -8222    -8305    -8301 
   -8221    -8162    -8222    -8388    -8517    -8513    -8411    -8298 
   -8244    -8289    -8384    -8436    -8394    -8266    -8090    -7952 
   -7927    -7994    -8062    -8081    -8093    -8144    -8235    -8340 
   -8426    -8456    -8429    -8392    -8413    -8503    -8594    -8599 
   -8494    -8344    -8245    -8257    -8343    -8380    -8293    -8122 
   -7977    -7959    -8089    -8267    -8374    -8356    -8248    -8140 
   -8136    -8262    -8418    -8468    -8378    -8248    -8189    -8236 
   -8347    -8411    -8361    -8249    -8174    -8199    -8310    -8414 
   -8441    -8395    -8334    -8317    -8343    -8365    -8379    -8395 
   -8391    -8352    -8310    -8283    -8259    -8217    -8155    -8090 
   -8031    -7998    -8037    -8152    -8301    -8429    -8484    -8448 
   -8355    -8257    -8199    -8176    -8144    -8075    -8000    -7998 
   -8114    -8270    -8360    -8368    -8341    -8317    -8336    -8402 
   -8452    -8446    -8413    -8351    -8267    -8232    -8279    -8383 
   -8491    -8533    -8468    -8322    -8182    -8155    -8245    -8347 
   -8357    -8267    -8185    -8224    -8361    -8469    -8441    -8279 
   -8090    -7983    -7997    -8112    -8275    -8410    -8472    -8469 
   -8418    -8334    -8257    -8225    -8243    -8289    -8329    -8333 
   -8306    -8278    -8274    -8301    -8357    -8409    -8406    -8334 
   -8203    -8032    -7909    -7925    -8074    -8263    -8386    -8392 
   -8330    -8279    -8274    -8311    -8365    -8409    -8424    -8380 
   -8283    -8210    -8208    -8245    -8289    -8307    -8290    -8257 
   -8229    -8191    -8155    -8175    -8257    -8345    -8390    -8382 
   -8322    -8243    -8214    -8283    -8411    -8495    -8456    -8337 
   -8235    -8202    -8240    -8280    -8245    -8171    -8168    -8262 
   -8387    -8486    -8507    -8421    -8264    -8118    -8055    -8105 
   -8213    -8298    -8338    -8359    -8394    -8461    -8517    -8488 
   -8371    -8235    -8149    -8144    -8198    -8241    -8240    -8191 
   -8101    -8029    -8058    -8179    -8317    -8390    -8353    -8255 
   -8183    -8182    -8243    -8332    -8428    -8492    -8475    -8401 
   -8347    -8344    -8372    -8402    -8399    -8345    -8253    -8160 
   -8102    -8094    -8155    -8278    -8376    -8361    -8248    -8131 
   -8102    -8199    -8363    -8475    -8472    -8386    -8279    -8224 
   -8249    -8321    -8386    -8399    -8332    -8213    -8116    -8086 
   -8128    -8202    -8255    -8276    -8291    -8326    -8388    -8459 
   -8509    -8515    -8456    -8320    -8149    -8036    -8046    -8167 
   -8322    -8430    -8464    -8436    -8364    -8266    -8176    -8132 
   -8136    -8164    -8185    -8179    -8164    -8179    -8230    -8284 
   -8324    -8349    -8368    -8395    -8425    -8441    -8436    -8401 
   -8324    -8225    -8141    -8116    -8179    -8293    -8384    -8418 
   -8392    -8349    -8349    -8395    -8425    -8386    -8289    -8201 
   -8172    -8195    -8243    -8272    -8249    -8205    -8187    -8201 
   -8240    -8290    -8311    -8272    -8193    -8124    -8109    -8171 
