Origin Time       2021/08/14 22:38:00
Lat.              37.5
Long.             137.2
Depth. (km)       10
Mag.              4.1
Station Code      TYMH04
Station Lat.      36.7914
Station Long.     137.4689
Station Height(m) 54
Record Time       2021/08/14 22:38:31
Sampling Freq(Hz) 100Hz
Duration Time(s)  120
Dir.              2
Scale Factor      2940(gal)/6170270
Max. Acc. (gal)   0.272
Last Correction   2021/08/14 22:38:16
Memo.             
[...]
  -70079   -70080   -70079   -70078   -70078   -70078   -70078   -70078 
  -70077   -70078   -70080   -70081   -70080   -70079   -70080   -70080 
  -70078   -70077   -70078   -70078   -70079   -70079   -70078   -70080 
  -70081   -70078   -70078   -70079   -70079   -70081   -70080   -70079 
  -70080   -70079   -70078   -70079   -70079   -70080   -70078   -70076 
  -70080   -70082   -70079   -70079   -70080   -70078   -70077   -70077 
  -70078   -70080   -70080   -70079   -70080   -70080   -70079   -70079 
  -70078   -70077   -70078   -70079   -70081   -70081   -70079   -70078 
  -70079   -70080   -70079   -70079   -70078   -70079   -70080   -70080 
  -70079   -70079   -70077   -70077   -70080   -70080   -70079   -70079 
  -70080   -70080   -70081   -70080   -70079   -70080   -70081   -70080 
  -70079   -70081   -70081   -70079   -70080   -70080   -70078   -70079 
  -70080   -70079   -70078   -70079   -70079   -70077   -70078   -70079 
  -70079   -70079   -70079   -70078   -70078   -70079   -70080   -70079 
  -70079   -70080   -70079   -70078   -70077   -70077   -70078   -70080 
  -70078   -70078   -70078   -70077   -70080   -70081   -70078   -70077 
  -70079   -70079   -70077   -70078   -70081   -70080   -70077   -70078 
  -70080   -70079   -70076   -70077   -70078   -70077   -70078   -70079 
  -70079   -70078   -70078   -70078   -70078   -70079   -70080   -70081 
  -70082   -70081   -70079   -70078   -70079   -70080   -70081   -70080 
  -70078   -70078   -70078   -70078   -70078   -70079   -70080   -70080 
  -70079   -70078   -70078   -70078   -70079   -70078   -70077   -70078 
  -70079   -70078   -70079   -70080   -70078   -70077   -70079   -70079 
  -70077   -70079   -70079   -70078   -70079   -70078   -70078   -70080 
  -70081   -70079   -70078   -70080   -70080   -70078   -70078   -70077 
  -70079   -70080   -70080   -70078   -70077   -70078   -70079   -70078 
  -70078   -70080   -70080   -70079   -70079   -70077   -70079   -70081 
  -70079   -70079   -70080   -70079   -70079   -70080   -70080   -70081 
  -70080   -70078   -70077   -70078   -70077   -70077   -70078   -70078 
  -70080   -70080   -70078   -70077   -70079   -70080   -70078   -70077 
  -70078   -70077   -70076   -70077   -70076   -70078   -70080   -70079 
  -70080   -70081   -70078   -70077   -70080   -70079   -70077   -70079 
  -70079   -70080   -70080   -70078   -70075   -70080   -70085   -70083 
  -70079   -70074   -70071   -70076   -70079   -70077   -70077   -70079 
  -70076   -70076   -70082   -70087   -70090   -70092   -70085   -70070 
  -70062   -70066   -70076   -70085   -70094   -70096   -70083   -70065 
  -70060   -70072   -70089   -70096   -70089   -70072   -70054   -70051 
  -70067   -70087   -70105   -70116   -70106   -70076   -70051   -70052 
  -70068   -70087   -70103   -70104   -70084   -70059   -70047   -70062 
  -70089   -70093   -70073   -70051   -70041   -70050   -70078   -70110 
  -70132   -70136   -70131   -70123   -70116   -70117   -70115   -70085 
  -70041   -70023   -70042   -70066   -70073   -70074   -70072   -70047 
  -70004   -69977   -69989   -70037   -70100   -70151   -70180   -70172 
  -70117   -70057   -70051   -70091   -70120   -70098   -70051   -70019 
  -70003   -69997   -70017   -70069   -70142   -70199   -70185   -70097 
  -70016   -70008   -70045   -70087   -70126   -70156   -70175   -70176 
  -70123   -70036   -69990   -70009   -70044   -70063   -70077   -70084 
  -70080   -70090   -70107   -70096   -70080   -70089   -70081   -70032 
  -69995   -70001   -70012   -69996   -69984   -70016   -70090   -70174 
  -70232   -70234   -70168   -70068   -70005   -70008   -70049   -70121 
  -70207   -70227   -70141   -70016   -69945   -69945   -70000   -70090 
  -70139   -70112   -70073   -70060   -70066   -70089   -70097   -70085 
  -70110   -70156   -70136   -70044   -69975   -69985   -70047   -70121 
  -70184   -70197   -70164   -70130   -70076   -70009   -70011   -70093 
  -70145   -70100   -70005   -69939   -69946   -70024   -70122   -70185 
  -70187   -70127   -70037   -69973   -69974   -70033   -70113   -70181 
  -70209   -70186   -70134   -70082   -70038   -70001   -69970   -69945 
  -69972   -70073   -70160   -70149   -70087   -70065   -70104   -70153 
  -70154   -70114   -70090   -70094   -70083   -70035   -69999   -70021 
  -70077   -70129   -70167   -70172   -70131   -70059   -69996   -69969 
  -69981   -70039   -70114   -70144   -70115   -70074   -70047   -70025 
  -70022   -70046   -70071   -70105   -70157   -70163   -70104   -70054 
  -70064   -70099   -70115   -70116   -70111   -70087   -70055   -70041 
  -70053   -70073   -70078   -70068   -70064   -70063   -70055   -70066 
  -70097   -70102   -70080   -70068   -70067   -70075   -70106   -70131 
  -70131   -70133   -70124   -70073   -70004   -69967   -69989   -70044 
  -70075   -70074   -70088   -70122   -70137   -70125   -70116   -70108 
  -70070   -70022   -70003   -70016   -70054   -70107   -70139   -70124 
  -70081   -70061   -70078   -70093   -70080   -70063   -70056   -70037 
  -70022   -70051   -70119   -70189   -70216   -70176   -70107   -70052 
  -70025   -70025   -70023   -70011   -70024   -70064   -70100   -70120 
  -70128   -70112   -70050   -69970   -69954   -70025   -70108   -70140 
  -70123   -70098   -70105   -70158   -70220   -70225   -70148   -70044 
  -69978   -69969   -70001   -70030   -70034   -70036   -70048   -70070 
  -70126   -70184   -70176   -70131   -70101   -70057   -69999   -69970 
  -69977   -70010   -70072   -70149   -70190   -70176   -70156   -70146 
  -70100   -70021   -69983   -70014   -70061   -70081   -70086   -70095 
  -70085   -70061   -70072   -70110   -70106   -70056   -70012   -69991 
  -69984   -70011   -70084   -70156   -70187   -70186   -70177   -70162 
  -70118   -70044   -69969   -69910   -69900   -69971   -70072   -70135 
  -70166   -70178   -70148   -70099   -70075   -70069   -70079   -70101 
  -70109   -70116   -70130   -70113   -70079   -70068   -70045   -70003 
  -69996   -70019   -70016   -70001   -70038   -70113   -70173   -70210 
  -70208   -70153   -70083   -70025   -69976   -69964   -70001   -70049 
  -70079   -70100   -70106   -70109   -70147   -70181   -70143   -70058 
  -70011   -70006   -70002   -70032   -70110   -70173   -70186   -70166 
  -70123   -70075   -70037   -69980   -69913   -69897   -69969   -70097 
  -70198   -70220   -70199   -70182   -70169   -70137   -70073   -70005 
  -69954   -69920   -69932   -69997   -70072   -70139   -70188   -70193 
  -70165   -70132   -70100   -70079   -70073   -70036   -69965   -69948 
  -70023   -70123   -70198   -70230   -70193   -70111   -70049   -70037 
  -70064   -70105   -70124   -70106   -70060   -70016   -70008   -70031 
  -70053   -70051   -70026   -69998   -69992   -70021   -70082   -70151 
  -70195   -70184   -70116   -70055   -70043   -70051   -70055   -70051 
  -70045   -70066   -70113   -70163   -70196   -70182   -70126   -70093 
  -70097   -70095   -70070   -70021   -69966   -69949   -69990   -70056 
  -70099   -70109   -70102   -70070   -70022   -69994   -70000   -70037 
  -70094   -70138   -70154   -70139   -70100   -70075   -70083   -70099 
  -70104   -70098   -70089   -70081   -70067   -70057   -70079   -70130 
  -70174   -70189   -70172   -70128   -70077   -70042   -70037   -70040 
  -70017   -69994   -70008   -70018   -70005   -70015   -70055   -70089 
  -70103   -70095   -70079   -70080   -70104   -70124   -70110   -70073 
  -70056   -70052   -70046   -70063   -70104   -70126   -70115   -70102 
  -70109   -70105   -70070   -70032   -70022   -70052   -70096   -70123 
  -70128   -70109   -70065   -70029   -70032   -70057   -70084   -70116 
  -70122   -70090   -70063   -70072   -70093   -70097   -70087   -70072 
  -70066   -70071   -70070   -70049   -70021   -70023   -70058   -70076 
  -70060   -70053   -70077   -70106   -70121   -70129   -70130   -70129 
  -70132   -70125   -70091   -70049   -70036   -70051   -70049   -70030 
  -70028   -70046   -70068   -70091   -70110   -70130   -70142   -70103 
  -70039   -70021   -70063   -70121   -70140   -70103   -70051   -70028 
  -70040   -70072   -70081   -70058   -70053   -70071   -70062   -70036 
  -70053   -70107   -70138   -70121   -70085   -70064   -70062   -70077 
  -70101   -70100   -70078   -70061   -70045   -70029   -70040   -70082 
  -70131   -70139   -70085   -70035   -70043   -70065   -70070   -70091 
  -70119   -70103   -70055   -70037   -70070   -70117   -70142   -70128 
  -70088   -70063   -70072   -70071   -70045   -70039   -70069   -70089 
  -70071   -70058   -70084   -70117   -70120   -70096   -70064   -70051 
  -70067   -70087   -70091   -70084   -70077   -70061   -70030   -70019 
  -70044   -70064   -70050   -70038   -70065   -70109   -70128   -70113 
  -70089   -70087   -70092   -70080   -70069   -70079   -70097   -70127 
  -70167   -70165   -70105   -70041   -70001   -69986   -70007   -70052 
  -70084   -70073   -70038   -70035   -70070   -70101   -70125   -70145 
  -70137   -70092   -70048   -70043   -70066   -70100   -70119   -70091 
  -70059   -70076   -70101   -70110   -70120   -70109   -70064   -70041 
  -70067   -70088   -70073   -70045   -70029   -70022   -70018   -70025 
  -70061   -70110   -70131   -70124   -70102   -70059   -70030   -70061 
  -70118   -70141   -70131   -70109   -70082   -70055   -70042   -70045 
  -70064   -70095   -70123   -70128   -70110   -70096   -70102   -70109 
  -70098   -70072   -70039   -70017   -70027   -70070   -70095   -70073 
  -70055   -70067   -70067   -70058   -70071   -70083   -70075   -70060 
  -70052   -70075   -70112   -70113   -70088   -70069   -70049   -70030 
  -70046   -70091   -70116   -70099   -70065   -70055   -70071   -70089 
  -70091   -70082   -70066   -70048   -70043   -70067   -70109   -70137 
  -70136   -70116   -70108   -70112   -70112   -70099   -70065   -70027 
  -70032   -70059   -70049   -70019   -70020   -70052   -70094   -70137 
  -70141   -70075   -69996   -69974   -69999   -70034   -70076   -70120 
  -70129   -70099   -70075   -70074   -70076   -70085   -70107   -70122 
  -70119   -70088   -70048   -70049   -70092   -70125   -70133   -70125 
  -70094   -70066   -70065   -70065   -70050   -70048   -70070   -70091 
  -70109   -70124   -70121   -70105   -70086   -70056   -70021   -70012 
  -70027   -70043   -70066   -70083   -70077   -70084   -70116   -70117 
  -70078   -70040   -70027   -70046   -70078   -70096   -70096   -70075 
  -70050   -70071   -70118   -70122   -70091   -70068   -70054   -70051 
  -70073   -70113   -70134   -70113   -70079   -70065   -70062   -70049 
  -70037   -70045   -70063   -70063   -70044   -70041   -70061   -70071 
  -70082   -70116   -70137   -70125   -70115   -70115   -70098   -70060 
  -70035   -70047   -70072   -70080   -70085   -70094   -70089   -70085 
  -70088   -70077   -70060   -70056   -70064   -70089   -70114   -70103 
  -70068   -70034   -70003   -69997   -70016   -70028   -70037   -70071 
  -70111   -70120   -70110   -70121   -70161   -70185   -70160   -70111 
  -70074   -70055   -70049   -70071   -70117   -70140   -70112   -70069 
  -70041   -70026   -70027   -70036   -70032   -70021   -70027   -70053 
  -70081   -70098   -70109   -70120   -70107   -70059   -70011   -70004 
  -70037   -70094   -70162   -70214   -70208   -70149   -70088   -70050 
  -70031   -70034   -70058   -70068   -70036   -69993   -69999   -70047 
  -70088   -70106   -70112   -70094   -70054   -70032   -70046   -70089 
  -70138   -70151   -70111   -70040   -69994   -70025   -70110   -70178 
  -70187   -70146   -70084   -70021   -69987   -70007   -70050   -70076 
  -70095   -70107   -70091   -70075   -70098   -70137   -70134   -70077 
  -70008   -69977   -69995   -70046   -70107   -70137   -70122   -70086 
  -70051   -70016   -69997   -70018   -70061   -70094   -70133   -70204 
  -70272   -70283   -70219   -70100   -69990   -69945   -69950   -69994 
  -70072   -70130   -70130   -70099   -70072   -70060   -70066   -70087 
  -70098   -70067   -69999   -69940   -69935   -70000   -70115   -70219 
  -70221   -70122   -70031   -70023   -70047   -70034   -70004   -70023 
  -70057   -70034   -70000   -70029   -70091   -70141   -70178   -70200 
  -70190   -70141   -70063   -70014   -70048   -70126   -70170   -70156 
  -70103   -70050   -70034   -70044   -70036   -69983   -69909   -69874 
  -69946   -70113   -70274   -70356   -70340   -70203   -69979   -69799 
  -69769   -69862   -69983   -70067   -70118   -70189   -70263   -70265 
  -70188   -70107   -70084   -70085   -70036   -69999   -70055   -70118 
  -70122   -70143   -70156   -70086   -69991   -69958   -69994   -70067 
  -70132   -70165   -70186   -70199   -70182   -70140   -70112   -70120 
  -70105   -69996   -69838   -69747   -69799   -69975   -70183   -70350 
  -70431   -70380   -70229   -70097   -70019   -69951   -69910   -69909 
  -69934   -70005   -70093   -70116   -70082   -70061   -70076   -70102 
  -70100   -70058   -69993   -69923   -69898   -69957   -70054   -70118 
  -70123   -70105   -70127   -70155   -70125   -70069   -70041   -70034 
  -70033   -70070   -70214   -70425   -70515   -70380   -70142   -69963 
  -69878   -69860   -69910   -70031   -70166   -70208   -70088   -69913 
  -69860   -69943   -70054   -70124   -70134   -70131   -70177   -70222 
  -70170   -70024   -69853   -69702   -69617   -69647   -69782   -69962 
  -70149   -70339   -70502   -70588   -70570   -70432   -70158   -69840 
  -69634   -69602   -69742   -70020   -70312   -70478   -70483   -70390 
  -70246   -70067   -69889   -69743   -69659   -69695   -69868   -70085 
  -70261   -70405   -70544   -70649   -70606   -70333   -69962   -69701 
  -69598   -69584   -69623   -69752   -69994   -70280   -70506   -70604 
  -70548   -70368   -70147   -69932   -69734   -69607   -69587   -69644 
  -69768   -69980   -70218   -70345   -70317   -70237   -70194   -70171 
  -70140   -70107   -70094   -70141   -70248   -70358   -70410   -70348 
  -70170   -69959   -69815   -69769   -69800   -69890   -70029   -70173 
  -70271   -70295   -70239   -70118   -69985   -69891   -69839   -69848 
  -69970   -70168   -70330   -70373   -70288   -70132   -69970   -69834 
  -69786   -69875   -70038   -70174   -70222   -70184   -70163   -70225 
  -70258   -70145   -69931   -69753   -69720   -69826   -69973   -70093 
  -70186   -70273   -70374   -70464   -70484   -70368   -70104   -69806 
  -69630   -69612   -69708   -69876   -70052   -70166   -70217   -70243 
  -70238   -70181   -70098   -70010   -69942   -69938   -70016   -70157 
  -70312   -70392   -70351   -70224   -70084   -69993   -69956   -69939 
  -69940   -69966   -69993   -70018   -70067   -70129   -70170   -70161 
  -70076   -69927   -69814   -69838   -69989   -70176   -70325   -70381 
  -70322   -70209   -70113   -70021   -69919   -69870   -69895   -69948 
  -70019   -70115   -70201   -70248   -70251   -70194   -70077   -69948 
  -69863   -69854   -69917   -70002   -70077   -70153   -70217   -70227 
  -70189   -70138   -70100   -70101   -70120   -70096   -70041   -70012 
  -70038   -70131   -70253   -70297   -70208   -70070   -69963   -69875 
  -69821   -69870   -69973   -70030   -70050   -70069   -70078   -70084 
  -70093   -70094   -70089   -70086   -70091   -70116   -70153   -70172 
  -70181   -70190   -70173   -70117   -70053   -70021   -70045   -70109 
  -70161   -70189   -70227   -70267   -70258   -70203   -70135   -70055 
  -69973   -69927   -69920   -69915   -69895   -69881   -69890   -69924 
  -69991   -70090   -70198   -70254   -70219   -70126   -70032   -69992 
  -70061   -70183   -70239   -70215   -70171   -70121   -70051   -69975 
  -69890   -69791   -69738   -69804   -69957   -70100   -70209   -70301 
  -70335   -70283   -70213   -70191   -70192   -70167   -70117   -70063 
  -69993   -69929   -69914   -69946   -70021   -70131   -70218   -70244 
  -70241   -70236   -70200   -70108   -69993   -69905   -69869   -69895 
  -69958   -70015   -70051   -70081   -70103   -70104   -70086   -70066 
  -70060   -70072   -70093   -70107   -70108   -70081   -70034   -70003 
  -70008   -70025   -70035   -70033   -70016   -70010   -70053   -70144 
  -70235   -70288   -70302   -70284   -70225   -70139   -70053   -69980 
  -69908   -69857   -69893   -70014   -70126   -70170   -70159   -70135 
  -70111   -70096   -70126   -70178   -70181   -70120   -70039   -69983 
  -69976   -70001   -70035   -70080   -70132   -70138   -70053   -69947 
  -69905   -69923   -69998   -70119   -70204   -70210   -70192   -70192 
  -70197   -70168   -70098   -70025   -69981   -69972   -69998   -70042 
  -70075   -70086   -70081   -70071   -70075   -70101   -70122   -70118 
  -70091   -70047   -70017   -70036   -70105   -70184   -70202   -70150 
  -70082   -70029   -69992   -69980   -69994   -70016   -70033   -70060 
  -70103   -70135   -70157   -70180   -70157   -70079   -69998   -69950 
  -69946   -69978   -70030   -70098   -70147   -70148   -70142   -70149 
  -70152   -70151   -70151   -70139   -70108   -70059   -70004   -69963 
  -69955   -69998   -70071   -70105   -70097   -70102   -70114   -70092 
  -70067   -70085   -70113   -70099   -70053   -70006   -69965   -69943 
  -69973   -70057   -70152   -70197   -70191   -70181   -70171   -70135 
  -70089   -70058   -70065   -70126   -70200   -70234   -70236   -70219 
  -70166   -70082   -70006   -69966   -69963   -69980   -70005   -70042 
  -70095   -70148   -70175   -70176   -70169   -70137   -70051   -69942 
  -69877   -69871   -69889   -69913   -69952   -70019   -70095   -70133 
  -70110   -70075   -70077   -70080   -70050   -70024   -70021   -70037 
  -70094   -70171   -70218   -70229   -70206   -70140   -70065   -70033 
  -70027   -70017   -70021   -70055   -70100   -70145   -70180   -70175 
  -70135   -70106   -70097   -70077   -70043   -70022   -70022   -70029 
  -70047   -70074   -70096   -70101   -70083   -70058   -70048   -70057 
  -70078   -70104   -70127   -70147   -70174   -70197   -70197   -70169 
  -70120   -70069   -70027   -69991   -69961   -69943   -69942   -69958 
  -69987   -70017   -70040   -70065   -70110   -70173   -70232   -70256 
  -70218   -70124   -70027   -69960   -69918   -69917   -69966   -70029 
  -70085   -70133   -70176   -70206   -70200   -70148   -70074   -70000 
  -69959   -69976   -70034   -70097   -70131   -70121   -70096   -70078 
  -70074   -70100   -70143   -70157   -70150   -70149   -70139   -70109 
  -70067   -70024   -70005   -70023   -70051   -70065   -70068   -70065 
  -70070   -70089   -70095   -70073   -70037   -70010   -70003   -70014 
  -70032   -70044   -70037   -70032   -70055   -70090   -70123   -70150 
  -70148   -70118   -70088   -70071   -70066   -70075   -70100   -70130 
  -70131   -70100   -70066   -70042   -70040   -70061   -70078   -70095 
  -70129   -70161   -70157   -70118   -70086   -70085   -70094   -70094 
  -70086   -70077   -70076   -70077   -70069   -70056   -70046   -70033 
  -70020   -70027   -70068   -70120   -70152   -70158   -70150   -70136 
  -70105   -70051   -69992   -69952   -69957   -70009   -70076   -70136 
  -70169   -70161   -70125   -70084   -70054   -70042   -70030   -70005 
  -69992   -70014   -70055   -70098   -70123   -70113   -70077   -70038 
  -70010   -69997   -70002   -70019   -70042   -70077   -70118   -70152 
  -70179   -70194   -70188   -70163   -70120   -70068   -70040   -70041 
  -70060   -70092   -70125   -70139   -70125   -70099   -70081   -70085 
  -70102   -70112   -70102   -70060   -70000   -69982   -70013   -70041 
