Origin Time       2021/08/14 22:38:00
Lat.              37.5
Long.             137.2
Depth. (km)       10
Mag.              4.1
Station Code      TYMH04
Station Lat.      36.7914
Station Long.     137.4689
Station Height(m) 154
Record Time       2021/08/14 22:38:31
Sampling Freq(Hz) 100Hz
Duration Time(s)  120
Dir.              4
Scale Factor      3920(gal)/6170801
Max. Acc. (gal)   0.339
Last Correction   2021/08/14 22:38:16
Memo.             
[...]
   -9712    -9656    -9684    -9680    -9666    -9711    -9678    -9650 
   -9695    -9677    -9673    -9718    -9675    -9639    -9690    -9703 
   -9680    -9687    -9671    -9655    -9697    -9713    -9673    -9658 
   -9672    -9691    -9702    -9687    -9669    -9661    -9667    -9712 
   -9723    -9656    -9636    -9690    -9706    -9690    -9689    -9662 
   -9648    -9707    -9725    -9668    -9660    -9668    -9666    -9722 
   -9714    -9629    -9656    -9703    -9671    -9698    -9707    -9634 
   -9670    -9728    -9668    -9673    -9705    -9649    -9679    -9724 
   -9655    -9668    -9712    -9659    -9681    -9708    -9653    -9686 
   -9703    -9653    -9691    -9689    -9650    -9714    -9709    -9640 
   -9677    -9702    -9681    -9705    -9684    -9632    -9685    -9727 
   -9674    -9668    -9682    -9658    -9692    -9710    -9672    -9675 
   -9672    -9673    -9710    -9689    -9650    -9675    -9699    -9687 
   -9681    -9680    -9663    -9675    -9704    -9678    -9668    -9688 
   -9672    -9682    -9700    -9669    -9669    -9689    -9680    -9680 
   -9683    -9673    -9670    -9685    -9690    -9675    -9671    -9675 
   -9689    -9703    -9665    -9656    -9699    -9683    -9679    -9698 
   -9652    -9660    -9721    -9698    -9664    -9674    -9667    -9680 
   -9713    -9685    -9646    -9667    -9695    -9706    -9703    -9659 
   -9647    -9699    -9701    -9677    -9683    -9660    -9665    -9707 
   -9689    -9672    -9693    -9671    -9668    -9706    -9677    -9655 
   -9703    -9691    -9662    -9694    -9679    -9666    -9701    -9683 
   -9664    -9682    -9684    -9699    -9694    -9658    -9666    -9688 
   -9690    -9702    -9680    -9639    -9675    -9714    -9689    -9684 
   -9672    -9649    -9694    -9717    -9674    -9659    -9671    -9689 
   -9696    -9686    -9686    -9673    -9665    -9690    -9699    -9681 
   -9663    -9682    -9710    -9679    -9662    -9687    -9675    -9681 
   -9701    -9681    -9680    -9685    -9678    -9687    -9676    -9670 
   -9690    -9685    -9690    -9689    -9655    -9684    -9722    -9672 
   -9652    -9688    -9687    -9685    -9699    -9674    -9652    -9681 
   -9695    -9685    -9682    -9667    -9684    -9706    -9671    -9676 
   -9698    -9646    -9660    -9728    -9680    -9643    -9695    -9690 
   -9678    -9698    -9667    -9672    -9715    -9690    -9662    -9655 
   -9644    -9683    -9717    -9708    -9706    -9668    -9633    -9680 
   -9686    -9642    -9688    -9735    -9692    -9670    -9667    -9638 
   -9660    -9709    -9722    -9714    -9657    -9625    -9679    -9679 
   -9644    -9699    -9732    -9696    -9689    -9681    -9640    -9621 
   -9625    -9655    -9712    -9709    -9679    -9731    -9773    -9717 
   -9652    -9638    -9676    -9719    -9726    -9724    -9695    -9642 
   -9644    -9636    -9574    -9603    -9730    -9784    -9752    -9709 
   -9638    -9599    -9650    -9705    -9758    -9782    -9722    -9703 
   -9676    -9552    -9539    -9629    -9675    -9750    -9779    -9693 
   -9652    -9671    -9658    -9662    -9692    -9702    -9719    -9691 
   -9592    -9548    -9533    -9552    -9701    -9782    -9733    -9751 
   -9752    -9680    -9659    -9658    -9654    -9661    -9688    -9778 
   -9847    -9817    -9739    -9625    -9512    -9508    -9627    -9712 
   -9721    -9766    -9742    -9619    -9620    -9691    -9693    -9708 
   -9725    -9673    -9585    -9576    -9641    -9619    -9619    -9799 
   -9939    -9914    -9827    -9673    -9488    -9445    -9576    -9720 
   -9776    -9781    -9768    -9721    -9588    -9465    -9538    -9689 
   -9728    -9732    -9741    -9714    -9686    -9694    -9704    -9643 
   -9576    -9655    -9799    -9789    -9634    -9534    -9559    -9614 
   -9680    -9756    -9777    -9773    -9773    -9731    -9680    -9648 
   -9621    -9638    -9678    -9683    -9683    -9683    -9677    -9707 
   -9712    -9664    -9716    -9785    -9679    -9567    -9553    -9555 
   -9645    -9751    -9715    -9673    -9732    -9775    -9740    -9677 
   -9639    -9653    -9699    -9694    -9632    -9618    -9653    -9665 
   -9668    -9683    -9709    -9739    -9745    -9723    -9673    -9620 
   -9598    -9619    -9715    -9800    -9745    -9644    -9604    -9608 
   -9663    -9715    -9700    -9692    -9676    -9613    -9630    -9725 
   -9755    -9728    -9710    -9693    -9659    -9667    -9717    -9701 
   -9649    -9671    -9691    -9655    -9644    -9670    -9689    -9690 
   -9664    -9642    -9671    -9707    -9739    -9771    -9721    -9634 
   -9634    -9701    -9762    -9718    -9609    -9619    -9656    -9607 
   -9616    -9684    -9688    -9680    -9754    -9811    -9705    -9593 
   -9635    -9702    -9706    -9704    -9707    -9656    -9573    -9599 
   -9671    -9637    -9617    -9674    -9689    -9699    -9765    -9788 
   -9720    -9669    -9693    -9693    -9675    -9698    -9655    -9578 
   -9593    -9661    -9755    -9809    -9764    -9746    -9764    -9733 
   -9685    -9618    -9562    -9593    -9628    -9635    -9685    -9699 
   -9659    -9671    -9678    -9662    -9722    -9771    -9717    -9672 
   -9670    -9656    -9696    -9754    -9756    -9745    -9648    -9576 
   -9651    -9585    -9512    -9697    -9743    -9645    -9718    -9704 
   -9569    -9637    -9807    -9868    -9817    -9694    -9620    -9636 
   -9608    -9591    -9657    -9621    -9595    -9793    -9878    -9689 
   -9573    -9624    -9661    -9637    -9643    -9685    -9654    -9642 
   -9779    -9869    -9772    -9664    -9684    -9701    -9580    -9534 
   -9661    -9671    -9610    -9722    -9780    -9680    -9716    -9873 
   -9870    -9696    -9555    -9512    -9515    -9588    -9718    -9764 
   -9694    -9684    -9745    -9676    -9560    -9619    -9706    -9687 
   -9711    -9705    -9588    -9618    -9747    -9729    -9678    -9678 
   -9683    -9702    -9705    -9676    -9594    -9514    -9622    -9791 
   -9805    -9842    -9905    -9765    -9632    -9666    -9613    -9520 
   -9562    -9608    -9650    -9748    -9784    -9752    -9724    -9687 
   -9637    -9617    -9611    -9559    -9540    -9655    -9775    -9755 
   -9715    -9767    -9759    -9660    -9670    -9732    -9655    -9577 
   -9681    -9783    -9717    -9682    -9719    -9665    -9664    -9734 
   -9640    -9527    -9597    -9682    -9686    -9710    -9749    -9720 
   -9689    -9727    -9718    -9624    -9586    -9608    -9579    -9571 
   -9688    -9764    -9717    -9721    -9741    -9691    -9697    -9738 
   -9741    -9737    -9707    -9678    -9636    -9550    -9558    -9662 
   -9700    -9685    -9687    -9674    -9634    -9639    -9703    -9745 
   -9724    -9656    -9634    -9709    -9711    -9618    -9634    -9694 
   -9704    -9765    -9780    -9672    -9659    -9762    -9772    -9719 
   -9712    -9665    -9622    -9668    -9623    -9515    -9551    -9626 
   -9699    -9786    -9715    -9591    -9592    -9628    -9686    -9736 
   -9713    -9715    -9725    -9706    -9737    -9707    -9587    -9631 
   -9762    -9704    -9645    -9722    -9688    -9608    -9679    -9732 
   -9715    -9724    -9659    -9613    -9696    -9711    -9709    -9753 
   -9625    -9502    -9572    -9609    -9642    -9729    -9728    -9721 
   -9764    -9751    -9733    -9741    -9675    -9607    -9668    -9711 
   -9653    -9656    -9671    -9624    -9634    -9645    -9654    -9767 
   -9806    -9738    -9732    -9655    -9524    -9605    -9720    -9672 
   -9687    -9750    -9692    -9662    -9640    -9569    -9645    -9780 
   -9792    -9767    -9683    -9563    -9613    -9735    -9719    -9692 
   -9735    -9720    -9678    -9679    -9645    -9616    -9662    -9676 
   -9645    -9606    -9558    -9622    -9744    -9746    -9730    -9764 
   -9737    -9711    -9765    -9743    -9618    -9610    -9652    -9601 
   -9647    -9746    -9706    -9654    -9643    -9677    -9724    -9661 
   -9677    -9769    -9651    -9579    -9701    -9688    -9630    -9714 
   -9759    -9737    -9741    -9699    -9618    -9589    -9642    -9755 
   -9781    -9647    -9571    -9595    -9600    -9714    -9830    -9722 
   -9650    -9719    -9705    -9678    -9680    -9616    -9646    -9756 
   -9717    -9671    -9731    -9705    -9644    -9673    -9655    -9619 
   -9704    -9773    -9709    -9615    -9601    -9645    -9654    -9648 
   -9706    -9752    -9746    -9751    -9712    -9611    -9578    -9647 
   -9724    -9742    -9687    -9611    -9616    -9694    -9749    -9774 
   -9747    -9640    -9581    -9627    -9631    -9599    -9674    -9791 
   -9816    -9759    -9659    -9562    -9526    -9583    -9709    -9746 
   -9701    -9738    -9714    -9592    -9624    -9737    -9765    -9762 
   -9736    -9691    -9689    -9736    -9726    -9628    -9610    -9663 
   -9668    -9694    -9703    -9642    -9627    -9674    -9718    -9736 
   -9736    -9760    -9786    -9764    -9685    -9595    -9571    -9609 
   -9662    -9708    -9696    -9669    -9702    -9756    -9787    -9753 
   -9680    -9692    -9730    -9661    -9572    -9571    -9589    -9606 
   -9681    -9728    -9690    -9697    -9736    -9703    -9705    -9750 
   -9709    -9693    -9749    -9702    -9584    -9562    -9625    -9703 
   -9730    -9691    -9669    -9690    -9743    -9790    -9726    -9639 
   -9641    -9621    -9626    -9740    -9768    -9705    -9696    -9661 
   -9619    -9643    -9667    -9681    -9676    -9652    -9683    -9726 
   -9725    -9723    -9682    -9587    -9600    -9690    -9673    -9698 
   -9772    -9683    -9628    -9657    -9566    -9559    -9680    -9759 
   -9838    -9794    -9629    -9613    -9663    -9651    -9693    -9729 
   -9686    -9699    -9723    -9658    -9660    -9704    -9655    -9658 
   -9673    -9601    -9632    -9696    -9665    -9696    -9713    -9677 
   -9759    -9819    -9718    -9588    -9526    -9564    -9679    -9756 
   -9755    -9732    -9714    -9704    -9733    -9724    -9641    -9641 
   -9672    -9634    -9661    -9669    -9631    -9708    -9724    -9635 
   -9651    -9662    -9639    -9697    -9707    -9652    -9671    -9691 
   -9673    -9713    -9725    -9653    -9651    -9685    -9684    -9697 
   -9660    -9620    -9664    -9692    -9698    -9709    -9711    -9717 
   -9678    -9654    -9676    -9652    -9659    -9699    -9679    -9676 
   -9691    -9687    -9674    -9636    -9661    -9706    -9668    -9671 
   -9693    -9623    -9603    -9705    -9767    -9755    -9771    -9749 
   -9701    -9747    -9705    -9559    -9580    -9626    -9581    -9613 
   -9614    -9556    -9612    -9733    -9820    -9780    -9642    -9625 
   -9678    -9647    -9671    -9764    -9736    -9705    -9797    -9752 
   -9585    -9599    -9690    -9711    -9709    -9618    -9566    -9658 
   -9697    -9703    -9711    -9618    -9607    -9687    -9661    -9665 
   -9684    -9656    -9797    -9889    -9708    -9640    -9692    -9595 
   -9571    -9659    -9623    -9594    -9686    -9743    -9733    -9732 
   -9766    -9781    -9728    -9662    -9607    -9535    -9525    -9621 
   -9696    -9668    -9647    -9681    -9694    -9699    -9708    -9704 
   -9726    -9767    -9794    -9753    -9647    -9652    -9733    -9696 
   -9644    -9647    -9609    -9587    -9618    -9668    -9723    -9705 
   -9617    -9555    -9564    -9654    -9786    -9849    -9822    -9779 
   -9732    -9682    -9685    -9701    -9671    -9657    -9703    -9747 
   -9732    -9687    -9639    -9571    -9522    -9551    -9600    -9606 
   -9679    -9804    -9778    -9665    -9673    -9727    -9750    -9797 
   -9783    -9667    -9589    -9578    -9608    -9669    -9680    -9659 
   -9658    -9636    -9636    -9693    -9737    -9727    -9681    -9646 
   -9651    -9701    -9808    -9891    -9879    -9800    -9657    -9557 
   -9604    -9611    -9517    -9523    -9606    -9636    -9632    -9635 
   -9714    -9825    -9801    -9701    -9616    -9516    -9496    -9601 
   -9695    -9703    -9654    -9670    -9848   -10002    -9928    -9783 
   -9727    -9686    -9637    -9550    -9339    -9194    -9342    -9676 
   -9987   -10091    -9941    -9726    -9577    -9579    -9799    -9962 
   -9845    -9667    -9541    -9416    -9452    -9672    -9832    -9787 
   -9577    -9404    -9451    -9702    -9977   -10016    -9788    -9530 
   -9425    -9486    -9544    -9541    -9617    -9764    -9962   -10150 
  -10072    -9726    -9457    -9436    -9578    -9744    -9754    -9649 
   -9685    -9741    -9648    -9645    -9716    -9669    -9642    -9685 
   -9663    -9590    -9628    -9820    -9900    -9757    -9594    -9482 
   -9506    -9737    -9874    -9739    -9608    -9662    -9703    -9639 
   -9692    -9815    -9782    -9747    -9753    -9603    -9510    -9653 
   -9713    -9605    -9565    -9543    -9482    -9538    -9636    -9648 
   -9646    -9633    -9630    -9656    -9686    -9856   -10048   -10023 
   -9931    -9711    -9312    -9187    -9332    -9437    -9547    -9619 
   -9643    -9713    -9790    -9955   -10152   -10122    -9855    -9572 
   -9470    -9459    -9470    -9661    -9854    -9855    -9875    -9942 
   -9878    -9705    -9561    -9493    -9497    -9619    -9738    -9668 
   -9501    -9439    -9554    -9690    -9743    -9850    -9877    -9750 
   -9779    -9814    -9645    -9636    -9831    -9916    -9895    -9817 
   -9629    -9420    -9319    -9371    -9514    -9575    -9515    -9480 
   -9458    -9457    -9664    -9904    -9917    -9872    -9826    -9763 
   -9827    -9901    -9887    -9958   -10058    -9995    -9816    -9590 
   -9307    -9146    -9209    -9266    -9301    -9411    -9521    -9782 
  -10133   -10212   -10110    -9944    -9675    -9539    -9622    -9737 
   -9766    -9730    -9749    -9821    -9794    -9643    -9470    -9352 
   -9349    -9536    -9804    -9905    -9880    -9868    -9818    -9750 
   -9721    -9639    -9455    -9329    -9474    -9698    -9699    -9662 
   -9744    -9814    -9913   -10004    -9853    -9498    -9285    -9351 
   -9450    -9524    -9657    -9657    -9540    -9579    -9729    -9808 
   -9770    -9702    -9715    -9742    -9758    -9832    -9888    -9874 
   -9799    -9645    -9493    -9455    -9531    -9614    -9640    -9688 
   -9780    -9885    -9989    -9906    -9625    -9500    -9589    -9666 
   -9717    -9718    -9578    -9504    -9671    -9852    -9853    -9735 
   -9647    -9714    -9763    -9630    -9472    -9316    -9203    -9347 
   -9638    -9805    -9819    -9815    -9853    -9848    -9820    -9813 
   -9738    -9725    -9883    -9896    -9660    -9488    -9499    -9593 
   -9696    -9709    -9561    -9360    -9329    -9513    -9737    -9884 
   -9951    -9974    -9967    -9855    -9636    -9499    -9479    -9492 
   -9614    -9712    -9583    -9524    -9705    -9854    -9913    -9900 
   -9767    -9643    -9593    -9532    -9423    -9355    -9468    -9681 
   -9776    -9728    -9660    -9645    -9699    -9856   -10017    -9987 
   -9842    -9749    -9671    -9634    -9700    -9745    -9722    -9707 
   -9660    -9551    -9503    -9577    -9640    -9583    -9514    -9524 
   -9531    -9600    -9772    -9813    -9723    -9760    -9906    -9965 
   -9911    -9779    -9537    -9384    -9505    -9668    -9738    -9759 
   -9649    -9560    -9632    -9696    -9719    -9734    -9716    -9755 
   -9749    -9594    -9537    -9638    -9681    -9661    -9631    -9560 
   -9539    -9624    -9723    -9809    -9853    -9793    -9718    -9650 
   -9539    -9538    -9689    -9796    -9810    -9766    -9655    -9585 
   -9633    -9699    -9678    -9539    -9372    -9409    -9642    -9822 
   -9919    -9954    -9886    -9873    -9941    -9954    -9913    -9742 
   -9458    -9328    -9349    -9388    -9497    -9646    -9758    -9823 
   -9874    -9919    -9834    -9708    -9674    -9543    -9406    -9478 
   -9510    -9461    -9562    -9686    -9691    -9702    -9774    -9833 
   -9805    -9732    -9710    -9690    -9613    -9621    -9697    -9605 
   -9483    -9551    -9589    -9595    -9791    -9934    -9818    -9698 
   -9725    -9771    -9802    -9880    -9887    -9732    -9608    -9614 
   -9595    -9546    -9550    -9545    -9578    -9746    -9843    -9720 
   -9614    -9613    -9599    -9658    -9786    -9866    -9904    -9819 
   -9665    -9625    -9601    -9604    -9732    -9794    -9757    -9713 
   -9609    -9518    -9516    -9566    -9682    -9756    -9736    -9750 
   -9752    -9705    -9718    -9703    -9589    -9528    -9542    -9587 
   -9682    -9708    -9618    -9574    -9604    -9663    -9753    -9782 
   -9732    -9700    -9726    -9788    -9720    -9551    -9598    -9743 
   -9711    -9673    -9674    -9583    -9579    -9730    -9777    -9651 
   -9550    -9570    -9640    -9718    -9789    -9771    -9648    -9591 
   -9667    -9691    -9650    -9701    -9740    -9684    -9676    -9693 
   -9675    -9702    -9749    -9788    -9831    -9817    -9777    -9749 
   -9644    -9508    -9498    -9573    -9647    -9744    -9811    -9801 
   -9778    -9753    -9736    -9743    -9734    -9731    -9712    -9634 
   -9564    -9531    -9552    -9632    -9675    -9678    -9662    -9578 
   -9530    -9585    -9629    -9670    -9770    -9819    -9759    -9679 
   -9618    -9594    -9592    -9563    -9582    -9658    -9661    -9671 
   -9790    -9835    -9787    -9821    -9863    -9840    -9825    -9757 
   -9628    -9533    -9470    -9461    -9498    -9503    -9570    -9756 
   -9901    -9926    -9883    -9777    -9626    -9546    -9590    -9627 
   -9604    -9615    -9673    -9757    -9849    -9843    -9719    -9603 
   -9574    -9583    -9606    -9646    -9603    -9505    -9538    -9637 
   -9674    -9719    -9736    -9665    -9652    -9737    -9759    -9742 
   -9769    -9718    -9661    -9682    -9602    -9559    -9639    -9627 
   -9690    -9830    -9773    -9728    -9782    -9757    -9749    -9743 
   -9660    -9644    -9729    -9770    -9689    -9548    -9460    -9515 
   -9662    -9729    -9734    -9756    -9724    -9732    -9845    -9845 
   -9729    -9725    -9759    -9693    -9653    -9624    -9504    -9485 
   -9597    -9656    -9673    -9665    -9658    -9717    -9752    -9728 
   -9650    -9553    -9594    -9701    -9746    -9802    -9822    -9750 
   -9693    -9669    -9578    -9465    -9517    -9645    -9675    -9699 
   -9713    -9625    -9522    -9522    -9621    -9679    -9720    -9870 
   -9969    -9934    -9881    -9749    -9575    -9578    -9680    -9672 
   -9623    -9621    -9536    -9446    -9524    -9600    -9618    -9725 
   -9793    -9783    -9828    -9849    -9804    -9743    -9647    -9617 
   -9675    -9654    -9616    -9676    -9681    -9636    -9664    -9681 
   -9683    -9746    -9798    -9802    -9746    -9621    -9563    -9621 
   -9669    -9706    -9751    -9694    -9572    -9551    -9597    -9599 
   -9604    -9673    -9745    -9744    -9700    -9661    -9604    -9598 
   -9722    -9811    -9780    -9731    -9658    -9598    -9627    -9704 
   -9807    -9837    -9758    -9723    -9657    -9528    -9553    -9624 
   -9629    -9718    -9774    -9713    -9697    -9695    -9655    -9652 
   -9660    -9682    -9696    -9614    -9583    -9690    -9733    -9749 
   -9776    -9661    -9612    -9742    -9778    -9743    -9695    -9570 
   -9532    -9579    -9568    -9589    -9631    -9630    -9707    -9781 
   -9709    -9678    -9738    -9715    -9692    -9710    -9674    -9712 
   -9788    -9766    -9757    -9692    -9564    -9595    -9631    -9598 
