Origin Time       2021/08/14 22:38:00
Lat.              37.5
Long.             137.2
Depth. (km)       10
Mag.              4.1
Station Code      TYMH04
Station Lat.      36.7914
Station Long.     137.4689
Station Height(m) 154
Record Time       2021/08/14 22:38:31
Sampling Freq(Hz) 100Hz
Duration Time(s)  120
Dir.              6
Scale Factor      3920(gal)/6170801
Max. Acc. (gal)   0.348
Last Correction   2021/08/14 22:38:16
Memo.             
[...]
   20551    20560    20566    20549    20543    20560    20560    20555 
   20562    20548    20547    20569    20553    20549    20563    20540 
   20555    20578    20546    20552    20567    20541    20556    20567 
   20543    20555    20561    20549    20562    20561    20546    20558 
   20564    20551    20548    20561    20555    20545    20570    20563 
   20539    20565    20558    20544    20568    20553    20546    20564 
   20557    20555    20556    20548    20553    20558    20556    20552 
   20550    20555    20556    20555    20558    20552    20552    20559 
   20557    20557    20552    20549    20559    20553    20551    20559 
   20554    20552    20554    20551    20554    20559    20552    20548 
   20558    20551    20547    20566    20556    20546    20560    20553 
   20554    20565    20552    20548    20553    20559    20563    20553 
   20552    20556    20559    20564    20554    20550    20553    20549 
   20559    20566    20553    20546    20553    20558    20558    20550 
   20548    20556    20556    20557    20557    20543    20553    20566 
   20549    20556    20563    20541    20560    20570    20545    20554 
   20559    20541    20555    20555    20539    20562    20560    20537 
   20564    20567    20536    20558    20562    20535    20557    20561 
   20538    20561    20556    20537    20570    20561    20535    20562 
   20553    20537    20565    20560    20539    20555    20558    20547 
   20560    20556    20538    20554    20561    20549    20555    20550 
   20549    20565    20559    20553    20558    20547    20547    20562 
   20558    20544    20546    20556    20555    20557    20558    20539 
   20546    20566    20553    20552    20558    20541    20553    20570 
   20545    20545    20563    20545    20552    20571    20545    20543 
   20567    20547    20548    20572    20545    20542    20572    20547 
   20548    20571    20540    20547    20568    20540    20556    20569 
   20538    20551    20564    20541    20553    20564    20546    20552 
   20556    20547    20559    20562    20540    20544    20562    20554 
   20554    20554    20539    20554    20561    20549    20560    20555 
   20545    20557    20554    20547    20551    20553    20555    20556 
   20558    20553    20550    20558    20549    20548    20558    20547 
   20553    20560    20549    20555    20556    20549    20554    20556 
   20556    20552    20556    20558    20549    20558    20554    20542 
   20561    20558    20544    20558    20553    20550    20561    20545 
   20542    20558    20556    20554    20558    20555    20551    20559 
   20559    20548    20550    20549    20550    20566    20556    20543 
   20556    20556    20553    20564    20551    20541    20556    20554 
   20548    20560    20555    20547    20561    20556    20544    20562 
   20558    20543    20561    20555    20546    20566    20551    20544 
   20559    20547    20551    20565    20549    20549    20559    20552 
   20556    20563    20546    20546    20557    20549    20556    20560 
   20546    20555    20561    20558    20558    20544    20550    20556 
   20549    20560    20559    20549    20552    20551    20557    20553 
   20549    20563    20556    20548    20558    20550    20552    20558 
   20547    20555    20558    20553    20560    20550    20542    20552 
   20546    20548    20561    20551    20548    20567    20559    20546 
   20556    20553    20551    20557    20546    20541    20564    20572 
   20552    20544    20538    20559    20607    20594    20549    20526 
   20493    20504    20571    20602    20589    20558    20506    20507 
   20574    20607    20625    20635    20563    20475    20463    20504 
   20554    20607    20660    20653    20575    20509    20470    20469 
   20561    20657    20636    20545    20491    20476    20470    20525 
   20639    20700    20635    20493    20439    20490    20512    20553 
   20649    20661    20549    20433    20455    20553    20508    20338 
   20251    20299    20405    20601    20890    21006    20826    20570 
   20367    20327    20558    20808    20857    20807    20710    20573 
   20474    20420    20372    20386    20488    20543    20538    20564 
   20499    20346    20354    20562    20848    20999    20742    20268 
   20100    20314    20573    20670    20634    20587    20662    20833 
   20855    20606    20345    20354    20473    20478    20551    20774 
   20839    20587    20274    20227    20430    20641    20728    20637 
   20518    20660    20871    20719    20353    20133    20186    20544 
   20866    20764    20521    20456    20430    20420    20464    20530 
   20743    20950    20829    20525    20287    20254    20558    20901 
   20785    20350    20206    20409    20514    20501    20616    20741 
   20733    20671    20583    20483    20436    20428    20394    20378 
   20528    20785    20821    20554    20325    20410    20657    20750 
   20670    20546    20408    20418    20649    20772    20647    20552 
   20588    20640    20588    20387    20269    20414    20605    20635 
   20547    20504    20583    20634    20618    20614    20553    20484 
   20506    20553    20580    20556    20504    20520    20560    20524 
   20433    20413    20503    20596    20661    20679    20618    20558 
   20531    20525    20560    20666    20819    20748    20411    20245 
   20386    20595    20691    20568    20403    20457    20672    20799 
   20669    20499    20535    20606    20585    20501    20410    20438 
   20504    20527    20581    20589    20550    20549    20532    20548 
   20633    20700    20718    20621    20424    20326    20368    20423 
   20526    20707    20750    20637    20639    20655    20536    20531 
   20612    20632    20678    20609    20432    20404    20395    20330 
   20430    20616    20675    20684    20719    20598    20372    20403 
   20644    20692    20470    20341    20497    20605    20582    20684 
   20758    20667    20523    20394    20444    20593    20623    20581 
   20403    20264    20553    20880    20794    20581    20386    20263 
   20466    20681    20580    20493    20493    20444    20528    20679 
   20735    20770    20672    20468    20461    20592    20647    20568 
   20355    20222    20345    20603    20787    20748    20578    20486 
   20452    20455    20593    20748    20755    20627    20435    20382 
   20516    20639    20785    20849    20617    20372    20286    20265 
   20308    20376    20566    20756    20690    20659    20723    20607 
   20469    20460    20502    20505    20487    20646    20807    20628 
   20404    20451    20553    20638    20824    20819    20461    20241 
   20382    20596    20700    20607    20468    20436    20430    20584 
   20769    20655    20457    20351    20319    20413    20595    20919 
   21040    20621    20372    20536    20500    20423    20515    20471 
   20407    20497    20628    20740    20755    20633    20485    20439 
   20503    20546    20477    20433    20527    20573    20525    20598 
   20663    20570    20504    20479    20392    20336    20494    20822 
   20844    20536    20459    20508    20506    20736    20801    20453 
   20340    20521    20544    20535    20651    20664    20550    20565 
   20681    20704    20674    20545    20295    20289    20511    20535 
   20462    20501    20537    20633    20755    20674    20570    20650 
   20722    20605    20382    20330    20497    20576    20536    20592 
   20613    20475    20456    20626    20691    20631    20519    20307 
   20311    20617    20743    20644    20596    20523    20445    20554 
   20752    20787    20609    20389    20276    20323    20599    20943 
   20902    20505    20287    20318    20376    20516    20709    20807 
   20761    20594    20506    20532    20493    20447    20437    20440 
   20537    20674    20774    20717    20455    20369    20496    20490 
   20488    20635    20705    20580    20406    20443    20563    20516 
   20550    20715    20751    20712    20617    20483    20523    20624 
   20563    20465    20435    20455    20512    20536    20519    20558 
   20635    20638    20586    20542    20505    20516    20533    20551 
   20648    20646    20504    20455    20470    20578    20780    20729 
   20506    20415    20382    20483    20655    20585    20500    20541 
   20457    20462    20676    20728    20652    20662    20619    20503 
   20436    20405    20421    20476    20511    20606    20724    20687 
   20613    20587    20509    20469    20443    20413    20582    20762 
   20695    20632    20624    20435    20296    20439    20629    20736 
   20749    20592    20427    20407    20484    20611    20653    20591 
   20550    20474    20431    20548    20657    20694    20651    20482 
   20400    20471    20534    20562    20562    20566    20608    20673 
   20717    20597    20388    20361    20471    20565    20612    20549 
   20463    20492    20568    20609    20590    20527    20534    20607 
   20613    20600    20669    20644    20482    20431    20473    20506 
   20592    20600    20450    20432    20604    20637    20533    20555 
   20628    20630    20627    20588    20496    20401    20383    20556 
   20711    20667    20679    20679    20488    20452    20575    20531 
   20478    20525    20535    20518    20517    20599    20679    20600 
   20530    20525    20481    20525    20614    20594    20560    20527 
   20505    20592    20622    20502    20467    20554    20560    20538 
   20587    20580    20550    20577    20499    20408    20500    20620 
   20685    20658    20457    20370    20546    20684    20674    20659 
   20630    20518    20380    20329    20413    20564    20710    20796 
   20711    20541    20521    20490    20309    20367    20693    20798 
   20668    20559    20451    20440    20577    20578    20430    20430 
   20563    20605    20554    20587    20724    20738    20545    20398 
   20457    20529    20484    20471    20563    20674    20671    20511 
   20418    20528    20609    20593    20617    20583    20480    20489 
   20539    20569    20662    20656    20499    20415    20441    20500 
   20583    20656    20626    20510    20555    20717    20679    20548 
   20505    20427    20369    20469    20545    20470    20443    20524 
   20581    20676    20743    20594    20453    20457    20491    20600 
   20665    20611    20570    20435    20356    20566    20657    20535 
   20583    20639    20524    20514    20621    20638    20614    20574 
   20392    20268    20487    20737    20705    20590    20479    20381 
   20500    20701    20715    20616    20463    20353    20483    20697 
   20758    20659    20468    20332    20341    20477    20709    20857 
   20764    20520    20340    20396    20566    20642    20679    20647 
   20501    20453    20510    20494    20471    20547    20670    20691 
   20574    20498    20529    20522    20419    20375    20548    20748 
   20730    20610    20495    20406    20487    20696    20744    20543 
   20342    20339    20440    20619    20812    20745    20533    20500 
   20567    20616    20622    20544    20479    20474    20496    20540 
   20555    20518    20464    20500    20686    20794    20683    20525 
   20446    20472    20526    20540    20599    20614    20521    20521 
   20573    20529    20518    20557    20547    20566    20574    20512 
   20548    20649    20650    20592    20501    20470    20527    20471 
   20463    20635    20654    20582    20588    20490    20450    20595 
   20637    20551    20508    20516    20562    20631    20652    20607 
   20550    20481    20453    20569    20633    20539    20539    20581 
   20524    20499    20492    20531    20679    20677    20529    20539 
   20559    20438    20458    20602    20598    20586    20668    20596 
   20409    20417    20609    20723    20678    20563    20437    20372 
   20450    20653    20821    20731    20469    20381    20465    20528 
   20594    20668    20658    20537    20419    20494    20644    20601 
   20489    20506    20544    20554    20627    20681    20575    20382 
   20361    20606    20776    20696    20662    20599    20334    20306 
   20511    20519    20563    20679    20556    20499    20582    20515 
   20521    20665    20660    20531    20432    20437    20561    20694 
   20728    20690    20615    20465    20369    20462    20547    20595 
   20772    20801    20501    20306    20415    20530    20591    20693 
   20682    20545    20455    20435    20480    20586    20668    20648 
   20498    20317    20303    20505    20755    20887    20858    20657 
   20401    20340    20412    20422    20471    20582    20573    20542 
   20676    20726    20561    20514    20558    20501    20564    20698 
   20626    20440    20271    20242    20451    20727    20908    20892 
   20606    20251    20170    20438    20683    20704    20693    20541 
   20257    20271    20578    20806    20805    20673    20553    20503 
   20548    20597    20622    20687    20632    20462    20396    20443 
   20615    20726    20550    20441    20548    20561    20578    20716 
   20685    20480    20392    20387    20325    20375    20618    20776 
   20680    20529    20482    20462    20459    20551    20660    20670 
   20597    20525    20541    20652    20718    20628    20516    20463 
   20377    20402    20580    20610    20559    20624    20550    20381 
   20468    20645    20680    20651    20483    20281    20478    20942 
   21085    20746    20244    20007    20171    20552    20906    20978 
   20768    20481    20296    20361    20519    20593    20672    20698 
   20581    20443    20453    20622    20699    20611    20546    20524 
   20521    20539    20569    20687    20786    20689    20514    20376 
   20227    20155    20329    20649    20859    20915    20786    20519 
   20343    20229    20218    20496    20727    20719    20734    20688 
   20541    20553    20732    20859    20752    20546    20381    20133 
   20054    20280    20450    20543    20626    20634    20641    20562 
   20478    20582    20642    20581    20568    20578    20622    20690 
   20652    20521    20520    20699    20711    20507    20413    20402 
   20355    20323    20407    20667    20784    20648    20666    20711 
   20439    20241    20398    20576    20646    20735    20729    20609 
   20599    20625    20565    20559    20486    20288    20329    20550 
   20615    20603    20562    20490    20486    20465    20556    20761 
   20644    20415    20527    20740    20889    20925    20700    20444 
   20341    20280    20282    20465    20718    20714    20542    20512 
   20445    20355    20530    20737    20679    20439    20338    20564 
   20775    20785    20752    20586    20428    20534    20664    20611 
   20461    20334    20374    20601    20752    20639    20476    20386 
   20286    20255    20324    20459    20663    20751    20668    20614 
   20658    20722    20704    20609    20556    20581    20606    20560 
   20534    20530    20375    20254    20320    20392    20637    20935 
   20763    20454    20420    20414    20489    20732    20874    20801 
   20584    20457    20516    20540    20567    20687    20618    20420 
   20471    20588    20492    20417    20474    20533    20563    20479 
   20392    20504    20627    20617    20615    20645    20624    20540 
   20495    20542    20651    20771    20705    20456    20312    20345 
   20524    20681    20573    20435    20453    20429    20418    20486 
   20556    20703    20735    20543    20534    20716    20796    20848 
   20753    20473    20425    20534    20564    20627    20502    20236 
   20260    20387    20508    20716    20720    20600    20563    20446 
   20390    20547    20677    20715    20759    20695    20491    20432 
   20575    20655    20647    20661    20673    20628    20505    20451 
   20512    20481    20402    20411    20419    20440    20514    20581 
   20647    20691    20701    20625    20446    20417    20574    20643 
   20654    20678    20570    20414    20385    20424    20467    20508 
   20510    20508    20518    20457    20403    20487    20607    20706 
   20779    20732    20670    20647    20570    20567    20608    20491 
   20366    20386    20428    20448    20466    20462    20534    20662 
   20667    20643    20705    20722    20635    20493    20405    20458 
   20534    20532    20575    20722    20841    20825    20645    20434 
   20388    20445    20513    20603    20625    20603    20615    20559 
   20454    20431    20462    20464    20511    20635    20701    20722 
   20737    20663    20636    20677    20626    20617    20619    20441 
   20337    20404    20410    20406    20496    20589    20588    20556 
   20549    20495    20504    20582    20512    20428    20468    20518 
   20601    20657    20559    20467    20550    20685    20683    20565 
   20478    20444    20448    20505    20534    20526    20557    20576 
   20555    20549    20564    20556    20515    20516    20557    20542 
   20488    20536    20629    20566    20515    20606    20587    20517 
   20565    20559    20526    20594    20635    20620    20619    20605 
   20548    20489    20575    20754    20765    20650    20550    20427 
   20408    20558    20654    20613    20534    20449    20398    20457 
   20584    20617    20530    20473    20517    20610    20656    20647 
   20629    20545    20441    20426    20480    20591    20650    20567 
   20476    20434    20454    20556    20614    20616    20574    20479 
   20503    20591    20596    20631    20617    20497    20469    20504 
   20537    20595    20593    20612    20658    20595    20562    20563 
   20524    20612    20678    20521    20415    20476    20540    20592 
   20659    20655    20563    20513    20502    20493    20577    20616 
   20539    20540    20535    20483    20543    20588    20597    20666 
   20619    20507    20522    20602    20701    20724    20576    20408 
   20325    20375    20552    20612    20548    20576    20572    20474 
   20467    20487    20498    20589    20613    20532    20536    20574 
   20521    20492    20514    20517    20566    20589    20506    20491 
   20554    20585    20581    20501    20431    20470    20548    20662 
   20724    20669    20646    20648    20641    20665    20633    20573 
   20559    20529    20495    20506    20494    20480    20559    20602 
   20541    20587    20686    20656    20590    20513    20487    20598 
   20611    20515    20501    20489    20495    20541    20531    20558 
   20592    20559    20556    20542    20512    20532    20533    20539 
   20578    20593    20587    20543    20470    20461    20538    20601 
   20555    20525    20588    20573    20510    20513    20477    20473 
   20596    20683    20666    20621    20587    20560    20534    20513 
   20507    20524    20526    20505    20497    20484    20490    20553 
   20609    20639    20611    20529    20544    20617    20592    20540 
   20524    20520    20578    20695    20684    20508    20469    20566 
   20555    20590    20627    20474    20445    20552    20532    20533 
   20581    20568    20563    20584    20621    20656    20661    20633 
   20569    20530    20506    20474    20470    20444    20437    20512 
   20573    20591    20566    20521    20535    20607    20709    20735 
