Origin Time       2021/08/14 22:38:00
Lat.              37.5
Long.             137.2
Depth. (km)       10
Mag.              4.1
Station Code      TYMH04
Station Lat.      36.7914
Station Long.     137.4689
Station Height(m) 154
Record Time       2021/08/14 22:38:31
Sampling Freq(Hz) 100Hz
Duration Time(s)  120
Dir.              5
Scale Factor      3920(gal)/6170801
Max. Acc. (gal)   0.414
Last Correction   2021/08/14 22:38:16
Memo.             
[...]
    2858     2868     2838     2847     2852     2829     2858     2874 
    2831     2833     2861     2851     2854     2860     2835     2836 
    2861     2859     2845     2843     2851     2854     2847     2852 
    2859     2838     2833     2864     2860     2834     2852     2864 
    2839     2845     2862     2843     2847     2862     2841     2841 
    2865     2849     2845     2861     2835     2840     2882     2852 
    2824     2856     2847     2842     2878     2845     2815     2858 
    2863     2850     2866     2837     2819     2861     2868     2847 
    2847     2835     2846     2876     2849     2828     2851     2840 
    2841     2871     2849     2831     2855     2850     2846     2862 
    2840     2832     2862     2858     2834     2843     2852     2854 
    2859     2845     2836     2848     2850     2854     2856     2836 
    2838     2864     2860     2847     2842     2835     2846     2865 
    2854     2838     2843     2855     2859     2857     2846     2837 
    2853     2863     2852     2851     2850     2848     2858     2852 
    2842     2848     2848     2851     2862     2848     2834     2854 
    2862     2847     2848     2849     2839     2856     2865     2841 
    2843     2856     2845     2849     2856     2844     2844     2851 
    2852     2855     2847     2838     2854     2862     2841     2840 
    2847     2847     2866     2859     2825     2839     2861     2850 
    2851     2846     2828     2852     2872     2848     2841     2849 
    2844     2852     2860     2847     2836     2838     2854     2863 
    2847     2843     2851     2845     2850     2857     2837     2839 
    2860     2849     2842     2857     2849     2838     2857     2857 
    2830     2837     2863     2860     2839     2833     2847     2855 
    2852     2854     2845     2827     2842     2869     2859     2832 
    2833     2850     2854     2849     2844     2835     2841     2861 
    2861     2841     2834     2844     2848     2853     2862     2843 
    2827     2854     2860     2838     2847     2855     2846     2852 
    2851     2838     2843     2853     2857     2849     2822     2835 
    2882     2862     2828     2850     2843     2827     2872     2877 
    2826     2832     2853     2845     2854     2854     2837     2850 
    2867     2858     2850     2847     2838     2835     2844     2861 
    2863     2839     2842     2864     2842     2834     2866     2855 
    2832     2855     2864     2852     2843     2835     2850     2866 
    2846     2839     2862     2848     2834     2880     2895     2837 
    2806     2834     2882     2900     2854     2801     2804     2831 
    2848     2879     2906     2875     2836     2851     2844     2807 
    2831     2848     2832     2897     2936     2842     2794     2830 
    2818     2796     2818     2865     2956     3000     2880     2764 
    2801     2841     2838     2860     2824     2806     2895     2890 
    2798     2790     2810     2853     2936     2894     2784     2803 
    2860     2851     2822     2800     2845     2908     2881     2853 
    2843     2778     2753     2777     2792     2892     3022     3024 
    2946     2850     2774     2776     2799     2814     2839     2861 
    2929     2969     2874     2774     2750     2747     2781     2818 
    2822     2841     2866     2896     2923     2884     2850     2882 
    2850     2785     2855     2954     2918     2812     2741     2788 
    2945     3036     2935     2771     2734     2835     2957     2977 
    2862     2784     2863     2943     2890     2784     2752     2807 
    2806     2684     2646     2796     2952     3006     2946     2789 
    2728     2896     3089     3022     2740     2591     2711     2894 
    2957     2891     2783     2749     2799     2855     2872     2885 
    2929     2967     2981     2965     2871     2769     2698     2600 
    2596     2752     2918     3018     3033     2914     2775     2778 
    2844     2855     2855     2839     2842     2948     2977     2826 
    2730     2788     2866     2886     2843     2781     2820     2965 
    3026     2956     2903     2839     2737     2714     2717     2709 
    2819     2923     2874     2857     2895     2842     2810     2875 
    2888     2874     2924     2937     2859     2778     2766     2829 
    2861     2805     2767     2782     2827     2948     3047     2970 
    2804     2720     2759     2835     2847     2858     2922     2923 
    2833     2796     2844     2877     2908     2948     2843     2691 
    2771     2968     2990     2837     2712     2745     2813     2806 
    2820     2868     2874     2872     2901     2905     2847     2816 
    2865     2883     2830     2819     2836     2831     2855     2863 
    2832     2843     2840     2798     2812     2850     2872     2922 
    2965     2937     2866     2825     2802     2739     2712     2781 
    2848     2914     2985     2953     2846     2746     2715     2811 
    2880     2851     2904     2940     2837     2814     2832     2768 
    2839     2930     2848     2864     2958     2945     2927     2859 
    2740     2695     2746     2927     3010     2844     2760     2775 
    2741     2831     2894     2780     2760     2824     2856     2944 
    2926     2831     2943     2983     2762     2693     2777     2785 
    2890     2999     2873     2753     2851     2992     2979     2834 
    2715     2714     2849     2998     2977     2860     2747     2701 
    2877     2987     2757     2642     2776     2814     2880     3004 
    2951     2897     2899     2775     2719     2825     2895     2936 
    2946     2838     2777     2854     2931     2929     2813     2681 
    2725     2859     2912     2946     2947     2841     2790     2817 
    2724     2635     2773     2928     2915     2930     2956     2820 
    2779     2934     2901     2676     2619     2757     2905     3003 
    3014     2899     2812     2889     2937     2859     2830     2798 
    2713     2749     2833     2835     2899     2989     2948     2847 
    2791     2804     2851     2835     2817     2883     2904     2861 
    2934     3033     2948     2827     2793     2688     2627     2747 
    2806     2808     2911     2910     2833     2936     3009     2885 
    2788     2777     2812     2920     2973     2905     2840     2851 
    2897     2864     2728     2653     2688     2743     2834     2979 
    3055     3000     2923     2864     2756     2711     2809     2864 
    2841     2825     2792     2811     2873     2851     2828     2854 
    2865     2876     2864     2852     2865     2817     2825     2935 
    2927     2868     2913     2917     2844     2789     2763     2824 
    2935     2939     2865     2795     2736     2758     2852     2858 
    2816     2876     2929     2894     2882     2872     2819     2794 
    2799     2804     2795     2795     2862     2907     2851     2805 
    2800     2784     2836     2946     2943     2835     2789     2825 
    2872     2905     2916     2908     2891     2832     2754     2751 
    2797     2835     2900     2919     2850     2854     2921     2888 
    2797     2747     2762     2862     2944     2905     2813     2770 
    2792     2837     2890     2937     2906     2845     2852     2861 
    2821     2810     2865     2901     2851     2814     2819     2783 
    2786     2852     2848     2853     2923     2926     2900     2868 
    2782     2768     2837     2868     2884     2887     2822     2794 
    2880     2919     2846     2825     2881     2870     2825     2833 
    2836     2865     2921     2874     2774     2705     2686     2802 
    2919     2860     2813     2859     2858     2881     2907     2808 
    2783     2915     2911     2791     2811     2879     2871     2884 
    2894     2841     2789     2792     2838     2845     2788     2804 
    2891     2882     2829     2851     2854     2832     2866     2872 
    2831     2849     2893     2893     2852     2825     2829     2798 
    2789     2822     2785     2814     2932     2885     2849     2962 
    2910     2801     2875     2837     2680     2751     2898     2874 
    2848     2870     2800     2772     2878     2888     2826     2897 
    2960     2902     2848     2801     2781     2861     2896     2833 
    2828     2866     2886     2923     2915     2819     2765     2824 
    2883     2844     2802     2839     2881     2881     2878     2860 
    2807     2779     2786     2797     2822     2842     2848     2873 
    2898     2924     2908     2794     2737     2814     2866     2879 
    2915     2929     2913     2867     2802     2782     2795     2774 
    2723     2733     2856     2935     2887     2852     2831     2804 
    2875     2940     2888     2824     2800     2791     2813     2855 
    2856     2820     2816     2821     2793     2780     2803     2859 
    2901     2886     2866     2833     2792     2825     2853     2803 
    2784     2817     2886     2975     2992     2965     2944     2859 
    2758     2745     2806     2846     2810     2769     2758     2747 
    2828     2975     3004     2960     2931     2849     2758     2772 
    2835     2815     2774     2835     2856     2784     2821     2874 
    2806     2800     2821     2811     2946     3053     2969     2870 
    2754     2657     2735     2855     2894     2877     2793     2754 
    2830     2845     2789     2849     2951     2935     2906     2888 
    2806     2787     2858     2875     2860     2869     2904     2955 
    2943     2857     2793     2796     2856     2882     2811     2762 
    2785     2799     2829     2877     2857     2805     2816     2850 
    2856     2888     2930     2908     2851     2802     2772     2801 
    2860     2907     2935     2873     2749     2731     2801     2832 
    2866     2962     3004     2912     2817     2820     2812     2767 
    2806     2881     2887     2881     2885     2865     2842     2802 
    2798     2869     2894     2885     2888     2840     2823     2852 
    2835     2848     2866     2804     2783     2841     2884     2877 
    2840     2846     2872     2861     2870     2855     2781     2801 
    2889     2883     2860     2889     2873     2812     2774     2769 
    2822     2898     2897     2852     2863     2870     2837     2845 
    2838     2779     2782     2841     2886     2897     2832     2803 
    2898     2918     2853     2856     2849     2838     2906     2913 
    2794     2700     2780     2954     2986     2904     2857     2799 
    2769     2815     2817     2809     2880     2934     2959     2946 
    2796     2689     2790     2876     2837     2800     2809     2910 
    3056     3040     2909     2813     2716     2740     2895     2869 
    2725     2735     2799     2820     2865     2881     2830     2815 
    2873     2890     2842     2879     2950     2941     2950     2919 
    2768     2709     2748     2719     2743     2880     2933     2884 
    2861     2822     2764     2777     2814     2851     2901     2883 
    2869     2951     2939     2803     2772     2788     2760     2831 
    2890     2838     2885     2947     2842     2766     2801     2811 
    2851     2959     2955     2848     2815     2821     2821     2891 
    2956     2926     2865     2823     2831     2887     2900     2833 
    2799     2825     2793     2793     2917     2929     2816     2809 
    2810     2764     2828     2965     3075     3114     2997     2775 
    2605     2583     2705     2879     2990     2973     2883     2812 
    2765     2710     2682     2750     2876     2919     2815     2714 
    2847     3065     3081     3038     2968     2721     2617     2794 
    2901     2873     2790     2687     2789     3031     3076     2951 
    2798     2663     2691     2828     2845     2768     2689     2663 
    2812     3051     3151     3120     3097     3015     2819     2709 
    2729     2716     2742     2799     2699     2611     2741     2848 
    2792     2786     2865     2910     3006     3142     3092     2943 
    2913     2866     2705     2597     2568     2591     2769     2954 
    2907     2793     2748     2706     2791     2989     3059     3075 
    3225     3286     3010     2640     2474     2457     2518     2661 
    2801     2847     2880     3091     3271     2998     2593     2610 
    2862     3002     3026     2931     2795     2840     3033     3067 
    2854     2661     2646     2744     2900     2982     2869     2745 
    2851     2993     2879     2761     2873     2988     3094     3162 
    2894     2615     2742     2897     2846     2817     2784     2706 
    2811     3015     2965     2812     2817     2761     2672     2757 
    2816     2853     3006     3042     2928     2797     2615     2545 
    2700     2870     2942     2973     2897     2637     2438     2559 
    2843     3063     3173     3154     3059     2976     2899     2755 
    2550     2441     2503     2623     2781     3009     3188     3240 
    3187     2974     2609     2332     2340     2564     2835     2998 
    2940     2748     2637     2703     2892     3036     3081     3143 
    3155     3065     3082     3206     3259     3184     2930     2596 
    2407     2406     2534     2691     2778     2814     2808     2770 
    2744     2712     2768     2961     3099     3125     3059     2893 
    2816     2921     3024     3051     3051     2936     2645     2343 
    2198     2267     2597     3062     3347     3359     3295     3228 
    3087     2940     2816     2629     2463     2453     2565     2718 
    2896     3032     2961     2761     2734     2909     3084     3122 
    3007     2839     2654     2483     2533     2770     2970     3182 
    3296     3020     2592     2381     2416     2717     3140     3350 
    3268     3059     2909     2820     2662     2543     2593     2667 
    2752     2897     2916     2789     2679     2624     2670     2815 
    2953     3073     3139     3096     3011     2956     2957     2930 
    2782     2651     2683     2839     2988     2964     2749     2496 
    2433     2699     3014     3035     2917     2866     2818     2815 
    2901     2922     2864     2869     2999     3161     3124     2931 
    2855     2805     2744     2802     2747     2603     2692     2848 
    2906     2948     2903     2836     2891     2973     2938     2755 
    2582     2592     2776     3032     3185     3157     3099     3004 
    2767     2532     2430     2463     2700     3023     3089     2879 
    2752     2868     3003     2968     2864     2817     2845     2934 
    2931     2683     2427     2448     2632     2832     3013     3036 
    2963     3051     3182     3072     2847     2757     2788     2881 
    3001     2988     2791     2640     2681     2755     2755     2775 
    2821     2845     2925     3010     2931     2835     2888     2897 
    2790     2735     2736     2740     2826     2970     2981     2843 
    2765     2795     2833     2891     2928     2850     2792     2860 
    2938     2976     2983     2932     2879     2848     2781     2750 
    2836     2922     2965     3027     2979     2851     2888     2960 
    2871     2770     2745     2744     2792     2825     2739     2660 
    2715     2794     2842     2893     2906     2941     3032     2984 
    2769     2600     2585     2683     2767     2797     2825     2832 
    2912     3092     3148     3038     2902     2820     2846     2852 
    2763     2773     2840     2769     2722     2758     2703     2724 
    2938     3051     2968     2861     2784     2741     2814     2987 
    3048     2919     2856     2929     2937     2918     2948     2907 
    2811     2777     2808     2820     2779     2785     2799     2736 
    2766     2902     2910     2837     2852     2890     2882     2898 
    2908     2786     2632     2669     2829     2932     2992     2999 
    2924     2902     2955     2941     2879     2841     2806     2785 
    2786     2770     2741     2716     2691     2718     2799     2792 
    2746     2811     2843     2795     2838     2915     2942     2984 
    2951     2818     2813     2928     2919     2843     2843     2819 
    2806     2923     3014     2976     2944     2912     2816     2745 
    2731     2764     2838     2901     2945     2953     2948     3020 
    3058     2964     2885     2849     2789     2759     2762     2699 
    2621     2719     2901     2905     2816     2755     2720     2815 
    2937     2916     2893     2911     2910     2950     2932     2830 
    2818     2856     2869     2905     2880     2813     2844     2878 
    2823     2778     2745     2668     2645     2730     2819     2878 
    2933     2930     2901     2926     2957     2959     2951     2878 
    2744     2659     2687     2791     2892     2911     2852     2828 
    2892     2978     3016     2953     2802     2679     2659     2737 
    2841     2864     2825     2815     2881     3013     3069     2971 
    2854     2815     2810     2802     2806     2815     2816     2868 
    2947     2935     2857     2828     2874     2912     2858     2758 
    2675     2620     2675     2803     2851     2831     2832     2910 
    3026     3073     3077     3042     2909     2797     2748     2686 
    2677     2754     2847     2927     2964     2976     3004     2993 
    2913     2796     2713     2775     2924     2971     2896     2776 
    2664     2678     2811     2860     2834     2842     2825     2827 
    2880     2859     2828     2883     2916     2913     2915     2811 
    2674     2754     2930     2975     2983     2958     2864     2835 
    2822     2770     2761     2735     2728     2801     2827     2823 
    2837     2818     2842     2883     2845     2822     2847     2854 
    2889     2943     2892     2789     2813     2888     2868     2846 
    2860     2846     2902     3028     3031     2916     2839     2817 
    2832     2880     2883     2790     2641     2564     2616     2687 
    2754     2875     2961     2967     2968     2901     2717     2632 
    2758     2887     2935     3012     3037     2952     2894     2859 
    2779     2741     2781     2807     2793     2800     2826     2816 
    2822     2856     2854     2895     3027     3106     3092     3055 
    2971     2880     2879     2876     2810     2797     2833     2857 
    2902     2898     2804     2749     2769     2806     2885     2979 
    2994     2931     2837     2747     2716     2740     2755     2745 
    2720     2715     2790     2888     2911     2887     2879     2893 
    2931     2948     2869     2782     2801     2829     2826     2851 
    2838     2804     2828     2850     2831     2796     2761     2758 
    2780     2781     2803     2871     2908     2902     2905     2904 
    2901     2932     2956     2900     2839     2849     2852     2856 
    2887     2845     2779     2779     2818     2900     2949     2915 
    2898     2867     2815     2836     2843     2824     2877     2885 
    2838     2863     2885     2895     2924     2859     2791     2841 
    2874     2853     2836     2749     2682     2771     2866     2867 
    2865     2842     2815     2873     2896     2810     2763     2803 
    2857     2870     2803     2734     2738     2788     2880     2958 
