Origin Time       2021/08/14 22:38:00
Lat.              37.5
Long.             137.2
Depth. (km)       10
Mag.              4.1
Station Code      TYMH04
Station Lat.      36.7914
Station Long.     137.4689
Station Height(m) 54
Record Time       2021/08/14 22:38:31
Sampling Freq(Hz) 100Hz
Duration Time(s)  120
Dir.              3
Scale Factor      2940(gal)/6170270
Max. Acc. (gal)   0.205
Last Correction   2021/08/14 22:38:16
Memo.             
[...]
 -209291  -209292  -209293  -209294  -209293  -209292  -209294  -209293 
 -209291  -209293  -209293  -209293  -209293  -209291  -209290  -209293 
 -209294  -209295  -209294  -209292  -209292  -209294  -209293  -209292 
 -209294  -209295  -209292  -209291  -209294  -209295  -209293  -209292 
 -209291  -209290  -209293  -209296  -209293  -209292  -209294  -209294 
 -209292  -209292  -209293  -209293  -209292  -209292  -209292  -209293 
 -209294  -209294  -209292  -209290  -209291  -209294  -209291  -209289 
 -209294  -209294  -209292  -209292  -209292  -209292  -209293  -209292 
 -209293  -209295  -209292  -209293  -209296  -209294  -209291  -209294 
 -209295  -209294  -209292  -209292  -209291  -209291  -209294  -209294 
 -209292  -209292  -209292  -209293  -209294  -209292  -209294  -209297 
 -209291  -209289  -209294  -209292  -209289  -209292  -209292  -209291 
 -209293  -209291  -209291  -209293  -209294  -209292  -209292  -209294 
 -209293  -209290  -209290  -209293  -209292  -209289  -209290  -209293 
 -209293  -209292  -209292  -209293  -209293  -209293  -209292  -209290 
 -209291  -209292  -209291  -209292  -209292  -209293  -209294  -209294 
 -209295  -209294  -209293  -209294  -209296  -209294  -209293  -209294 
 -209292  -209292  -209293  -209294  -209294  -209292  -209292  -209295 
 -209294  -209292  -209291  -209292  -209292  -209291  -209293  -209294 
 -209294  -209294  -209291  -209290  -209293  -209293  -209292  -209294 
 -209294  -209292  -209293  -209294  -209292  -209292  -209293  -209294 
 -209293  -209291  -209290  -209291  -209292  -209292  -209290  -209292 
 -209292  -209291  -209294  -209295  -209293  -209293  -209292  -209293 
 -209294  -209293  -209294  -209295  -209292  -209292  -209294  -209293 
 -209293  -209296  -209295  -209292  -209291  -209292  -209293  -209294 
 -209292  -209291  -209291  -209292  -209292  -209292  -209293  -209294 
 -209295  -209294  -209294  -209294  -209295  -209294  -209293  -209292 
 -209293  -209292  -209292  -209292  -209292  -209292  -209292  -209292 
 -209290  -209290  -209291  -209291  -209292  -209295  -209295  -209294 
 -209293  -209295  -209297  -209295  -209292  -209290  -209291  -209294 
 -209294  -209293  -209293  -209294  -209294  -209296  -209298  -209298 
 -209295  -209287  -209284  -209292  -209298  -209296  -209282  -209267 
 -209275  -209300  -209320  -209326  -209310  -209282  -209262  -209268 
 -209294  -209306  -209294  -209278  -209268  -209261  -209273  -209309 
 -209338  -209333  -209316  -209294  -209250  -209215  -209219  -209250 
 -209304  -209356  -209357  -209309  -209267  -209263  -209278  -209287 
 -209304  -209324  -209297  -209243  -209237  -209286  -209319  -209320 
 -209335  -209347  -209308  -209250  -209242  -209295  -209325  -209300 
 -209318  -209415  -209493  -209484  -209433  -209353  -209191  -209032 
 -209043  -209202  -209363  -209466  -209483  -209404  -209283  -209173 
 -209095  -209074  -209118  -209210  -209322  -209412  -209423  -209352 
 -209259  -209176  -209168  -209279  -209387  -209368  -209260  -209177 
 -209217  -209370  -209492  -209501  -209439  -209369  -209320  -209277 
 -209187  -209059  -208989  -209086  -209340  -209532  -209521  -209455 
 -209396  -209235  -209069  -209082  -209223  -209325  -209348  -209361 
 -209359  -209310  -209262  -209200  -209099  -209080  -209215  -209433 
 -209618  -209594  -209363  -209178  -209142  -209174  -209248  -209330 
 -209388  -209423  -209381  -209239  -209102  -209079  -209215  -209422 
 -209484  -209344  -209213  -209246  -209354  -209387  -209340  -209293 
 -209252  -209222  -209234  -209243  -209211  -209211  -209322  -209464 
 -209478  -209410  -209364  -209264  -209119  -209099  -209229  -209353 
 -209380  -209360  -209333  -209301  -209293  -209305  -209268  -209191 
 -209184  -209276  -209339  -209277  -209206  -209258  -209354  -209386 
 -209375  -209363  -209345  -209301  -209266  -209283  -209276  -209203 
 -209186  -209270  -209342  -209341  -209289  -209264  -209295  -209286 
 -209226  -209224  -209299  -209391  -209454  -209453  -209372  -209272 
 -209222  -209243  -209306  -209333  -209307  -209272  -209206  -209173 
 -209280  -209411  -209412  -209330  -209267  -209256  -209277  -209285 
 -209244  -209175  -209162  -209230  -209294  -209307  -209300  -209302 
 -209316  -209349  -209392  -209371  -209269  -209202  -209232  -209281 
 -209294  -209302  -209323  -209311  -209250  -209215  -209265  -209342 
 -209368  -209367  -209364  -209303  -209212  -209195  -209227  -209267 
 -209326  -209370  -209378  -209333  -209232  -209183  -209224  -209256 
 -209284  -209357  -209376  -209297  -209224  -209195  -209163  -209174 
 -209306  -209442  -209416  -209324  -209346  -209401  -209337  -209276 
 -209308  -209288  -209205  -209202  -209298  -209382  -209362  -209315 
 -209336  -209312  -209241  -209265  -209270  -209159  -209105  -209190 
 -209339  -209456  -209438  -209350  -209313  -209311  -209327  -209335 
 -209290  -209251  -209236  -209217  -209245  -209301  -209304  -209277 
 -209267  -209295  -209363  -209417  -209394  -209279  -209147  -209111 
 -209188  -209295  -209377  -209412  -209385  -209343  -209333  -209332 
 -209316  -209272  -209237  -209248  -209210  -209135  -209162  -209254 
 -209342  -209428  -209496  -209521  -209415  -209200  -209086  -209076 
 -209074  -209153  -209330  -209463  -209470  -209452  -209458  -209366 
 -209206  -209164  -209227  -209233  -209203  -209235  -209247  -209192 
 -209246  -209433  -209514  -209397  -209265  -209272  -209316  -209280 
 -209247  -209223  -209148  -209121  -209230  -209393  -209478  -209462 
 -209384  -209200  -209022  -209079  -209238  -209287  -209352  -209493 
 -209553  -209482  -209379  -209307  -209218  -209091  -209050  -209163 
 -209297  -209344  -209353  -209362  -209377  -209393  -209363  -209305 
 -209268  -209228  -209194  -209211  -209258  -209283  -209321  -209407 
 -209427  -209297  -209187  -209233  -209320  -209346  -209342  -209301 
 -209242  -209277  -209373  -209371  -209294  -209278  -209287  -209264 
 -209276  -209291  -209214  -209119  -209141  -209277  -209392  -209378 
 -209309  -209305  -209338  -209348  -209344  -209312  -209241  -209207 
 -209259  -209344  -209350  -209274  -209258  -209312  -209296  -209242 
 -209238  -209219  -209202  -209288  -209377  -209330  -209243  -209241 
 -209303  -209382  -209420  -209376  -209318  -209310  -209329  -209329 
 -209304  -209266  -209199  -209139  -209186  -209312  -209401  -209421 
 -209372  -209247  -209152  -209199  -209292  -209314  -209332  -209361 
 -209318  -209244  -209228  -209251  -209246  -209240  -209323  -209447 
 -209472  -209401  -209309  -209218  -209137  -209129  -209254  -209396 
 -209409  -209365  -209356  -209305  -209195  -209148  -209201  -209254 
 -209289  -209376  -209447  -209369  -209235  -209205  -209251  -209268 
 -209257  -209279  -209320  -209328  -209320  -209321  -209307  -209273 
 -209247  -209258  -209275  -209256  -209247  -209281  -209319  -209357 
 -209391  -209387  -209338  -209289  -209281  -209285  -209280  -209269 
 -209243  -209213  -209215  -209267  -209331  -209321  -209259  -209262 
 -209328  -209360  -209349  -209327  -209287  -209255  -209268  -209272 
 -209227  -209213  -209287  -209375  -209405  -209395  -209362  -209267 
 -209160  -209156  -209230  -209277  -209299  -209340  -209396  -209422 
 -209355  -209242  -209198  -209197  -209205  -209298  -209417  -209434 
 -209355  -209245  -209175  -209173  -209206  -209286  -209357  -209320 
 -209282  -209314  -209300  -209264  -209267  -209243  -209224  -209244 
 -209260  -209301  -209355  -209371  -209376  -209383  -209368  -209340 
 -209302  -209243  -209190  -209208  -209312  -209404  -209392  -209311 
 -209247  -209240  -209270  -209279  -209246  -209199  -209207  -209287 
 -209355  -209344  -209278  -209230  -209238  -209284  -209346  -209396 
 -209397  -209355  -209297  -209254  -209247  -209251  -209244  -209259 
 -209310  -209352  -209342  -209308  -209301  -209293  -209264  -209305 
 -209400  -209382  -209285  -209260  -209243  -209180  -209166  -209222 
 -209279  -209297  -209310  -209325  -209293  -209257  -209268  -209252 
 -209217  -209251  -209314  -209349  -209361  -209353  -209338  -209317 
 -209298  -209302  -209281  -209201  -209168  -209268  -209376  -209367 
 -209320  -209310  -209297  -209275  -209262  -209266  -209299  -209341 
 -209368  -209356  -209271  -209194  -209236  -209320  -209333  -209312 
 -209295  -209257  -209222  -209243  -209312  -209351  -209338  -209335 
 -209325  -209230  -209130  -209158  -209242  -209306  -209414  -209496 
 -209416  -209270  -209201  -209185  -209201  -209252  -209318  -209393 
 -209427  -209387  -209314  -209248  -209217  -209211  -209176  -209161 
 -209252  -209365  -209393  -209394  -209413  -209373  -209263  -209187 
 -209212  -209307  -209369  -209346  -209320  -209333  -209302  -209243 
 -209240  -209253  -209238  -209225  -209231  -209250  -209282  -209318 
 -209320  -209297  -209281  -209252  -209242  -209298  -209317  -209241 
 -209197  -209253  -209331  -209382  -209400  -209369  -209305  -209271 
 -209284  -209276  -209222  -209174  -209183  -209272  -209380  -209433 
 -209421  -209361  -209311  -209287  -209266  -209289  -209321  -209283 
 -209266  -209318  -209329  -209281  -209266  -209283  -209275  -209244 
 -209239  -209265  -209324  -209382  -209348  -209243  -209191  -209221 
 -209280  -209339  -209355  -209313  -209260  -209234  -209278  -209352 
 -209327  -209243  -209219  -209264  -209348  -209410  -209397  -209344 
 -209277  -209178  -209130  -209202  -209293  -209305  -209305  -209353 
 -209382  -209342  -209278  -209254  -209257  -209257  -209297  -209348 
 -209298  -209202  -209191  -209222  -209248  -209313  -209404  -209459 
 -209423  -209302  -209210  -209195  -209224  -209298  -209373  -209352 
 -209267  -209257  -209349  -209400  -209338  -209253  -209193  -209161 
 -209196  -209275  -209294  -209260  -209279  -209356  -209387  -209355 
 -209324  -209302  -209271  -209257  -209290  -209325  -209267  -209169 
 -209195  -209325  -209391  -209374  -209376  -209366  -209280  -209205 
 -209204  -209214  -209207  -209238  -209320  -209380  -209365  -209319 
 -209285  -209272  -209279  -209279  -209266  -209265  -209280  -209291 
 -209298  -209332  -209364  -209334  -209294  -209283  -209248  -209228 
 -209277  -209315  -209296  -209284  -209316  -209342  -209314  -209264 
 -209245  -209249  -209252  -209293  -209353  -209326  -209259  -209268 
 -209305  -209296  -209267  -209257  -209285  -209313  -209300  -209291 
 -209298  -209265  -209258  -209344  -209400  -209345  -209277  -209257 
 -209249  -209242  -209276  -209335  -209333  -209288  -209293  -209323 
 -209312  -209297  -209307  -209264  -209168  -209162  -209274  -209355 
 -209347  -209334  -209340  -209303  -209242  -209243  -209277  -209254 
 -209220  -209283  -209396  -209419  -209346  -209284  -209238  -209177 
 -209204  -209356  -209448  -209356  -209209  -209169  -209194  -209222 
 -209302  -209394  -209398  -209360  -209346  -209326  -209285  -209254 
 -209269  -209316  -209319  -209279  -209268  -209286  -209306  -209328 
 -209322  -209273  -209234  -209221  -209223  -209284  -209353  -209345 
 -209343  -209364  -209285  -209154  -209156  -209277  -209337  -209318 
 -209313  -209282  -209197  -209172  -209267  -209366  -209362  -209333 
 -209353  -209361  -209333  -209336  -209372  -209365  -209297  -209198 
 -209106  -209099  -209201  -209315  -209379  -209408  -209400  -209335 
 -209248  -209191  -209144  -209139  -209253  -209385  -209431  -209433 
 -209378  -209273  -209223  -209270  -209365  -209398  -209345  -209280 
 -209187  -209074  -209097  -209279  -209424  -209425  -209397  -209409 
 -209374  -209310  -209316  -209342  -209283  -209190  -209175  -209217 
 -209240  -209241  -209267  -209330  -209330  -209247  -209234  -209298 
 -209335  -209322  -209240  -209158  -209181  -209247  -209309  -209389 
 -209390  -209283  -209249  -209332  -209362  -209315  -209333  -209406 
 -209372  -209218  -209116  -209131  -209186  -209283  -209439  -209507 
 -209394  -209241  -209192  -209244  -209315  -209338  -209343  -209362 
 -209332  -209286  -209335  -209386  -209328  -209266  -209243  -209187 
 -209146  -209203  -209305  -209357  -209344  -209284  -209243  -209301 
 -209368  -209313  -209187  -209173  -209316  -209433  -209426  -209343 
 -209227  -209169  -209200  -209254  -209284  -209253  -209217  -209289 
 -209421  -209452  -209345  -209246  -209217  -209160  -209133  -209234 
 -209318  -209282  -209235  -209276  -209324  -209281  -209271  -209368 
 -209404  -209328  -209284  -209323  -209357  -209313  -209223  -209134 
 -209076  -209129  -209299  -209473  -209569  -209560  -209459  -209317 
 -209185  -209081  -209038  -209111  -209239  -209314  -209346  -209347 
 -209317  -209336  -209382  -209377  -209353  -209326  -209297  -209258 
 -209167  -209089  -209155  -209374  -209606  -209647  -209498  -209328 
 -209189  -209086  -209073  -209175  -209317  -209351  -209285  -209267 
 -209328  -209384  -209369  -209345  -209361  -209350  -209337  -209367 
 -209310  -209156  -209108  -209174  -209190  -209187  -209243  -209255 
 -209218  -209274  -209382  -209428  -209412  -209375  -209357  -209340 
 -209267  -209199  -209208  -209246  -209265  -209279  -209318  -209388 
 -209391  -209287  -209233  -209286  -209281  -209190  -209178  -209269 
 -209344  -209399  -209456  -209417  -209254  -209127  -209127  -209183 
 -209259  -209334  -209379  -209406  -209390  -209332  -209331  -209396 
 -209355  -209168  -209000  -208899  -208862  -208996  -209238  -209395 
 -209445  -209471  -209543  -209613  -209564  -209442  -209365  -209353 
 -209359  -209328  -209271  -209217  -209156  -209133  -209183  -209233 
 -209251  -209271  -209287  -209303  -209315  -209295  -209257  -209223 
 -209222  -209284  -209335  -209346  -209408  -209470  -209447  -209403 
 -209329  -209211  -209183  -209243  -209260  -209230  -209206  -209207 
 -209253  -209320  -209388  -209421  -209373  -209353  -209391  -209306 
 -209135  -209064  -209069  -209118  -209244  -209361  -209384  -209329 
 -209267  -209259  -209276  -209296  -209355  -209417  -209404  -209310 
 -209211  -209175  -209200  -209287  -209394  -209438  -209427  -209385 
 -209343  -209323  -209262  -209204  -209250  -209304  -209280  -209251 
 -209249  -209265  -209295  -209308  -209324  -209351  -209312  -209240 
 -209247  -209258  -209205  -209198  -209265  -209314  -209294  -209269 
 -209333  -209403  -209393  -209374  -209328  -209251  -209256  -209298 
 -209289  -209304  -209335  -209296  -209244  -209236  -209218  -209196 
 -209235  -209305  -209331  -209305  -209274  -209251  -209201  -209190 
 -209292  -209379  -209323  -209221  -209211  -209262  -209304  -209340 
 -209351  -209295  -209194  -209137  -209172  -209245  -209309  -209395 
 -209497  -209553  -209539  -209456  -209354  -209292  -209266  -209262 
 -209289  -209334  -209356  -209303  -209220  -209218  -209266  -209285 
 -209278  -209238  -209179  -209161  -209180  -209220  -209284  -209336 
 -209346  -209372  -209454  -209499  -209444  -209377  -209333  -209270 
 -209218  -209204  -209214  -209262  -209307  -209306  -209305  -209317 
 -209289  -209235  -209221  -209250  -209249  -209200  -209172  -209175 
 -209190  -209244  -209322  -209376  -209393  -209367  -209322  -209309 
 -209294  -209237  -209213  -209261  -209313  -209331  -209312  -209264 
 -209221  -209207  -209216  -209228  -209229  -209234  -209247  -209253 
 -209270  -209299  -209311  -209305  -209305  -209333  -209364  -209337 
 -209291  -209316  -209353  -209336  -209316  -209333  -209342  -209308 
 -209291  -209303  -209281  -209245  -209260  -209325  -209368  -209334 
 -209274  -209272  -209311  -209348  -209385  -209380  -209306  -209237 
 -209212  -209217  -209264  -209327  -209359  -209372  -209384  -209364 
 -209317  -209314  -209374  -209414  -209379  -209329  -209292  -209229 
 -209187  -209207  -209216  -209195  -209202  -209215  -209175  -209118 
 -209138  -209236  -209325  -209365  -209355  -209293  -209242  -209257 
 -209296  -209349  -209429  -209467  -209420  -209337  -209266  -209233 
 -209249  -209282  -209291  -209272  -209267  -209288  -209273  -209218 
 -209207  -209259  -209297  -209288  -209266  -209267  -209285  -209286 
 -209271  -209273  -209296  -209342  -209393  -209417  -209405  -209366 
 -209339  -209347  -209337  -209283  -209230  -209205  -209218  -209249 
 -209276  -209310  -209323  -209298  -209283  -209263  -209226  -209234 
 -209263  -209265  -209266  -209258  -209240  -209235  -209258  -209304 
 -209323  -209309  -209296  -209257  -209212  -209223  -209250  -209246 
 -209250  -209299  -209354  -209367  -209347  -209324  -209308  -209293 
 -209273  -209249  -209253  -209289  -209322  -209338  -209331  -209296 
 -209279  -209315  -209369  -209383  -209338  -209292  -209274  -209236 
 -209204  -209232  -209270  -209296  -209332  -209337  -209300  -209270 
 -209266  -209288  -209316  -209331  -209358  -209399  -209417  -209415 
 -209405  -209381  -209345  -209289  -209231  -209221  -209252  -209291 
 -209315  -209273  -209191  -209171  -209230  -209278  -209273  -209269 
 -209296  -209323  -209324  -209297  -209255  -209245  -209292  -209332 
 -209298  -209240  -209216  -209205  -209204  -209229  -209262  -209306 
 -209330  -209291  -209254  -209258  -209261  -209269  -209293  -209297 
 -209269  -209241  -209255  -209306  -209336  -209344  -209357  -209361 
 -209341  -209303  -209269  -209258  -209265  -209265  -209258  -209272 
 -209284  -209271  -209281  -209314  -209312  -209314  -209361  -209391 
 -209377  -209377  -209389  -209347  -209281  -209282  -209310  -209282 
 -209261  -209296  -209319  -209308  -209292  -209274  -209261  -209260 
 -209266  -209288  -209298  -209275  -209260  -209267  -209264  -209244 
 -209229  -209251  -209305  -209348  -209380  -209381  -209342  -209340 
 -209358  -209322  -209266  -209216  -209165  -209167  -209226  -209279 
 -209304  -209310  -209311  -209310  -209302  -209290  -209263  -209237 
 -209254  -209282  -209266  -209244  -209269  -209301  -209316  -209347 
 -209369  -209347  -209329  -209337  -209326  -209302  -209296  -209280 
 -209243  -209225  -209257  -209305  -209316  -209292  -209250  -209212 
 -209226  -209273  -209292  -209297  -209308  -209329  -209368  -209393 
 -209381  -209351  -209324  -209301  -209274  -209262  -209272  -209273 
 -209277  -209307  -209318  -209306  -209313  -209325  -209319  -209296 
 -209276  -209274  -209263  -209251  -209281  -209327  -209337  -209335 
 -209335  -209306  -209259  -209233  -209230  -209237  -209259  -209287 
 -209302  -209307  -209307  -209288  -209251  -209233  -209249  -209264 
 -209255  -209231  -209223  -209235  -209250  -209277  -209319  -209330 
 -209296  -209260  -209252  -209268  -209310  -209352  -209375  -209370 
 -209339  -209301  -209267  -209249  -209281  -209327  -209348  -209367 
 -209365  -209329  -209302  -209286  -209257  -209251  -209280  -209294 
 -209273  -209242  -209237  -209249  -209255  -209287  -209339  -209364 
 -209360  -209344  -209329  -209325  -209333  -209336  -209321  -209322 
 -209344  -209341  -209336  -209348  -209326  -209277  -209253  -209259 
 -209265  -209250  -209236  -209231  -209205  -209196  -209245  -209284 
 -209277  -209284  -209327  -209367  -209386  -209396  -209377  -209302 
 -209230  -209221  -209253  -209269  -209255  -209248  -209254  -209243 
