Origin Time       2021/08/14 22:38:00
Lat.              37.5
Long.             137.2
Depth. (km)       10
Mag.              4.1
Station Code      TYMH04
Station Lat.      36.7914
Station Long.     137.4689
Station Height(m) 54
Record Time       2021/08/14 22:38:31
Sampling Freq(Hz) 100Hz
Duration Time(s)  120
Dir.              1
Scale Factor      2940(gal)/6170270
Max. Acc. (gal)   0.300
Last Correction   2021/08/14 22:38:16
Memo.             
[...]
  -71097   -71096   -71095   -71098   -71099   -71097   -71095   -71096 
  -71097   -71096   -71097   -71098   -71096   -71095   -71095   -71095 
  -71096   -71097   -71098   -71098   -71096   -71096   -71098   -71097 
  -71096   -71096   -71096   -71095   -71095   -71097   -71098   -71098 
  -71097   -71095   -71096   -71097   -71096   -71099   -71099   -71096 
  -71098   -71099   -71097   -71097   -71096   -71096   -71097   -71097 
  -71097   -71099   -71097   -71095   -71097   -71097   -71095   -71095 
  -71096   -71095   -71096   -71098   -71099   -71099   -71097   -71097 
  -71096   -71096   -71099   -71098   -71097   -71098   -71099   -71099 
  -71097   -71095   -71095   -71096   -71097   -71098   -71098   -71097 
  -71096   -71097   -71097   -71096   -71096   -71098   -71097   -71095 
  -71096   -71096   -71097   -71098   -71096   -71096   -71096   -71096 
  -71096   -71098   -71097   -71097   -71097   -71097   -71096   -71096 
  -71095   -71094   -71096   -71097   -71095   -71095   -71095   -71096 
  -71097   -71096   -71095   -71094   -71094   -71096   -71097   -71096 
  -71098   -71098   -71095   -71096   -71096   -71097   -71097   -71094 
  -71093   -71096   -71097   -71096   -71097   -71097   -71094   -71094 
  -71095   -71096   -71096   -71094   -71095   -71096   -71096   -71097 
  -71097   -71095   -71095   -71098   -71097   -71095   -71096   -71097 
  -71096   -71095   -71095   -71095   -71095   -71095   -71095   -71096 
  -71097   -71097   -71096   -71095   -71095   -71097   -71097   -71096 
  -71097   -71097   -71097   -71097   -71097   -71094   -71095   -71097 
  -71095   -71096   -71098   -71097   -71098   -71097   -71096   -71095 
  -71095   -71095   -71096   -71096   -71096   -71096   -71097   -71098 
  -71097   -71095   -71095   -71096   -71096   -71096   -71097   -71096 
  -71096   -71096   -71095   -71097   -71096   -71095   -71096   -71097 
  -71097   -71096   -71095   -71096   -71096   -71094   -71095   -71096 
  -71096   -71096   -71097   -71097   -71095   -71095   -71097   -71096 
  -71094   -71094   -71094   -71096   -71097   -71097   -71098   -71099 
  -71099   -71099   -71098   -71095   -71093   -71094   -71096   -71096 
  -71096   -71098   -71096   -71094   -71097   -71099   -71095   -71093 
  -71096   -71096   -71095   -71097   -71096   -71096   -71096   -71094 
  -71095   -71097   -71095   -71094   -71097   -71094   -71093   -71096 
  -71095   -71093   -71094   -71097   -71098   -71095   -71093   -71093 
  -71094   -71097   -71098   -71096   -71094   -71094   -71096   -71098 
  -71100   -71102   -71098   -71092   -71091   -71094   -71094   -71092 
  -71091   -71090   -71094   -71100   -71104   -71102   -71095   -71092 
  -71095   -71098   -71096   -71091   -71092   -71094   -71091   -71090 
  -71095   -71099   -71100   -71097   -71096   -71102   -71101   -71088 
  -71083   -71094   -71107   -71106   -71092   -71086   -71093   -71094 
  -71095   -71108   -71116   -71111   -71106   -71109   -71107   -71090 
  -71074   -71073   -71086   -71096   -71085   -71069   -71080   -71095 
  -71082   -71074   -71094   -71114   -71120   -71121   -71112   -71105 
  -71112   -71109   -71091   -71083   -71091   -71103   -71109   -71089 
  -71052   -71041   -71067   -71100   -71107   -71093   -71104   -71134 
  -71120   -71068   -71041   -71066   -71123   -71160   -71138   -71079 
  -71040   -71053   -71091   -71093   -71080   -71114   -71149   -71118 
  -71071   -71077   -71124   -71151   -71136   -71104   -71081   -71063 
  -71033   -71002   -71018   -71100   -71192   -71218   -71170   -71093 
  -71044   -71040   -71046   -71038   -71038   -71059   -71090   -71116 
  -71127   -71115   -71084   -71068   -71098   -71153   -71171   -71140 
  -71108   -71090   -71066   -71055   -71092   -71159   -71205   -71202 
  -71145   -71059   -70998   -70990   -71037   -71111   -71144   -71109 
  -71071   -71091   -71149   -71161   -71086   -70988   -70973   -71061 
  -71157   -71197   -71201   -71162   -71064   -70974   -70970   -71058 
  -71163   -71206   -71165   -71069   -70969   -70937   -71012   -71134 
  -71209   -71204   -71146   -71078   -71036   -71030   -71050   -71067 
  -71063   -71057   -71079   -71137   -71205   -71222   -71171   -71106 
  -71069   -71064   -71078   -71095   -71118   -71144   -71130   -71070 
  -71021   -71006   -71002   -71008   -71030   -71066   -71111   -71143 
  -71148   -71155   -71188   -71207   -71158   -71072   -71010   -70994 
  -71010   -71038   -71067   -71110   -71151   -71162   -71150   -71124 
  -71097   -71090   -71099   -71107   -71109   -71102   -71077   -71042 
  -71023   -71035   -71060   -71080   -71103   -71138   -71152   -71129 
  -71109   -71103   -71094   -71088   -71092   -71112   -71132   -71125 
  -71118   -71138   -71155   -71137   -71099   -71074   -71072   -71089 
  -71118   -71136   -71131   -71106   -71079   -71068   -71055   -71024 
  -71008   -71012   -71011   -71012   -71037   -71089   -71146   -71175 
  -71167   -71124   -71070   -71041   -71032   -71044   -71086   -71134 
  -71165   -71165   -71126   -71079   -71066   -71078   -71094   -71129 
  -71165   -71157   -71117   -71091   -71080   -71073   -71060   -71040 
  -71044   -71082   -71120   -71136   -71123   -71090   -71072   -71080 
  -71098   -71105   -71107   -71123   -71136   -71120   -71080   -71051 
  -71048   -71063   -71092   -71136   -71174   -71182   -71140   -71070 
  -71038   -71049   -71065   -71078   -71085   -71084   -71090   -71108 
  -71125   -71126   -71118   -71104   -71082   -71052   -71017   -71002 
  -71034   -71089   -71130   -71145   -71147   -71150   -71145   -71136 
  -71142   -71129   -71074   -71037   -71045   -71059   -71059   -71045 
  -71026   -71042   -71099   -71160   -71189   -71166   -71111   -71055 
  -71020   -71010   -71024   -71060   -71098   -71118   -71137   -71167 
  -71188   -71181   -71137   -71082   -71055   -71050   -71041   -71042 
  -71065   -71096   -71118   -71117   -71105   -71098   -71105   -71117 
  -71115   -71095   -71078   -71072   -71064   -71048   -71063   -71112 
  -71136   -71135   -71113   -71057   -71020   -71047   -71097   -71132 
  -71157   -71165   -71135   -71099   -71088   -71088   -71103   -71128 
  -71120   -71072   -71024   -71009   -71045   -71100   -71124   -71121 
  -71116   -71107   -71106   -71117   -71111   -71084   -71044   -71021 
  -71042   -71080   -71100   -71105   -71108   -71115   -71102   -71079 
  -71097   -71135   -71147   -71156   -71172   -71164   -71128   -71077 
  -71024   -71008   -71023   -71010   -70998   -71034   -71078   -71121 
  -71180   -71212   -71208   -71185   -71135   -71077   -71033   -71004 
  -71005   -71039   -71071   -71090   -71108   -71124   -71141   -71149 
  -71145   -71134   -71093   -71039   -71030   -71054   -71050   -71024 
  -71037   -71081   -71103   -71121   -71165   -71199   -71191   -71149 
  -71077   -71019   -71025   -71069   -71104   -71117   -71122   -71127 
  -71115   -71086   -71073   -71067   -71053   -71040   -71039   -71076 
  -71129   -71138   -71113   -71095   -71096   -71114   -71144   -71165 
  -71150   -71103   -71038   -70979   -70978   -71037   -71104   -71140 
  -71148   -71154   -71155   -71119   -71063   -71043   -71058   -71081 
  -71096   -71084   -71050   -71029   -71039   -71082   -71141   -71190 
  -71213   -71187   -71121   -71055   -71004   -70983   -71023   -71096 
  -71133   -71123   -71093   -71068   -71070   -71091   -71105   -71109 
  -71114   -71124   -71129   -71118   -71106   -71095   -71077   -71078 
  -71097   -71099   -71094   -71106   -71112   -71106   -71097   -71094 
  -71110   -71119   -71098   -71080   -71074   -71040   -70999   -71011 
  -71067   -71115   -71137   -71149   -71144   -71109   -71078   -71082 
  -71085   -71071   -71063   -71060   -71064   -71094   -71133   -71154 
  -71158   -71153   -71133   -71109   -71105   -71129   -71138   -71091 
  -71020   -70994   -71011   -71028   -71053   -71085   -71096   -71086 
  -71057   -71019   -71026   -71088   -71139   -71145   -71144   -71161 
  -71175   -71164   -71139   -71135   -71149   -71150   -71143   -71137 
  -71114   -71086   -71061   -71018   -70985   -71002   -71033   -71047 
  -71058   -71079   -71117   -71140   -71120   -71078   -71042   -71018 
  -71028   -71080   -71137   -71165   -71181   -71174   -71123   -71073 
  -71059   -71075   -71106   -71127   -71114   -71084   -71069   -71072 
  -71072   -71068   -71073   -71088   -71103   -71099   -71071   -71058 
  -71077   -71109   -71133   -71135   -71120   -71112   -71121   -71132 
  -71122   -71092   -71064   -71047   -71043   -71056   -71088   -71123 
  -71127   -71089   -71051   -71038   -71044   -71083   -71149   -71187 
  -71180   -71159   -71131   -71099   -71067   -71037   -71025   -71037 
  -71053   -71069   -71073   -71061   -71076   -71123   -71156   -71172 
  -71174   -71143   -71100   -71073   -71066   -71085   -71103   -71088 
  -71077   -71103   -71136   -71144   -71134   -71119   -71090   -71044 
  -71016   -71031   -71066   -71085   -71101   -71135   -71157   -71138 
  -71112   -71099   -71092   -71085   -71074   -71067   -71079   -71100 
  -71102   -71083   -71077   -71097   -71121   -71118   -71091   -71068 
  -71066   -71073   -71075   -71061   -71028   -71017   -71052   -71092 
  -71111   -71134   -71172   -71198   -71181   -71145   -71112   -71084 
  -71079   -71097   -71107   -71108   -71105   -71099   -71102   -71102 
  -71088   -71072   -71049   -71027   -71026   -71038   -71056   -71092 
  -71118   -71112   -71099   -71085   -71065   -71061   -71074   -71081 
  -71084   -71104   -71140   -71174   -71186   -71170   -71133   -71084 
  -71047   -71046   -71074   -71094   -71079   -71044   -71033   -71056 
  -71075   -71083   -71108   -71148   -71165   -71152   -71140   -71136 
  -71108   -71058   -71021   -71020   -71052   -71086   -71113   -71141 
  -71148   -71116   -71078   -71072   -71103   -71146   -71170   -71158 
  -71105   -71045   -71020   -71019   -71024   -71043   -71082   -71121 
  -71143   -71151   -71137   -71090   -71049   -71056   -71092   -71110 
  -71101   -71074   -71048   -71051   -71076   -71098   -71118   -71132 
  -71133   -71122   -71098   -71076   -71074   -71086   -71100   -71113 
  -71117   -71115   -71118   -71117   -71101   -71077   -71057   -71048 
  -71057   -71081   -71099   -71102   -71105   -71114   -71118   -71113 
  -71102   -71098   -71106   -71112   -71104   -71090   -71093   -71111 
  -71119   -71118   -71124   -71115   -71072   -71029   -71027   -71065 
  -71100   -71098   -71086   -71093   -71098   -71097   -71106   -71111 
  -71114   -71122   -71116   -71099   -71090   -71067   -71031   -71024 
  -71052   -71083   -71100   -71107   -71116   -71127   -71115   -71086 
  -71074   -71083   -71104   -71134   -71146   -71127   -71108   -71081 
  -71038   -71032   -71074   -71116   -71127   -71109   -71085   -71084 
  -71104   -71121   -71120   -71109   -71109   -71108   -71087   -71061 
  -71049   -71046   -71050   -71055   -71062   -71086   -71129   -71170 
  -71184   -71174   -71156   -71122   -71073   -71043   -71045   -71047 
  -71035   -71033   -71057   -71095   -71135   -71152   -71129   -71090 
  -71074   -71087   -71117   -71149   -71163   -71161   -71165   -71151 
  -71093   -71036   -71017   -71014   -71017   -71035   -71053   -71073 
  -71099   -71104   -71091   -71086   -71073   -71036   -71007   -71024 
  -71077   -71115   -71102   -71068   -71057   -71066   -71081   -71118 
  -71161   -71171   -71147   -71124   -71126   -71152   -71177   -71180 
  -71161   -71124   -71064   -70993   -70954   -70980   -71050   -71112 
  -71150   -71170   -71165   -71117   -71054   -71036   -71064   -71084 
  -71080   -71080   -71093   -71100   -71093   -71087   -71096   -71110 
  -71111   -71120   -71168   -71218   -71212   -71161   -71097   -71051 
  -71049   -71084   -71121   -71136   -71134   -71128   -71114   -71066 
  -70973   -70876   -70841   -70895   -71012   -71136   -71228   -71291 
  -71325   -71326   -71306   -71247   -71131   -71009   -70942   -70914 
  -70916   -70989   -71122   -71253   -71345   -71369   -71313   -71186 
  -71007   -70830   -70731   -70713   -70727   -70796   -70971   -71217 
  -71430   -71549   -71571   -71481   -71266   -71015   -70848   -70776 
  -70775   -70862   -71003   -71117   -71177   -71184   -71162   -71187 
  -71225   -71158   -70994   -70850   -70837   -70997   -71222   -71334 
  -71276   -71136   -71045   -71055   -71113   -71169   -71183   -71099 
  -70959   -70882   -70913   -71007   -71108   -71204   -71308   -71373 
  -71338   -71219   -71079   -70967   -70912   -70927   -70981   -71005 
  -70993   -71010   -71081   -71141   -71123   -71043   -70975   -70972 
  -71020   -71081   -71143   -71185   -71188   -71173   -71188   -71234 
  -71233   -71141   -71024   -70958   -70952   -70985   -71068   -71227 
  -71404   -71468   -71382   -71233   -71107   -71015   -70954   -70930 
  -70928   -70957   -71042   -71155   -71249   -71289   -71252   -71190 
  -71155   -71102   -70992   -70873   -70809   -70792   -70830   -70988 
  -71214   -71359   -71382   -71314   -71161   -70978   -70847   -70823 
  -70911   -71056   -71201   -71308   -71313   -71242   -71225   -71294 
  -71351   -71310   -71173   -71026   -70933   -70875   -70834   -70836 
  -70855   -70879   -70966   -71121   -71293   -71442   -71478   -71337 
  -71083   -70830   -70659   -70635   -70767   -70947   -71055   -71088 
  -71128   -71206   -71279   -71345   -71385   -71308   -71117   -70953 
  -70929   -71069   -71326   -71573   -71689   -71621   -71360   -70981 
  -70649   -70488   -70465   -70500   -70586   -70727   -70900   -71094 
  -71256   -71313   -71283   -71239   -71195   -71152   -71153   -71205 
  -71266   -71307   -71298   -71218   -71104   -71023   -70994   -70998 
  -71059   -71183   -71297   -71345   -71354   -71351   -71289   -71121 
  -70910   -70735   -70643   -70684   -70851   -71096   -71366   -71537 
  -71491   -71257   -70962   -70740   -70685   -70805   -70983   -71078 
  -71057   -70997   -71010   -71169   -71396   -71522   -71488   -71328 
  -71079   -70829   -70722   -70815   -71026   -71252   -71437   -71538 
  -71527   -71400   -71178   -70933   -70745   -70624   -70575   -70642 
  -70801   -70969   -71107   -71227   -71344   -71415   -71404   -71340 
  -71225   -71089   -71038   -71051   -71037   -71028   -71054   -71068 
  -71089   -71153   -71210   -71187   -71080   -70970   -70944   -70981 
  -71019   -71055   -71105   -71167   -71204   -71166   -71067   -70978 
  -70959   -71061   -71238   -71315   -71230   -71085   -70965   -70909 
  -70965   -71118   -71255   -71294   -71243   -71172   -71130   -71084 
  -71024   -71006   -71022   -71025   -71033   -71062   -71084   -71079 
  -71051   -71050   -71135   -71271   -71339   -71277   -71111   -70906 
  -70729   -70674   -70794   -71022   -71250   -71420   -71479   -71366 
  -71139   -70950   -70904   -71015   -71201   -71327   -71327   -71231 
  -71104   -71013   -70960   -70930   -70954   -71031   -71096   -71121 
  -71142   -71156   -71123   -71060   -71028   -71057   -71130   -71217 
  -71273   -71228   -71094   -70978   -70917   -70883   -70887   -70939 
  -70994   -71039   -71094   -71177   -71267   -71300   -71260   -71186 
  -71102   -71009   -70895   -70789   -70783   -70904   -71082   -71270 
  -71413   -71425   -71323   -71208   -71115   -71048   -71039   -71078 
  -71117   -71137   -71153   -71170   -71160   -71111   -71060   -71037 
  -71030   -71021   -71025   -71066   -71119   -71144   -71156   -71181 
  -71194   -71163   -71089   -70976   -70869   -70842   -70905   -71022 
  -71133   -71197   -71241   -71286   -71276   -71188   -71094   -71059 
  -71069   -71088   -71100   -71106   -71128   -71168   -71192   -71185 
  -71165   -71145   -71118   -71081   -71043   -70995   -70943   -70926 
  -70978   -71075   -71142   -71112   -71009   -70936   -70959   -71051 
  -71145   -71173   -71122   -71058   -71040   -71075   -71159   -71255 
  -71299   -71286   -71267   -71251   -71208   -71127   -71042   -71005 
  -71022   -71042   -71029   -70988   -70938   -70919   -70937   -70974 
  -71023   -71052   -71056   -71089   -71151   -71181   -71170   -71164 
  -71174   -71166   -71126   -71080   -71066   -71093   -71145   -71195 
  -71218   -71193   -71147   -71136   -71156   -71142   -71083   -71021 
  -70976   -70949   -70957   -71012   -71087   -71147   -71173   -71161 
  -71144   -71149   -71145   -71112   -71080   -71062   -71054   -71064 
  -71094   -71137   -71171   -71153   -71081   -70995   -70933   -70933 
  -71016   -71118   -71152   -71134   -71135   -71166   -71205   -71225 
  -71195   -71121   -71024   -70933   -70908   -70978   -71092   -71171 
  -71193   -71188   -71153   -71099   -71075   -71100   -71142   -71159 
  -71127   -71061   -70997   -70979   -71015   -71065   -71106   -71146 
  -71171   -71158   -71141   -71144   -71146   -71130   -71104   -71092 
  -71109   -71134   -71154   -71184   -71204   -71183   -71142   -71106 
  -71063   -71016   -70973   -70945   -70959   -71015   -71075   -71113 
  -71130   -71148   -71158   -71134   -71089   -71052   -71015   -70973 
  -70972   -71042   -71145   -71227   -71257   -71233   -71184   -71144 
  -71112   -71073   -71042   -71034   -71040   -71051   -71062   -71060 
  -71040   -71015   -71014   -71058   -71110   -71123   -71111   -71101 
  -71093   -71080   -71070   -71088   -71143   -71209   -71253   -71251 
  -71210   -71149   -71097   -71067   -71045   -71015   -70969   -70922 
  -70941   -71036   -71140   -71217   -71250   -71227   -71163   -71098 
  -71046   -70986   -70916   -70884   -70927   -71017   -71094   -71142 
  -71189   -71238   -71270   -71264   -71217   -71169   -71142   -71123 
  -71118   -71126   -71117   -71093   -71086   -71097   -71092   -71060 
  -71018   -70976   -70939   -70916   -70926   -70998   -71116   -71237 
  -71333   -71368   -71313   -71214   -71139   -71084   -71008   -70944 
  -70951   -71009   -71074   -71154   -71233   -71242   -71170   -71072 
  -71006   -70999   -71034   -71075   -71104   -71124   -71134   -71129 
  -71082   -70998   -70940   -70955   -71015   -71067   -71105   -71149 
  -71194   -71209   -71194   -71165   -71120   -71077   -71054   -71026 
  -70996   -71003   -71050   -71121   -71190   -71220   -71207   -71178 
  -71144   -71102   -71040   -70954   -70878   -70867   -70927   -71009 
  -71082   -71131   -71137   -71111   -71080   -71045   -71017   -71025 
  -71078   -71153   -71235   -71309   -71337   -71281   -71171   -71068 
  -71014   -71016   -71046   -71076   -71090   -71082   -71061   -71045 
  -71061   -71122   -71196   -71239   -71229   -71163   -71081   -71031 
  -71014   -71024   -71047   -71058   -71064   -71095   -71145   -71178 
  -71179   -71152   -71112   -71094   -71105   -71119   -71128   -71126 
  -71102   -71072   -71063   -71070   -71070   -71056   -71037   -71022 
  -71011   -71011   -71035   -71093   -71175   -71257   -71308   -71308 
  -71271   -71225   -71179   -71116   -71035   -70971   -70958   -70994 
  -71047   -71094   -71126   -71119   -71071   -71021   -70998   -71015 
  -71063   -71100   -71096   -71066   -71049   -71056   -71064   -71063 
  -71061   -71056   -71039   -71038   -71070   -71122   -71185   -71232 
  -71229   -71187   -71141   -71103   -71072   -71060   -71078   -71098 
  -71087   -71060   -71047   -71053   -71071   -71099   -71123   -71115 
  -71079   -71057   -71057   -71071   -71105   -71138   -71145   -71140 
